X,Y,OBJECTID,NAME_OF_DISTRICT_COUNCIL_DISTRI,LOCATION_EN,ADDRESS_EN,NAME_OF_DISTRICT_COUNCIL_DIST_1,LOCATION_TC,ADDRESS_TC,NAME_OF_DISTRICT_COUNCIL_DIST_2,LOCATION_SC,ADDRESS_SC,STANDARD_BS1363_no,MEDIUM_IEC62196_no,MEDIUM_SAEJ1772_no,MEDIUM_OTHERS_no,QUICK_CHAdeMO_no,QUICK_CCS_DC_COMBO_no,QUICK_IEC62196_no,QUICK_GB_T20234_3_DC__no,QUICK_OTHERS_no,REMARK_FOR__OTHERS_,DATA_PATH
12707057.4238178,2544037.33376202,1,Central & Western,The Peak Galleria,"118 Peak Rd, The Peak",中西區,山頂廣場,山頂道118號,中西区,山顶广场,山顶道118号,0,6,0,0,0,0,0,0,0,Tesla Wall Connector,-
12707637.7323234,2545250.40968911,2,Central & Western,The Centrium,"60 Wyndham Street, Central",中西區,中央廣場,中環雲咸街60號,中西区,中央广场,中环云咸街60号,2,2,0,0,0,0,0,0,0,-,-
12708373.5541575,2545013.89873259,3,Central & Western,Three Garden Road Carpark,GARDEN ROAD,中西區,花園道三號停車場,花園道,中西区,花园道三号停车场,花园道,3,20,0,2,0,0,0,0,0,-,-
12707891.7634013,2545214.80050236,4,Central & Western,NEW WORLD TOWER,"QUEEN'S ROAD CENTRAL, CENTRAL & WESTERN",中西區,新世界大廈,中西區 皇后大道中,中西区,新世界大厦,中西区 皇后大道中,1,8,0,0,0,4,0,0,0,-,-
12708282.0495361,2545507.37551458,5,Central & Western,Star Ferry Car Park,"9 Edinburgh Place, Central, Hong Kong",中西區,天星停車場,香港中環愛丁堡廣場9號,中西区,天星停车场,香港中环爱丁堡广场9号,0,35,0,0,0,0,0,0,0,-,https://ev-charger.epd.gov.hk/resource/ev_charger_avail/ev_charger_avail.json
12708471.2926704,2545405.83985977,6,Central & Western,City Hall Car Park,"1 Edinburgh Place, Central, Hong Kong",中西區,大會堂停車場,香港中環愛丁堡廣場1號,中西区,大会堂停车场,香港中环爱丁堡广场1号,0,30,0,0,0,0,0,0,0,-,https://ev-charger.epd.gov.hk/resource/ev_charger_avail/ev_charger_avail.json
12707479.102049,2546067.15595234,7,Central & Western,Rumsey Street Car Park,"2 Rumsey Street, Sheung Wan, Hong Kong",中西區,林士街停車場,香港上環林士街2號,中西区,林士街停车场,香港上环林士街2号,0,110,0,0,0,0,0,0,0,-,https://ev-charger.epd.gov.hk/resource/ev_charger_avail/ev_charger_avail.json
12708665.7678208,2544901.77974602,8,Central & Western,Queensway Government Offices,"No. 66 Queensway, Hong kong",中西區,金鐘道政府合署,香港金鐘道66號,中西区,金钟道政府合署,香港金钟道66号,0,48,0,0,0,0,0,0,0,-,https://ev-charger.epd.gov.hk/resource/ev_charger_avail/ev_charger_avail.json
12707899.1104877,2545832.07717871,9,Central & Western,One International Finance Centre,"1 Harbour View St, Central",中西區,國際金融中心一期,中環港景街1號,中西区,国际金融中心一期,中环港景街1号,0,1,0,0,0,0,0,0,0,-,-
12707981.3755914,2545882.6056041,10,Central & Western,TWO IFC (International Finance Centre) - IFC II,"FINANCE STREET, CENTRAL & WESTERN",中西區,國際金融中心二期,中西區 金融街,中西区,国际金融中心二期,中西区 金融街,0,21,0,0,3,3,3,0,3,-,-
12708832.1904596,2544891.31374142,11,Central & Western,Pacific Place,"88 Queensway, Hong Kong",中西區,太古廣場,香港金鐘道88號,中西区,太古广场,香港金钟道88号,0,14,0,0,0,5,2,0,4,-,-
12709100.5817519,2544795.55611648,12,Wan Chai,Three Pacific Place,Wing Fung Street.,灣仔區,太古廣場三座,永豐街,湾仔区,太古广场三座,永丰街,0,7,0,0,0,0,2,0,0,-,-
12707455.2796779,2545968.74488881,13,Central & Western,WING ON CENTRE,"CONNAUGHT ROAD CENTRAL, CENTRAL & WESTERN",中西區,永安中心,中西區 干諾道中,中西区,永安中心,中西区 干诺道中,0,0,0,2,0,4,0,0,0,Tesla Wall Connector,-
12708246.20466,2545080.54492202,14,Central & Western,Cheung Kong Center Car Park,"2 Queen's Road Central, Hong Kong",中西區,長江集團中心停車場,香港中環皇后大道中2號,中西区,长江集团中心停车场,香港中环皇后大道中2号,0,2,0,0,0,0,0,0,0,-,-
12709030.2278337,2545251.85330637,15,Central & Western,CITIC TOWER,"TIM MEI AVENUE, CENTRAL & WESTERN",中西區,中信大廈,中西區 添美道,中西区,中信大厦,中西区 添美道,0,0,0,0,0,0,0,0,3,Tesla Wall Connector,-
12706269.504462,2546160.15373353,16,Central & Western,Island Pacific Hotel,"14, Centre Street",中西區,港島太平洋酒店,西營盤正街14號,中西区,港岛太平洋酒店,西营盘正街14号,0,0,0,2,0,0,0,0,0,Tesla Wall Connector,-
12707219.171038,2545629.48377849,17,Central & Western,CENTRESTAGE,"HOLLYWOOD ROAD, CENTRAL & WESTERN",中西區,聚賢居,中西區 荷李活道,中西区,聚贤居,中西区 荷李活道,0,0,0,6,0,0,0,0,0,Tesla Wall Connector,-
12704726.8389586,2545163.67257887,18,Central & Western,Kwun Lun Lau,"20 Lung Wah St, Kennedy Town",中西區,觀龍樓,堅尼地城龍華街20號,中西区,观龙楼,坚尼地城龙华街20号,0,1,0,0,0,0,0,0,0,-,-
12706402.197295,2546354.57248989,19,Central & Western,Sun Yat Sen Memorial Park Sports Centre,"18,Eastern Street North,Sai Ying Pun,Hong Kong ",中西區,中山紀念公園體育館,香港島西營盤東邊街北18號 ,中西区,中山纪念公园体育馆,香港岛西营盘东边街北18号,0,6,0,0,0,0,0,0,0,-,https://ev-charger.epd.gov.hk/resource/ev_charger_avail/ev_charger_avail.json
12706504.1659486,2546317.75787464,20,Central & Western,Sun Yat Sen Memorial Park,"16 Eastern Street North, Sai Ying Pun, Hong Kong",中西區,中山紀念公園,西營盤東邊街北16號,中西区,中山纪念公园,西营盘东边街北16号,0,12,0,0,0,0,0,0,0,-,https://ev-charger.epd.gov.hk/resource/ev_charger_avail/ev_charger_avail.json
12708712.744646,2544831.40501275,21,Yau Tsim Mong,ISLAND SHANGRI-LA HOTEL,"QUEENSWAY, CENTRAL & WESTERN",油尖旺區,港島香格里拉大酒店,中西區 金鐘道,油尖旺区,港岛香格里拉大酒店,中西区 金钟道,0,0,0,0,0,0,0,0,1,Tesla Wall Connector,-
12704779.7157167,2545391.28325807,22,Central & Western,Kennedy Town Car Park,"12 Rock Hill Street, Kennedy Town, Hong Kong",中西區,堅尼地城停車場,香港堅尼地城石山街12號,中西区,坚尼地城停车场,香港坚尼地城石山街12号,0,59,0,0,0,0,0,0,0,-,https://ev-charger.epd.gov.hk/resource/ev_charger_avail/ev_charger_avail.json
12707643.2982979,2545729.81773464,23,Central & Western,THE CENTER,"QUEEN'S ROAD CENTRAL, CENTRAL & WESTERN",中西區,中環中心,中西區 皇后大道中,中西区,中环中心,中西区 皇后大道中,0,6,0,0,0,0,0,0,0,-,-
12707804.2662816,2545615.76911155,24,Central & Western,MAN YEE BUILDING,"DES VOEUX ROAD CENTRAL, CENTRAL & WESTERN",中西區,萬宜大廈,中西區 德輔道中,中西区,万宜大厦,中西区 德辅道中,0,2,0,0,0,0,2,0,0,-,-
12707560.9218747,2543733.59728099,25,Central & Western,Cloudlands,"35-37 Plantation Rd, The Peak",中西區,雲嶺山莊,山頂種植道35-37號,中西区,云岭山庄,山顶种植道35-37号,0,4,0,0,0,0,0,0,0,-,-
12708885.1785372,2544984.90651959,26,Central & Western,Admiralty Car Park,"Rodney Street, Queensway, Admiralty",中西區,金鐘停車場,金鐘樂禮街,中西区,金钟停车场,金钟乐礼街,0,11,0,0,1,1,0,0,0,-,-
12707220.0615939,2545592.06923102,27,Central & Western,Grandview Garden Soho  ,"Grandview Garden Block 1, 18 Bridges St, Tai Ping Shan",中西區,雍翠臺 蘇豪,太平山必列者士街18號,中西区,雍翠台 苏豪,太平山必列者士街18号,0,0,0,0,0,0,0,0,4,Tesla Supercharger,-
12707323.4774008,2546130.67831384,28,Central & Western,SHUN TAK CENTRE,"CONNAUGHT ROAD CENTRAL, CENTRAL & WESTERN",中西區,信德中心,中西區 干諾道中,中西区,信德中心,中西区 干诺道中,0,0,0,6,0,0,0,0,10,Tesla Supercharger,-
12705299.9116972,2545683.62073084,29,Central & Western,The Westwood,"The Westwood, Belcher's St, Kennedy Town",中西區,西寶城,"卑路乍街, 堅尼地城",中西区,西宝城,"卑路乍街, 坚尼地城",0,0,0,9,0,0,0,0,4,Tesla Supercharger,-
12707764.0799454,2544696.19011201,30,Central & Western,Two MacDonnell Road,Two MacDonnell Road,中西區,麥當勞道2號,香港半山麥當勞道2號,中西区,麦当劳道2号,香港半山麦当劳道2号,0,2,0,0,0,2,0,0,0,-,-
12708519.9392879,2545313.56806047,31,Central & Western,CHEUNG KONG CENTER II,"Hutchison House, 10 Harcourt Rd, Central",中西區,長江集團中心二期,中環夏愨道10號和記大廈,中西区,长江集团中心二期,中环夏悫道10号和记大厦,0,4,0,0,0,0,0,0,0,-,-
12714616.7964791,2545982.58015024,32,Eastern,Cityplaza Carpark,"Cityplaza, 18 Taikoo Shing Road, Tai Koo Shing, Hong Kong",東區,太古城中心停車場,香港太古城太古城道18號太古城中心,东区,太古城中心停车场,香港太古城太古城道18号太古城中心,0,30,0,0,0,6,0,0,0,-,-
12711769.2439047,2545972.23377975,33,Wan Chai,Electric Road 148,"148 Electric Road, North Point",灣仔區,電氣道148號,北角電氣道148號,湾仔区,电气道148号,北角电气道148号,2,0,0,0,0,0,0,0,0,-,-
12717455.2208554,2543667.43758638,34,Eastern,Cornell Centre,"50 Wing Tai Road, Chai Wan, Hong Kong",東區,港利中心,香港柴灣永泰道50號,东区,港利中心,香港柴湾永泰道50号,1,0,0,0,0,0,0,0,0,-,-
12713761.8627899,2546436.02210479,35,Eastern,Kerry Centre,"KING'S ROAD, EASTERN",東區,嘉里中心,東區 英皇道,东区,嘉里中心,东区 英皇道,0,4,0,0,0,0,0,0,0,-,-
12718351.6767147,2543531.99145911,36,Eastern,Island Resort,"28 Siu Sai Wan Road, Chai Wan",東區,藍灣半島,柴灣小西灣道28號,东区,蓝湾半岛,柴湾小西湾道28号,4,0,0,3,0,0,0,0,3,-,-
12714189.663593,2546036.95885327,37,Eastern,Oxford House,"979 King's Road, Quarry Bay, Hong Kong",東區,濠豐大廈,香港鰂魚涌太古坊英皇道979號,东区,濠丰大厦,香港鲗鱼涌太古坊英皇道979号,2,0,0,0,0,0,0,0,0,-,-
12714021.6824814,2546028.89828221,38,Eastern,Dorset House and PCCW Tower,"979 King's Road, Quarry Bay, Hong Kong",東區,多盛大廈及電訊盈科中心,香港鰂魚涌太古坊英皇道979號,东区,多盛大厦及电讯盈科中心,香港鲗鱼涌太古坊英皇道979号,2,0,0,0,0,0,3,0,0,-,-
12714135.1170425,2545957.79699435,39,Eastern,One Island East,"18 Westlands Rd, Quarry Bay",東區,港島東中心,鰂魚涌華蘭路18號,东区,港岛东中心,鲗鱼涌华兰路18号,1,0,0,0,0,0,0,0,0,-,-
12714583.5119514,2545692.1623548,40,Eastern,Kornhill Plaza (south),Hong On Street,東區,康怡廣場 (南),康安街,东区,康怡广场 (南),康安街,0,0,0,0,0,0,0,0,1,Tesla Wall Connector,-
12714508.1486561,2545656.55223288,41,Eastern,Kornhill Plaza,"2 Kornhill Road, Quarry Bay, Hong Kong",東區,康怡廣場,康山道2號 鰂魚涌,东区,康怡广场,康山道2号 鲗鱼涌,0,5,0,0,0,4,0,0,0,-,-
12716617.7643262,2543414.70994694,42,Eastern,Trend Centre,"CHEUNG LEE STREET, EASTERN",東區,國貿中心,東區 祥利街,东区,国贸中心,东区 祥利街,1,0,0,0,0,0,0,0,0,-,-
12713617.1474518,2546658.83754281,43,Eastern,North Point Government Offices,"No. 333 Java Road, North Point, Hong Kong",東區,北角政府合署,香港北角渣華道333號,东区,北角政府合署,香港北角渣华道333号,0,29,0,0,0,0,0,0,0,-,https://ev-charger.epd.gov.hk/resource/ev_charger_avail/ev_charger_avail.json
12715975.7848227,2545019.91372079,44,Eastern,Shau Kei Wan Car Park,1 Po Man Street,東區,筲箕灣停車場,寶文街1號,东区,筲箕湾停车场,宝文街1号,0,116,0,0,0,0,0,0,0,-,https://ev-charger.epd.gov.hk/resource/ev_charger_avail/ev_charger_avail.json
12717015.8428252,2544935.46348321,45,Eastern,Paradise Mall Carpark,"100 SHING TAI ROAD, Eastern District, Hong Kong",東區,杏花新城停車場,香港 東區 盛泰道100號,东区,杏花新城停车场,香港 东区 盛泰道100号,0,2,0,0,0,0,5,0,2,-,-
12712009.3600463,2545033.50760206,46,Wan Chai,Lai Tak Tsuen,"LAI TAK TSUEN ROAD, EASTERN",灣仔區,勵德邨,東區 勵德邨道,湾仔区,励德邨,东区 励德邨道,0,2,0,0,0,0,0,0,0,-,-
12716544.7387402,2543150.5588876,47,Eastern,Hing Wah Plaza,"11 Wan Tsui Rd, Chai Wan",東區,興華廣場,柴灣環翠道11號,东区,兴华广场,柴湾环翠道11号,0,12,0,0,0,4,0,0,0,-,-
12714047.5086032,2546100.60140822,48,Eastern,Lincoln House,"979 King's Road, Quarry Bay, Hong Kong",東區,林肯大廈,香港鰂魚涌太古坊英皇道979號,东区,林肯大厦,香港鲗鱼涌太古坊英皇道979号,0,0,0,0,0,0,0,0,4,Tesla Supercharger,-
12714167.5110143,2546087.84881648,49,Eastern,Berkshire House,"25 Westlands Road, Quarry Bay, Hong Kong",東區,柏克大廈,香港鰂魚涌華蘭路25號,东区,柏克大厦,香港鲗鱼涌华兰路25号,0,7,0,0,0,0,0,0,0,-,-
12713055.2066623,2546558.61835464,50,Eastern,HEALTHY GARDENS,"KING'S ROAD, EASTERN",東區,健威花園,東區 英皇道,东区,健威花园,东区 英皇道,0,0,0,18,0,0,0,0,0,Tesla Wall Connector,-
12712002.7921963,2546385.61232614,51,Eastern,City Garden Hotel,Power Street,東區,城市花園酒店,北角大強街,东区,城市花园酒店,北角大强街,0,0,0,0,0,0,0,0,1,Tesla Wall Connector,-
12715610.1002955,2544939.6739551,52,Eastern,Smiling Shau Kei Wan Plaza,"17, Nam On St, Shau Kei Wan",東區,天悅筲箕灣廣場,筲箕灣南安街17號,东区,天悦筲箕湾广场,筲箕湾南安街17号,0,0,0,0,0,0,6,0,0,-,-
12718307.7055159,2543222.24974891,53,Eastern,Cheerful Garden,Fu Yee Rd,東區,富怡花園,小西灣富怡道,东区,富怡花园,小西湾富怡道,0,1,0,0,0,0,1,0,0,-,-
12711773.6966843,2546219.8265781,54,Eastern,Harbour Grand Hong Kong,"18 King Wah Rd, North Point",東區,港島海逸君綽酒店,北角京華道18號,东区,港岛海逸君绰酒店,北角京华道18号,0,0,0,0,0,0,2,0,0,-,-
12715410.0591705,2545821.7309008,55,Eastern,Grand Promenade,"38 Tai Hong Street, Sai Wan Ho",東區,嘉亨灣,西灣河太康街38號,东区,嘉亨湾,西湾河太康街38号,0,3,0,0,0,0,0,0,0,-,-
12714218.8292996,2545831.71626193,56,Eastern,King's Road 1063,"16 Shipyard Ln, Quarry Bay",東區,英皇道1063號,鰂魚涌船塢里16號,东区,英皇道1063号,鲗鱼涌船坞里16号,0,4,0,0,0,0,0,0,0,-,-
12713519.9655364,2546525.41260891,57,Eastern,K11 ATELIER KING'S ROAD,728 KING'S ROAD,東區,K11 ATELIER KING'S ROAD,英皇道728號,东区,K11 ATELIER KING'S ROAD,英皇道728号,0,2,0,5,0,2,0,0,4,Tesla Supercharger,-
12712812.0848944,2546363.71600159,58,Eastern,The Tanner Hill,"TANNER ROAD, EASTERN",東區,雋悅,東區 丹拿道,东区,隽悦,东区 丹拿道,0,1,0,0,0,0,0,0,0,-,-
12715709.0633228,2544953.50837016,59,Eastern,Harmony Place,NAM ON STREET,東區,樂融軒,東區 南安街,东区,乐融轩,东区 南安街,0,19,0,0,0,0,0,0,0,-,-
12716339.0203212,2543713.62905485,60,Eastern,HING MAN ESTATE,"HING MAN STREET, EASTERN",東區,興民邨,東區 興民街,东区,兴民邨,东区 兴民街,0,0,0,0,0,0,0,0,2,Tesla Wall Connector,-
12718018.9427568,2543673.45209333,61,Eastern,Siu Sai Wan Sports Ground,"8 Fu Hong Street, Siu Sai Wan",東區,小西灣運動場停車場,小西灣富康街8號,东区,小西湾运动场停车场,小西湾富康街8号,0,15,0,0,0,0,0,0,0,-,https://ev-charger.epd.gov.hk/resource/ev_charger_avail/ev_charger_avail.json
12715174.8410865,2545761.81885853,62,Eastern,Island East Sports Center,"52 Lei King Road, Sai Wan Ho, Hong Kong",東區,港島東體育館停車場,香港西灣河鯉景道52號,东区,港岛东体育馆停车场,香港西湾河鲤景道52号,0,19,0,0,0,0,0,0,0,-,https://ev-charger.epd.gov.hk/resource/ev_charger_avail/ev_charger_avail.json
12713009.3430321,2546477.52907653,63,Eastern,Island Place,"60-36 Tanner Rd, North Point",東區,港運城,北角丹拿道60-36號,东区,港运城,北角丹拿道60-36号,0,6,0,0,0,0,0,0,0,-,-
12714920.2534111,2545234.89081129,64,Eastern,Hing Tung Car Park,"Hing Tung Shopping Centre, 55 Yiu Hing Road, Shau Kei Wan, Hong Kong",東區,興東停車場,香港筲箕灣耀興道55號興東商場,东区,兴东停车场,香港筲箕湾耀兴道55号兴东商场,0,45,0,0,0,0,0,0,0,-,-
12712435.713696,2546266.746907,65,Eastern,Carrus Customs,"15, Ching Wah St, North Point",東區,Carrus Customs,北角清華街15號,东区,Carrus Customs,北角清华街15号,0,1,0,0,0,0,0,0,0,-,-
12716583.255284,2543886.84819065,66,Eastern,Pamela Youde Nethersole Eastern Hospital Visitor Car Park,"3 LOK MAN ROAD, CHAI WAN, HONG KONG",東區,東區尤德夫人那打素醫院訪客停車場,香港柴灣樂民道3號,东区,东区尤德夫人那打素医院访客停车场,香港柴湾乐民道3号,0,1,0,0,0,0,0,0,0,-,-
12713971.8113495,2545985.82843066,67,Eastern,Two Taikoo Place,"53A Pan Hoi St, Quarry Bay",東區,太古坊二座,鰂魚涌濱海街53A號,东区,太古坊二座,鲗鱼涌滨海街53A号,0,18,0,6,0,0,0,0,3,Tesla Wall Connector / Supercharger,-
12716785.3001598,2542997.19439564,68,Eastern,Wan Tsui Car Park,"Wan Tsui Commercial Complex, 2 Wah Ha Street, Chai Wan, Hong Kong",東區,環翠停車場,香港柴灣華廈街2號環翠商場,东区,环翠停车场,香港柴湾华厦街2号环翠商场,0,36,0,0,0,0,0,0,0,-,-
12713917.04216,2546040.80867962,69,Eastern,Devon House,"979 King's Road, Quarry Bay, Hong Kong",東區,德宏大廈,香港鰂魚涌太古坊英皇道979號,东区,德宏大厦,香港鲗鱼涌太古坊英皇道979号,0,10,0,0,0,0,0,0,0,-,-
12713379.5916585,2546551.27939794,70,Eastern,Healthy Village I & II,"192 Tsat Tsz Mui Rd, Tsat Tsz Mui",東區,健康村 I & II,北角七姊妹道 192號,东区,健康村 I & II,北角七姊妹道 192号,0,2,0,0,0,0,0,0,0,-,-
12716148.8866309,2544722.05408816,71,Eastern,Ming Wah Dai Ha,"1 A Kung Ngam Rd, Shau Kei Wan",東區,明華大廈,筲箕灣阿公岩道1號,东区,明华大厦,筲箕湾阿公岩道1号,0,21,0,0,0,0,0,0,0,-,-
12715372.7671411,2545270.98124688,72,Eastern,Marina House,"32 Hoi An St, Shau Kei Wan",東區,海天廣場,32 海晏街,东区,海天广场,32 海晏街,1,0,0,0,0,0,0,0,0,-,-
12717558.4140234,2543405.68832601,73,Eastern,DIP TSUI COURT,388 CHAI WAN ROAD,東區,蝶翠苑,柴灣柴灣道388號,东区,蝶翠苑,柴湾柴湾道388号,3,0,0,0,0,0,0,0,0,-,-
12717352.2503264,2543677.3013789,74,Eastern,HANG TSUI COURT,"TSUI WAN STREET, EASTERN",東區,杏翠苑,東區 翠灣街,东区,杏翠苑,东区 翠湾街,3,1,0,0,0,0,0,0,0,-,-
12717047.6801996,2543384.99876025,75,Eastern,YEE TSUI COURT,"YEE SHUN STREET, EASTERN",東區,怡翠苑,東區 怡順街,东区,怡翠苑,东区 怡顺街,2,1,0,0,0,0,0,0,0,-,-
12715309.7603093,2544851.61516243,76,Eastern,Yiu Tung Shopping Centre Car Park,"Yiu Tung Shopping Centre, 12 Yiu Hing Road, Shau Kei Wan, Hong Kong",東區,耀東商場停車場,香港筲箕灣耀興道12號耀東商場,东区,耀东商场停车场,香港筲箕湾耀兴道12号耀东商场,0,2,0,0,0,0,0,0,0,-,-
12711857.4089414,2546196.00553814,77,Eastern,AIA TOWER,"183 Electric Road, North Point",東區,友邦廣場,北角電氣道183號,东区,友邦广场,北角电气道183号,0,15,0,0,0,2,0,0,0,-,-
12712758.0949414,2546705.39816119,78,Eastern,HARBOUR NORTH,123 JAVA ROAD,東區,北角匯,北角渣華道123號,东区,北角汇,北角渣华道123号,0,0,0,0,0,2,0,0,0,-,-
12713118.658772,2546149.8072538,79,Eastern,Pacific Palisades,"1 Braemar Hill Rd, North Point",東區,寶馬山花園,北角寶馬山道1號,东区,宝马山花园,北角宝马山道1号,0,15,0,0,0,2,0,0,0,-,-
12718098.3135537,2543113.27013748,80,Eastern,Siu Sai Wan Phase 1 Car Park,"Siu Sai Wan Plaza, 10 Siu Sai Wan Road, Siu Sai Wan, Hong Kong",東區,小西灣一期停車場,香港小西灣小西灣道10號小西灣廣場,东区,小西湾一期停车场,香港小西湾小西湾道10号小西湾广场,0,12,0,0,0,0,0,0,0,-,-
12704912.5198692,2543019.80805252,81,Southern,Cyberport Carpark 1 & 2,"100 Cyberport Rd, Telegraph Bay, Southern District",南區,數碼港停車場(一&二),南區鋼綫灣數碼港道100號,南区,数码港停车场(一&二),南区钢线湾数码港道100号,0,0,0,3,0,0,0,0,9,-,-
12705081.9481342,2542721.50268066,82,Southern,Cyberport Carpark 3,"100 Cyberport Rd, Telegraph Bay, Southern District",南區,數碼港停車場(三),南區鋼綫灣數碼港道100號,南区,数码港停车场(三),南区钢线湾数码港道100号,0,0,0,6,0,0,2,0,9,-,-
12713676.5920599,2537999.11825077,83,Southern,Stanley Plaza Car Park,"Stanley Plaza, 23 Carmel Road, Stanley, Hong Kong",南區,赤柱廣場停車場,香港赤柱佳美道23號赤柱廣場,南区,赤柱广场停车场,香港赤柱佳美道23号赤柱广场,0,28,0,0,0,6,0,0,0,-,-
12712494.4903872,2539818.59370648,84,Southern,The Pulse,"BEACH ROAD, SOUTHERN",南區,The Pulse,南區 海灘道,南区,The Pulse,南区 海滩道,0,1,0,0,0,1,0,0,6,-,-
12709122.2890526,2541568.7464282,85,Southern,L'hotel Island South,11 Tong Bin Ln,南區,如心南灣海景酒店,黃竹坑塘邊徑11號,南区,如心南湾海景酒店,黄竹坑塘边径11号,0,0,0,2,0,0,0,0,0,Tesla Wall Connector,-
12709210.7880478,2541428.86703796,86,Southern,One Island South,"HEUNG YIP ROAD, SOUTHERN",南區,One Island South,南區 香葉道,南区,One Island South,南区 香叶道,2,0,0,0,0,0,0,0,0,-,-
12709867.4617239,2541352.61341415,87,Southern,OCEAN PARK,"180 WONG CHUK HANG ROAD, Southern District, Hong Kong",南區,香港海洋公園,香港 南區 黃竹坑道180號,南区,香港海洋公园,香港 南区 黄竹坑道180号,0,1,0,0,0,0,0,0,0,-,-
12705277.870438,2543008.14036406,88,Southern,Upper Baguio Villa,"Victoria Rd, Pok Fu Lam",南區,上碧瑤灣,薄扶林域多利道,南区,上碧瑶湾,薄扶林域多利道,0,0,0,2,0,0,0,0,0,Tesla Wall Connector,-
12707058.0917348,2541641.75358763,89,Southern,TIN WAN ESTATE CAR PARK,"TIN WAN STREET, SOUTHERN",南區,田灣邨多層停車場,南區 田灣街,南区,田湾邨多层停车场,南区 田湾街,0,0,0,4,0,0,0,0,0,Tesla Wall Connector,-
12705889.9049984,2542528.93012477,90,Southern,Chi Fu Landmark,Chi Fu Road,南區,置富南區廣場,薄扶林置富道,南区,置富南区广场,薄扶林置富道,2,0,0,0,0,0,2,0,0,-,-
12707713.6522161,2540952.70849931,91,Southern,Ap Lei Chau Waterfront Promenade,"No.8 Hung Shing Street, Ap Lei Chau, Hong Kong.",南區,鴨脷洲海濱長廊,鴨脷洲洪聖街8號,南区,鸭脷洲海滨长廊,鸭脷洲洪圣街8号,0,6,0,0,0,0,0,0,0,-,https://ev-charger.epd.gov.hk/resource/ev_charger_avail/ev_charger_avail.json
12707724.8954846,2541406.37579126,92,Southern,KAM FUNG BUILDING,"ABERDEEN MAIN ROAD, SOUTHERN",南區,金豐大廈,南區 香港仔大道,南区,金丰大厦,南区 香港仔大道,0,2,0,0,0,0,0,0,0,-,-
12711396.3236105,2540892.81378352,93,Southern,Deep Water Bay Carpark,"Island Road, Deep Water Bay",南區,深水灣泳灘停車場,深水灣香島道,南区,深水湾泳滩停车场,深水湾香岛道,0,3,0,0,0,0,0,0,0,-,https://ev-charger.epd.gov.hk/resource/ev_charger_avail/ev_charger_avail.json
12705112.2270357,2542515.33826618,94,Southern,Bel-Air (Phase 1 & 2),"Residence Bel-air Club Bel-air (bay Wing), 48 Bel-air Ave, Telegraph Bay",南區,貝沙灣1 & 2期,薄扶林貝沙灣道48號,南区,贝沙湾1 & 2期,薄扶林贝沙湾道48号,0,2,0,0,0,0,0,0,0,-,-
12705304.3644768,2542087.98214845,95,Southern,Bel-Air (Phase 4),"8 Bel-air Peak Ave, Telegraph Bay",南區,貝沙灣4期,鋼綫灣貝沙山道8號,南区,贝沙湾4期,钢线湾贝沙山道8号,0,2,0,0,0,0,0,0,0,-,-
12705304.3644768,2542087.98214845,96,Southern,Bel-Air (Phase 6),"8 Bel-air Peak Ave, Telegraph Bay",南區,貝沙灣6期,Bel-Air (Phase 6) 貝沙灣6期,南区,贝沙湾6期,Bel-Air (Phase 6) 贝沙湾6期,0,2,0,0,0,0,0,0,0,-,-
12707856.5864423,2541600.13826522,97,Southern,Aberdeen Car Park,"18 Aberdeen Reservoir Road, Aberdeen, Hong Kong",南區,香港仔停車場,香港仔香港仔水塘道18號,南区,香港仔停车场,香港仔香港仔水塘道18号,0,44,0,0,0,0,0,0,0,-,https://ev-charger.epd.gov.hk/resource/ev_charger_avail/ev_charger_avail.json
12708073.7707688,2541472.28605369,98,Southern,Shek Pai Wan Estate Car Park,"Shek Pai Wan, Yue Kwong Road, Aberdeen, Hong Kong",南區,石排灣邨停車場,香港仔石排灣漁光道,南区,石排湾邨停车场,香港仔石排湾渔光道,0,16,0,0,0,0,0,0,0,-,-
12708833.192335,2539950.40206809,99,Southern,Fullerton Ocean Park Hotel,"3 Ocean Dr, Wong Chuk Hang",南區,香港富麗敦海洋公園酒店,香港仔海洋徑3號,南区,香港富丽敦海洋公园酒店,香港仔海洋径3号,0,7,0,0,0,0,0,0,3,Tesla Supercharger,-
12708992.6018458,2541485.756796,100,Southern,Landmark South,39 Yip Kan St ,南區,Landmark South,黃竹坑業勤街39號,南区,Landmark South,黄竹坑业勤街39号,0,110,0,0,2,2,0,0,3,Tesla Supercharger,-
12715272.023002,2539947.03468836,101,Southern,RED HILL PLAZA,"RED HILL ROAD, SOUTHERN",南區,紅山廣場,南區 紅山道,南区,红山广场,南区 红山道,0,0,0,2,0,0,0,0,0,Tesla Wall Connector,-
12708953.3060656,2541227.64962556,102,Southern,The Southside,"11 Heung Yip Rd, Wong Chuk Hang",南區,The Southside,黃竹坑香葉道11號,南区,The Southside,黄竹坑香叶道11号,0,234,0,0,0,0,0,0,3,Tesla Supercharger,-
12708876.8295754,2541302.0985853,103,Southern,S22,22 Heung Yip Rd,南區,S22,香葉道22號,南区,S22,香叶道22号,0,0,0,0,2,2,2,0,0,-,-
12713525.4201914,2538227.71439613,104,Southern,Opposite to Ma Hang Estate at Carmel Road,"Opposite to Ma Hang Estate at Carmel Road, Stanley, Hong Kong",南區,香港赤柱佳美道馬坑邨對面,香港赤柱佳美道馬坑邨對面,南区,香港赤柱佳美道马坑邨对面,香港赤柱佳美道马坑邨对面,0,3,0,0,0,0,0,0,0,-,-
12711756.5534827,2540869.12055111,105,Southern,Twin Brook,43 Repulse Bay Road,南區,雙溪,淺水灣道43號,南区,双溪,浅水湾道43号,0,1,0,0,0,0,0,0,0,-,-
12715272.1343214,2540040.11893301,106,Southern,Hong Kong International School (Secondary Section),1 Red Hill Road,南區,香港國際學校(中學部),紅山道1號,南区,香港国际学校(中学部),红山道1号,0,5,0,0,0,0,0,0,0,-,-
12712803.1793352,2540220.75675066,107,Southern,Hong Kong International School (Upper Primary School),6 South Bay Close,南區,香港國際學校(小學部),南灣坊6號,南区,香港国际学校(小学部),南湾坊6号,0,3,0,0,0,0,0,0,0,-,-
12712922.5138293,2540237.83446076,108,Southern,Hong Kong International School (Lower Primary School),23 South Bay Close,南區,香港國際學校(小學部),南灣坊23號,南区,香港国际学校(小学部),南湾坊23号,0,5,0,0,0,0,0,0,0,-,-
12707641.8511445,2540886.07864807,109,Southern,MARINA HABITAT,"YUET HOI STREET, SOUTHERN",南區,悅海華庭,南區 悅海街,南区,悦海华庭,南区 悦海街,0,5,0,0,0,0,0,0,0,-,-
12709937.7043226,2545295.16188204,110,Wan Chai,EAGLE HARBOUR PUBLIC CARPARK,"23 - 25 HARBOUR ROAD, Wan Chai District, Hong Kong",灣仔區,鷹港公眾停車埸,香港 灣仔區 港灣道23 - 25號,湾仔区,鹰港公众停车埸,香港 湾仔区 港湾道23 - 25号,2,0,0,0,0,0,0,0,0,-,-
12709532.5013761,2544525.36857028,111,Wan Chai,Hopewell Centre,"183 Queen’s Road East, Wan Chai, Hong Kong (Entrance on Kennedy Road)",灣仔區,合和中心,香港灣仔皇后大道東183號 (入口於堅尼地道),湾仔区,合和中心,香港湾仔皇后大道东183号 (入口于坚尼地道),0,6,0,4,0,7,0,0,13,Tesla Wall Connector,-
12709621.5569688,2544498.78312008,112,Wan Chai,Wu Chung House,"213 Queen's Road East, Wan Chai District, Hong Kong",灣仔區,胡忠大廈,香港 灣仔區 皇后大道東213號,湾仔区,胡忠大厦,香港 湾仔区 皇后大道东213号,9,0,0,0,0,0,0,0,0,-,-
12711310.4962831,2544387.50963278,113,Wan Chai,Olympic House A,"STADIUM PATH, WAN CHAI",灣仔區,奧運大樓 A,灣仔 大球場徑,湾仔区,奥运大楼 A,湾仔 大球场径,2,0,0,0,0,0,0,0,0,-,-
12710718.6105506,2545340.99691274,114,Wan Chai,Sino Plaza,"255-257 Gloucester Road, Causeway Bay",灣仔區,信和廣場,銅鑼灣告士打道255 – 257號,湾仔区,信和广场,铜锣湾告士打道255 – 257号,2,0,0,0,0,0,0,0,0,-,-
12710648.3679519,2544966.26010194,115,Wan Chai,Times Square Car Park,"1 Matheson Street, Times Square, Causeway Bay, Hong Kong",灣仔區,時代廣場停車場,香港銅鑼灣勿地臣街1號時代廣場,湾仔区,时代广场停车场,香港铜锣湾勿地臣街1号时代广场,16,2,0,0,0,0,0,0,0,-,-
12711758.0006361,2545522.65403701,116,Wan Chai,Tin Hau Car Park,"1 King's Road, Causeway Bay, Hong Kong'",灣仔區,天后停車場,香港銅鑼灣英皇道1號,湾仔区,天后停车场,香港铜锣湾英皇道1号,0,159,0,0,0,0,0,0,0,-,https://ev-charger.epd.gov.hk/resource/ev_charger_avail/ev_charger_avail.json
12709515.3581746,2545259.67290206,117,Wan Chai,Convention Plaza Car Park (Harbour Road),"1 Harbour Road, Wanchai, Hong Kong",灣仔區,會展廣場停車場(港灣道),香港灣仔港灣道一號,湾仔区,会展广场停车场(港湾道),香港湾仔港湾道一号,3,0,0,3,0,0,0,0,0,-,-
12709763.600639,2545491.2548839,118,Wan Chai,Convention Plaza (Expo Drive Central Road) Carpark,"Expo Drive Central, Wan Chai",灣仔區,會展廣場(博覽道中)停車場,灣仔博覽道中,湾仔区,会展广场(博览道中)停车场,湾仔博览道中,2,0,0,0,0,12,0,0,0,-,-
12709763.823278,2545525.30071159,119,Wan Chai,HKCEC (Expo Drive Central) Car Park,"1 Expo Drive Central, Wanchai, Hong Kong",灣仔區,會展(博覽道中)停車場,香港灣仔博覽道中一號,湾仔区,会展(博览道中)停车场,香港湾仔博览道中一号,0,5,0,0,0,8,0,0,0,-,-
12709530.3863058,2545200.84557135,120,Wan Chai,SHUI ON CENTRE,"6-8, Harbour Road, Wanchai",灣仔區,瑞安中心,灣仔 港灣道 6-8號,湾仔区,瑞安中心,湾仔 港湾道 6-8号,0,10,0,0,0,0,0,0,1,-,-
12710993.0130954,2545007.28224804,121,Wan Chai,LEE GARDEN ONE CAR PARK,"33 HYSAN AVENUE, Wan Chai District, Hong Kong",灣仔區,利園一期停車場,香港 灣仔區 希慎道33號,湾仔区,利园一期停车场,香港 湾仔区 希慎道33号,0,0,0,33,0,0,0,0,3,Tesla Wall Connector / Supercharger,-
12711121.1418293,2544965.65860494,122,Wan Chai,Lee Garden Two Car Park,"28 YUN PING ROAD, Wan Chai District, Hong Kong",灣仔區,利園二期停車場,香港 灣仔區 恩平道28號,湾仔区,利园二期停车场,香港 湾仔区 恩平道28号,0,0,0,11,0,0,0,0,0,-,-
12711056.0199271,2544892.87762675,123,Wan Chai,Lee Garden Three Car Park,"1 Sunning Road, Causeway Bay, Hong Kong",灣仔區,利園三期停車場,香港 銅鑼灣 新寧道1號,湾仔区,利园三期停车场,香港 铜锣湾 新宁道1号,0,4,0,40,2,6,7,0,6,-,-
12710120.4909265,2545213.95839412,124,Wan Chai,SUN HUNG KAI CENTRE,"HARBOUR ROAD, WAN CHAI",灣仔區,新鴻基中心,灣仔 港灣道,湾仔区,新鸿基中心,湾仔 港湾道,0,0,0,0,0,0,0,0,1,Tesla Wall Connector,-
12710895.2745824,2545430.38159694,125,Wan Chai,World Trade Centre,"280 Gloucester Road, Causeway Bay",灣仔區,世界貿易中心,銅鑼灣告士打道280號,湾仔区,世界贸易中心,铜锣湾告士打道280号,1,2,0,0,0,0,1,0,0,-,-
12710415.2649381,2545165.597392,126,Wan Chai,Mira Moon Hotel,"388 Jaffe Rd, Wan Chai",灣仔區,問月酒店,灣仔謝斐道388號,湾仔区,问月酒店,湾仔谢斐道388号,0,0,0,0,0,0,0,0,1,Tesla Wall Connector,-
12711202.961655,2545049.14659411,127,Wan Chai,Regal Hong Kong Hotel,"17, Irving Street, Causeway Bay",灣仔區,富豪香港酒店,銅鑼灣伊榮街17號,湾仔区,富豪香港酒店,铜锣湾伊荣街17号,0,0,0,0,0,0,0,0,1,Tesla Wall Connector,-
12710804.5491974,2544907.4337972,128,Wan Chai,LEIGHTON CAR PARK,"77 LEIGHTON ROAD, Wan Chai District, Hong Kong",灣仔區,禮頓中心停車場,香港 灣仔區 禮頓道77號,湾仔区,礼顿中心停车场,香港 湾仔区 礼顿道77号,0,1,0,30,0,0,0,0,0,Tesla Wall Connector,-
12709747.6819519,2545175.82296543,129,Wan Chai,Central Plaza Wan Chai,"HARBOUR ROAD, WAN CHAI",灣仔區,中環廣場,灣仔 港灣道,湾仔区,中环广场,湾仔 港湾道,0,2,0,3,0,2,0,0,0,Tesla Wall Connector,-
12709940.1533514,2545268.81581856,130,Wan Chai,Harbour Centre,"23 Harbour Rd, Wan Chai",灣仔區,海港中心,灣仔港灣道23號,湾仔区,海港中心,湾仔港湾道23号,1,0,0,0,0,0,0,0,0,-,-
12709571.1292395,2544621.00436061,131,Wan Chai,Lee Tung Avenue Commerical Carpark,"200 Queen's Road East, Wan Chai, Hong Kong (Entrance on Spring Garden Lane)",灣仔區,利東街商場停車場,香港灣仔皇后大道東200號 (入口於春園街),湾仔区,利东街商场停车场,香港湾仔皇后大道东200号 (入口于春园街),10,8,0,14,0,0,0,0,0,-,-
12711174.3525459,2545230.19906035,132,Wan Chai,WINDSOR HOUSE,"GLOUCESTER ROAD, WAN CHAI",灣仔區,皇室大廈,灣仔 告士打道,湾仔区,皇室大厦,湾仔 告士打道,12,18,0,0,0,0,0,0,0,-,-
12709936.4798082,2545179.19139099,133,Wan Chai,CHINA RESOURCES BLDG,"HARBOUR ROAD, WAN CHAI",灣仔區,華潤大廈,灣仔 港灣道,湾仔区,华润大厦,湾仔 港湾道,0,0,0,4,0,0,0,0,0,Tesla Wall Connector,-
12710258.9723731,2544499.62519253,134,Wan Chai,The Emperor Hotel,"Hau Tak Ln, Wan Chai",灣仔區,英皇駿景酒店,灣仔厚德里,湾仔区,英皇骏景酒店,湾仔厚德里,0,0,0,3,0,0,0,0,0,Tesla Wall Connector,-
12711123.590858,2545184.60493347,135,Wan Chai,HANG LUNG CENTRE,"PATERSON STREET, WAN CHAI",灣仔區,恒隆中心,灣仔 百德新街,湾仔区,恒隆中心,湾仔 百德新街,0,3,0,0,0,0,0,0,1,Tesla Wall Connector,-
12712007.8015734,2542439.3202859,136,Wan Chai,Wong Nai Chung Gap Children Playground,"Tai Tam Reservoir Rd, Tai Tam",灣仔區,黃泥涌峽兒童遊樂場,大潭水塘道,湾仔区,黄泥涌峡儿童游乐场,大潭水塘道,0,3,0,0,0,0,0,0,0,-,https://ev-charger.epd.gov.hk/resource/ev_charger_avail/ev_charger_avail.json
12711376.3974216,2544992.36509243,137,Wan Chai,ST. PAUL'S HOSPITAL,"TUNG LO WAN ROAD, WAN CHAI",灣仔區,聖保祿醫院,灣仔 銅鑼灣道,湾仔区,圣保禄医院,湾仔 铜锣湾道,0,2,0,0,0,0,0,0,0,-,-
12710146.8736458,2545079.22161966,138,Wan Chai,Capital Centre,"254. Jaffe Rd, Wan Chai",灣仔區,資本中心,灣仔謝斐道254號,湾仔区,资本中心,湾仔谢斐道254号,0,2,0,0,0,0,0,0,0,-,-
12709655.9546914,2544672.49152691,139,Wan Chai,The Avenue,"21-29 Spring Garden Ln, Wan Chai",灣仔區,囍匯,灣仔春園街21-29號,湾仔区,囍汇,湾仔春园街21-29号,4,5,0,7,0,0,0,0,0,-,-
12711159.3244146,2545324.63583758,140,Wan Chai,THE PARK LANE,"GLOUCESTER ROAD, WAN CHAI",灣仔區,柏寧酒店,灣仔 告士打道,湾仔区,柏宁酒店,湾仔 告士打道,0,0,0,0,0,2,0,0,0,-,-
12710839.0582396,2545164.87558704,141,Wan Chai,Hysan Place Car Park,"500 Hennessy Road, Wan Chai District, Hong Kong",灣仔區,希慎廣場停車場,香港 灣仔區 軒尼詩道500號,湾仔区,希慎广场停车场,香港 湾仔区 轩尼诗道500号,0,0,0,0,0,0,0,0,6,Tesla Wall Connector / Supercharger,-
12709659.0716372,2544922.11027933,142,Wan Chai,CHINA OVERSEAS BUILDING,"HENNESSY ROAD, WAN CHAI",灣仔區,中國海外大廈,灣仔 軒尼詩道,湾仔区,中国海外大厦,湾仔 轩尼诗道,0,13,0,0,1,1,0,0,0,-,-
12710772.6005036,2545370.35064629,143,Wan Chai,COFCO Tower,"GLOUCESTER ROAD, WAN CHAI",灣仔區,中糧大廈,灣仔 告士打道,湾仔区,中粮大厦,湾仔 告士打道,0,0,0,0,0,0,16,0,0,-,-
12711186.7090093,2545059.37209676,144,Wan Chai,No.68 Yee Wo Street 68,"68 Yee Wo St, Causeway Bay, Hong Kong",灣仔區,怡和街68號,銅鑼灣怡和街68號,湾仔区,怡和街68号,铜锣湾怡和街68号,0,6,0,0,0,0,3,0,0,-,-
12709887.6105518,2545165.47709117,145,Wan Chai,The St. Regis Hong Kong,"1 Harbour Dr, Wan Chai",灣仔區,香港瑞吉酒店,灣仔港灣徑1號,湾仔区,香港瑞吉酒店,湾仔港湾径1号,0,0,0,3,0,0,0,0,0,Tesla Wall Connector,-
12710219.5652733,2544909.719478,146,Wan Chai,C C WU BUILDING,"HENNESSY ROAD, WAN CHAI",灣仔區,集成中心,灣仔 軒尼詩道,湾仔区,集成中心,湾仔 轩尼诗道,0,12,0,0,0,0,0,0,0,-,-
12711480.3698261,2549013.8596678,147,Kowloon City,Sunshine Plaza,"17 Sung On Street, Hung Hom, Kowloon",九龍城區,陽光廣場,九龍紅磡崇安街17號,九龙城区,阳光广场,九龙红磡崇安街17号,1,0,0,0,0,0,0,0,0,-,-
12711668.2771265,2548187.58508151,148,Kowloon City,WHAMPOA PLAZA/WHAMPOA GARDEN SITE 8,"TAK ON STREET, KOWLOON CITY",九龍城區,黃埔花園黃埔廣場(8期),九龍城 德安街,九龙城区,黄埔花园黄埔广场(8期),九龙城 德安街,1,4,0,0,0,0,0,0,0,-,-
12711171.9035171,2548525.45392065,149,Kowloon City,Ka Wai Chuen,"Station Lane, Kowloon City",九龍城區,家維邨,九龍城 差館里,九龙城区,家维邨,九龙城 差馆里,1,2,0,0,0,0,0,0,0,-,-
12713122.8889127,2551214.80972272,150,Kowloon City,Tak Long Estate,"Tak Long Estate, Kowloon City, Kowloon",九龍城區,德朗,"德朗邨, 九龍城區, 九龍",九龙城区,德朗,"德朗邨, 九龙城区, 九龙",9,4,0,0,1,1,1,0,0,-,-
12713129.6794016,2551484.26241309,151,Kowloon City,Kai Ching Estate,"Kai Ching Estate, Kowloon City, Kowloon",九龍城區,啟晴,"啟晴邨, 九龍城區, 九龍",九龙城区,启晴,"启晴邨, 九龙城区, 九龙",16,3,0,0,0,0,3,0,0,-,-
12714138.7905857,2548323.79064809,152,Kowloon City,Kai Tak Cruise Terminal Car Park 1,SHING FUNG ROAD,九龍城區,啟德郵輪碼頭停車場 1,承豐道,九龙城区,启德邮轮码头停车场 1,承丰道,23,0,0,0,0,0,0,0,6,-,-
12710651.2622586,2547972.8108788,153,Yau Tsim Mong,Hung Hom Station Car Park,"8 Cheong Wan Road, Hung Hom, Kowloon",油尖旺區,紅磡站停車場,九龍紅磡暢運道8號,油尖旺区,红磡站停车场,九龙红磡畅运道8号,0,1,0,0,0,0,1,0,0,-,-
12711878.0030472,2551209.63492553,154,Kowloon City,Regal Oriental Hotel,"30 Sa Po Rd, Kowloon City",九龍城區,富豪東方酒店,九龍城沙浦道30號,九龙城区,富豪东方酒店,九龙城沙浦道30号,0,0,0,0,0,0,0,0,1,Tesla Wall Connector,-
12711109.1193243,2548445.07709951,155,Kowloon City,Hotel SAV,"2 Marsh St, Hung Hom",九龍城區,逸．酒店,紅磡孖庶街2號,九龙城区,逸．酒店,红磡孖庶街2号,0,0,0,0,0,0,0,0,2,Tesla Wall Connector,-
12711399.4405562,2547724.22971013,156,Kowloon City,Kerry Hotel Hong Kong,"HUNG LUEN ROAD, KOWLOON CITY",九龍城區,香港嘉里大酒店,九龍城 紅鸞道,九龙城区,香港嘉里大酒店,九龙城 红鸾道,0,0,0,6,0,0,0,0,0,Tesla Wall Connector,-
12711513.4317148,2548589.58719893,157,Kowloon City,HUNG HOM ESTATE,"Hung Hom Estate, Kowloon City, Kowloon",九龍城區,紅磡邨,"紅磡邨, 九龍城區, 九龍",九龙城区,红磡邨,"红磡邨, 九龙城区, 九龙",0,1,0,0,0,0,0,0,0,-,-
12712806.4076004,2551214.93006686,158,Kowloon City,Kai Long Court,MUK ON STREET,九龍城區,啟朗苑,沐安街,九龙城区,启朗苑,沐安街,4,0,0,0,0,0,0,0,0,-,-
12711487.4942735,2550104.31073257,159,Kowloon City,Jubilant Place,20 San Shan Road,九龍城區,欣榮花園,土瓜灣新山道20號,九龙城区,欣荣花园,土瓜湾新山道20号,0,4,0,0,0,0,0,0,0,-,-
12711752.545981,2548589.82784959,160,Kowloon City,The Laguna Mall,"8, LagunaVerde Ave",九龍城區,海逸坊,海逸豪園海逸道8號,九龙城区,海逸坊,海逸豪园海逸道8号,0,1,0,0,0,0,0,0,0,-,-
12712456.3078018,2551512.18272479,161,Kowloon City,Trade and Industry Tower Car Park,"No. 3 Concords Road, Kai Tak, Kowloon, Hong Kong",九龍城區,工業貿易大樓停車場,香港九龍啟德協調道3號,九龙城区,工业贸易大楼停车场,香港九龙启德协调道3号,0,20,0,0,0,0,0,0,0,-,https://ev-charger.epd.gov.hk/resource/ev_charger_avail/ev_charger_avail.json
12713665.1261524,2549474.24231255,162,Kowloon City,Hong Kong Children's Hospital,SHING CHEONG ROAD,九龍城區,香港兒童醫院,承昌道,九龙城区,香港儿童医院,承昌道,22,0,0,0,0,0,0,0,0,-,-
12711099.1005701,2549822.96710018,163,Kowloon City,Celestial Heights,"SHEUNG SHING STREET, KOWLOON CITY",九龍城區,半山壹號,九龍城 常盛街,九龙城区,半山壹号,九龙城 常盛街,7,3,0,0,0,0,4,0,0,-,-
12711254.1686208,2547881.1265929,164,Kowloon City,Harbour Place,"OI KING STREET, KOWLOON CITY",九龍城區,海濱南岸,九龍城 愛景街,九龙城区,海滨南岸,九龙城 爱景街,2,0,0,0,0,0,2,0,0,-,-
12710379.8653401,2548938.89526172,165,Kowloon City,Oi Man Car Park,"Oi Man Plaza, 60 Chung Hau Street, Ho Man Tin, Kowloon",九龍城區,愛民停車場,九龍何文田忠孝街60號愛民廣場,九龙城区,爱民停车场,九龙何文田忠孝街60号爱民广场,0,6,0,11,0,4,0,0,8,Tesla Wall Connector / Supercharger,-
12711755.1063293,2547861.15344211,166,Kowloon City,THE HARBOUR FRONT,"TAK FUNG STREET, KOWLOON CITY",九龍城區,海濱廣場,九龍城 德豐街,九龙城区,海滨广场,九龙城 德丰街,0,2,0,0,0,0,0,0,0,-,-
12710019.1901899,2551821.71618845,167,Sham Shui Po,Innocentre,"TAT CHEE AVENUE, SHAM SHUI PO",深水埗區,創新中心,深水埗達之路,深水埗区,创新中心,深水埗达之路,3,0,0,6,0,0,0,0,3,-,-
12712478.4603805,2551250.55197013,168,Kowloon City,Airside,"2, Concorde Rd, Kai Tak",九龍城區,Airside,新蒲崗協調道2號,九龙城区,Airside,新蒲岗协调道2号,0,256,0,0,0,13,0,0,9,-,-
12710273.7778653,2549458.47887172,169,Kowloon City,Jockey Club Campus of Hong Kong Metropolitan University,"LG1/F, 81 Chung Hau St, Ho Man Tin",九龍城區,香港都會大學賽馬會校園,何文田忠孝街81號,九龙城区,香港都会大学赛马会校园,何文田忠孝街81号,0,5,0,0,0,0,0,0,0,-,-
12710458.9021785,2549561.48299684,170,Kowloon City,Main Campus of Hong Kong Metropolitan University,"30, Good Shepherd St, Ho Man Tin",九龍城區,香港都會大學正校園,何文田牧愛街30號,九龙城区,香港都会大学正校园,何文田牧爱街30号,0,5,0,0,0,0,0,0,0,-,-
12710462.6870412,2549690.35937474,171,Kowloon City,The Jockey Club Institute of Healthcare of Hong Kong Metropolitan University,"5-11 Sheung Shing St, Quarry Hill",九龍城區,香港都會大學賽馬會健康護理學院,採石山常盛街5-11號,九龙城区,香港都会大学赛马会健康护理学院,采石山常盛街5-11号,0,5,0,0,0,0,0,0,0,-,-
12710788.1852323,2548036.22011976,172,Yau Tsim Mong,Fortune Metropolis P2,"6 Metropolis Dr, Hung Hom",油尖旺區,置富都會二期,紅磡都會道6號,油尖旺区,置富都会二期,红磡都会道6号,0,4,0,0,0,4,0,0,0,-,-
12712693.3069977,2551015.40066831,173,Kowloon City,Oasis Kai Tak,"MUK NING STREET, KOWLOON CITY",九龍城區,Oasis Kai Tak,沐寧街 九龍城,九龙城区,Oasis Kai Tak,沐宁街 九龙城,0,0,0,0,0,2,0,0,0,-,-
12710651.7075366,2549594.81507448,174,Kowloon City,One Homantin,"1 Sheung Foo St, Ho Man Tin",九龍城區,何文田1號,何文田常富街1號,九龙城区,何文田1号,何文田常富街1号,0,0,0,0,0,2,0,0,0,-,-
12711197.1730415,2548708.83002368,175,Kowloon City,Blissful Place,"8 Lee Kung St, Hung Hom",九龍城區,豐頤居,紅磡利工街8號,九龙城区,丰颐居,红磡利工街8号,0,10,0,0,0,0,0,0,0,-,-
12710426.9534847,2549505.76923859,176,Kowloon City,Cascades (comprising 4 blocks),"CHUNG HAU STREET, KOWLOON CITY",九龍城區,欣圖軒,九龍城 忠孝街,九龙城区,欣图轩,九龙城 忠孝街,0,2,0,0,0,0,0,0,0,-,-
12711150.3075358,2548929.02838246,177,Kowloon City,Chatham Gate,"CHATHAM ROAD NORTH, KOWLOON CITY",九龍城區,昇御門,九龍城 漆咸道北,九龙城区,升御门,九龙城 漆咸道北,0,0,0,0,0,0,0,0,6,Tesla Supercharger,-
12711405.4518087,2548445.43807239,178,Kowloon City,Hung Hom Car Park,"Hung Hom Estate Retail and Car Park, 9 Dyer Avenue, Hung Hom, Kowloon",九龍城區,紅磡停車場,九龍紅磡戴亞街9號紅磡邨商舖及停車場,九龙城区,红磡停车场,九龙红磡戴亚街9号红磡邨商铺及停车场,0,14,0,0,0,0,0,0,0,-,-
12711948.1343264,2549903.23017948,179,Kowloon City,GRAND WATERFRONT,"SAN MA TAU STREET, KOWLOON CITY",九龍城區,翔龍灣,九龍城 新碼頭街,九龙城区,翔龙湾,九龙城 新码头街,0,3,0,0,0,4,0,0,0,-,-
12710696.6806109,2549390.13068871,180,Kowloon City,Ho Man Tin Car Park,"Homantin Plaza, 80 Fat Kwong Street, Ho Man Tin, Kowloon",九龍城區,何文田停車場,九龍何文田佛光街80號何文田廣場,九龙城区,何文田停车场,九龙何文田佛光街80号何文田广场,0,15,0,0,0,0,0,0,0,-,-
12715594.5155668,2548937.57165563,181,Kwun Tong,Kwun Tong Plaza,HOI YUEN ROAD,觀塘區,觀塘廣場,開源道,观塘区,观塘广场,开源道,0,3,0,0,0,0,1,0,0,-,-
12713637.0736407,2549957.38089945,182,Kwun Tong,MegaBox,WANG CHIU ROAD,觀塘區,MegaBox,宏照道,观塘区,MegaBox,宏照道,0,3,0,0,0,10,15,0,0,-,-
12713726.4631918,2550105.03274967,183,Kwun Tong,Exchange Tower,"33 Wang Chiu Road, Kowloon Bay, Kowloon",觀塘區,國際交易中心,九龍九龍灣宏照道33號,观塘区,国际交易中心,九龙九龙湾宏照道33号,0,8,0,0,0,0,0,0,0,-,-
12715402.7120841,2548994.48681171,184,Kwun Tong,Futura Plaza,"Futura Plaza, 111-113 How Ming Street, Kwun Tong, KLN",觀塘區,富利廣場,九龍觀塘巧明街111-113號富利廣場,观塘区,富利广场,九龙观塘巧明街111-113号富利广场,1,0,0,0,0,0,0,0,0,-,-
12713275.2852956,2550737.77233236,185,Kwun Tong,Skyline Tower,WANG KWONG ROAD,觀塘區,宏天廣埸,宏光道,观塘区,宏天广埸,宏光道,9,0,0,47,0,0,0,0,6,-,-
12714841.5505311,2549147.54501668,186,Kwun Tong,Westin Centre,Hung To Road,觀塘區,威登中心,鴻圖道,观塘区,威登中心,鸿图道,1,0,0,0,0,0,0,0,0,-,-
12715081.3327142,2548688.85588908,187,Kwun Tong,Kwun Tong Harbour Plaza,WAI YIP STREET,觀塘區,觀塘碼頭廣場,偉業街,观塘区,观塘码头广场,伟业街,2,0,0,0,0,0,0,0,0,-,-
12713843.5712961,2550502.86889056,188,Kwun Tong,Metro Centre I,LAM HING STREET,觀塘區,美羅中心一期,臨興街,观塘区,美罗中心一期,临兴街,1,0,0,0,0,6,0,0,0,-,-
12713899.7876389,2550582.17250269,189,Kwun Tong,Metro Centre II,LAM HING STREET,觀塘區,美羅中心二期,臨興街,观塘区,美罗中心二期,临兴街,2,0,0,0,0,0,0,0,0,-,-
12714550.5613821,2550554.37407705,190,Kwun Tong,Amoy Plaza,"77 Ngau Tau Kok Road, Kowloon",觀塘區,淘大商場,九龍牛頭角道77號,观塘区,淘大商场,九龙牛头角道77号,0,4,0,0,0,0,0,0,0,Tesla Wall Connector,-
12714025.0220661,2550269.17210849,191,Kwun Tong,Telford Plaza Car Park D,"33 Wai Yip Street, Kwun Tong District, Kowloon",觀塘區,德福廣場D座停車場,九龍 觀塘區 偉業街33號,观塘区,德福广场D座停车场,九龙 观塘区 伟业街33号,0,0,0,0,0,0,2,0,0,-,-
12714195.786165,2550441.97744865,192,Kwun Tong,Telford Plaza Phase I Car Park,"33 WAI YIP STREET, Kwun Tong District, Kowloon",觀塘區,德福廣場一期停車場,九龍 觀塘區 偉業街33號,观塘区,德福广场一期停车场,九龙 观塘区 伟业街33号,0,0,0,0,0,0,2,0,0,-,-
12714151.3696881,2550126.81361332,193,Kwun Tong,Telford Plaza Phase II Car Park,"33 WAI YIP STREET, Kwun Tong District, Kowloon",觀塘區,德福廣場二期停車場,九龍 觀塘區 偉業街33號,观塘区,德福广场二期停车场,九龙 观塘区 伟业街33号,0,0,0,0,0,0,3,0,0,-,-
12714063.7612489,2549540.06386273,194,Kwun Tong,Pacific Trade Centre,KAI HING ROAD,觀塘區,太平洋貿易中心,啟興道,观塘区,太平洋贸易中心,启兴道,2,0,0,0,0,0,0,0,0,-,-
12714166.2864999,2551140.79824022,195,Kwun Tong,Choi Tak Estate Carpark,CHOI WING ROAD,觀塘區,彩德邨停車場,彩榮路,观塘区,彩德邨停车场,彩荣路,0,5,0,0,0,0,5,0,0,-,-
12716816.4696172,2547399.85245544,196,Kwun Tong,Yau Lai Shopping Centre Carpark,YAU TONG ROAD,觀塘區,油麗商場停車場,油塘道,观塘区,油丽商场停车场,油塘道,0,0,0,0,1,1,7,0,0,-,-
12713639.3000305,2550300.82086437,197,Kwun Tong,PROFICIENT INDUSTRIAL CENTRE,"WANG KWUN ROAD, KWUN TONG",觀塘區,鴻力工業中心,觀塘 宏冠道,观塘区,鸿力工业中心,观塘 宏冠道,1,0,0,0,0,0,0,0,0,-,-
12715151.0187155,2549129.25496914,198,Kwun Tong,Everest Industrial Centre,"85 How Ming St, Kwun Tong",觀塘區,毅力工業中心,觀塘巧明街85號,观塘区,毅力工业中心,观塘巧明街85号,1,0,0,0,0,0,0,0,0,-,-
12714038.4917245,2549455.35025163,199,Kwun Tong,Harbourside HQ,"2, Kai Hing Road",觀塘區,啟匯,啓興道2號,观塘区,启汇,启兴道2号,2,7,0,0,0,0,0,0,0,-,-
12716983.0035754,2547107.2445156,200,Kwun Tong,Domain Carpark,Ko Chiu Road,觀塘區,大本型停車場,高超道,观塘区,大本型停车场,高超道,0,33,0,0,0,0,0,0,0,-,-
12714343.6184487,2550140.41162539,201,Kwun Tong,Lower ngau tau kok estate Car Park,"120 Ngau Tau Kok Road , Ngau Tau Kok,Kowloon",觀塘區,牛頭角下邨車場,九龍觀塘區牛頭角牛頭角道120號,观塘区,牛头角下邨车场,九龙观塘区牛头角牛头角道120号,14,12,0,0,0,0,0,0,0,-,-
12714953.9832168,2549449.57433916,202,Kwun Tong,Kwun Tong Garedn Estate (Lotus Tower),"NGAU TAU KOK ROAD, KWUN TONG",觀塘區,觀塘花園大廈 (玉蓮臺),觀塘 牛頭角道,观塘区,观塘花园大厦 (玉莲台),观塘 牛头角道,1,0,0,0,0,0,0,0,0,-,-
12714825.7431634,2549267.99510346,203,Kwun Tong,L'hotel Elan,"40 Chong Yip St, Kwun Tong",觀塘區,如心艾朗酒店,觀塘創業街40號,观塘区,如心艾朗酒店,观塘创业街40号,0,0,0,2,0,0,0,0,0,Tesla Wall Connector,-
12713766.5382085,2551663.69936411,204,Kwun Tong,Choi Hung Park-and-Ride Public Car Park,"CLEAR WATER BAY ROAD, KWUN TONG",觀塘區,彩虹泊車轉乘公眾停車場,觀塘 清水灣道,观塘区,彩虹泊车换乘公众停车场,观塘 清水湾道,0,0,0,0,0,0,5,0,0,-,-
12714851.6806047,2549178.46968183,205,Kwun Tong,Infotech Centre,"18, Hung To Rd, Kwun Tong",觀塘區,訊科中心,觀塘鴻圖道18號,观塘区,讯科中心,观塘鸿图道18号,1,0,0,0,0,0,0,0,0,-,-
12714939.4003635,2549087.38046159,206,Kwun Tong,Billion Trade Centre,"31 Hung To Rd, Kwun Tong",觀塘區,鴻貿中心,觀塘鴻圖道31號,观塘区,鸿贸中心,观塘鸿图道31号,1,0,0,0,0,0,0,0,0,-,-
12713789.2473846,2550385.29806379,207,Kwun Tong,Hoplite Industrial Centre,"2, 3 Wang Tai Rd, Kowloon Bay",觀塘區,合力工業中心,九龍灣宏泰道2-3號,观塘区,合力工业中心,九龙湾宏泰道2-3号,1,0,0,0,0,0,0,0,0,-,-
12715423.8627874,2548949.60444211,208,Kwun Tong,Entreport Centre,"HOW MING STREET, KWUN TONG",觀塘區,港貿中心,觀塘 巧明街,观塘区,港贸中心,观塘 巧明街,1,0,0,0,0,0,0,0,0,-,-
12716604.9625847,2550059.54573325,209,Kwun Tong,On Tat Estate Car park,"3, On Chui Street, Kwun Tong",觀塘區,安達邨停車場,觀塘安翠街3號,观塘区,安达邨停车场,观塘安翠街3号,2,3,0,0,0,0,0,0,0,-,-
12714312.7829498,2549475.2049659,210,Kwun Tong,One Bay East,"B2/F, 83 Hoi Bun Road, Kwun Tong, KLN",觀塘區,One Bay East,九龍觀塘海濱道 83 號地庫二樓,观塘区,One Bay East,九龙观塘海滨道 83 号地库二楼,0,10,0,0,0,0,0,0,0,-,-
12713811.1773243,2550102.86669847,211,Kwun Tong,One Kowloon,"WANG YUEN STREET, KWUN TONG",觀塘區,一號九龍,觀塘 宏遠街,观塘区,一号九龙,观塘 宏远街,0,0,0,6,0,0,6,0,0,Tesla Wall Connector,-
12713406.9762532,2550679.88854593,212,Kwun Tong,The Bay Hub,"Goldin Financial Global Centre, 17 Kai Cheung Road, Kowloon Bay, KLN",觀塘區,太豐匯,九龍九龍灣啟祥道17號高銀金融國際中心,观塘区,太丰汇,九龙九龙湾启祥道17号高银金融国际中心,157,2,0,0,0,0,0,0,4,Tesla Wall Connector,-
12715478.9659353,2549050.6801888,213,Kwun Tong,apm,KWUN TONG ROAD,觀塘區,apm,觀塘道,观塘区,apm,观塘道,2,0,0,0,0,0,2,0,0,-,-
12715269.1286952,2548545.30753598,214,Kwun Tong,Manulife Financial Centre,"223 Wai Yip Street, Kwun Tong",觀塘區,宏利金融中心,觀塘偉業街223號,观塘区,宏利金融中心,观塘伟业街223号,0,3,0,0,0,0,0,0,0,-,-
12717006.937266,2546703.11223634,215,Kwun Tong,No.1 Lei Yue Mun Path Public Carpark ,"No.1 Lei Yue Mun Path, Yau Tong, Kowloon",觀塘區,鯉魚門徑1號公眾停車場,九龍油塘鯉魚門徑1號,观塘区,鲤鱼门径1号公众停车场,九龙油塘鲤鱼门径1号,0,0,0,1,0,0,0,0,0,Tesla Wall Connector,-
12713805.7226692,2550164.71960361,216,Kwun Tong,FtLife Tower,"SHEUNG YUET ROAD, KWUN TONG",觀塘區,富通中心,觀塘 常悅道,观塘区,富通中心,观塘 常悦道,0,0,0,42,0,0,0,0,18,Tesla Supercharger,-
12715869.0294311,2550834.40620844,217,Kwun Tong,On Tai Estate Carpark,"G/F., Hang Tai House, On Tai Estate, Kwun Tong",觀塘區,安泰邨停車場,觀塘安泰邨恒泰樓地下,观塘区,安泰邨停车场,观塘安泰邨恒泰楼地下,27,0,0,0,0,0,0,0,0,-,-
12714180.6467142,2549571.47057995,218,Kwun Tong,The Quayside Car Park,"The Quayside,77 Hoi Bun Road,Kwun Tong,Kowloon,Hong Kong",觀塘區,海濱匯停車場,香港九龍觀塘海濱道77號海濱匯,观塘区,海滨汇停车场,香港九龙观塘海滨道77号海滨汇,312,100,0,0,3,3,0,0,6,-,-
12714192.5578997,2551382.8109818,219,Kwun Tong,Choi Hing Court Car Park,"1 CHOI SING LANE,Ngau Tau Kok,Kowloon",觀塘區,彩興苑停車場,"九龍,牛頭角,彩盛里1號",观塘区,彩兴苑停车场,"九龙,牛头角,彩盛里1号",2,0,0,0,0,0,0,0,0,-,-
12715432.5457077,2549117.4627122,220,Kwun Tong,One Pacific Centre,Kwun Tong Road,觀塘區,1亞太中心,觀塘道,观塘区,1亚太中心,观塘道,0,0,0,52,0,0,0,0,9,Tesla Wall Connector / Supercharger,-
12716770.605987,2546629.24093769,221,Kwun Tong,8 Yan Yue Wai Public Vehicle Park,8 Yan Yue Wai,觀塘區,仁宇圍8號公眾停車場,油塘仁宇圍8號,观塘区,仁宇围8号公众停车场,油塘仁宇围8号,0,18,0,0,0,0,2,0,0,-,-
12717008.4957388,2546651.9797882,222,Kwun Tong,Lei Yue Mun Municipal Services Building,"6 Lei Yue Mun Path, Yau Tong",觀塘區,鯉魚門市政大廈,油塘鯉魚門徑6號,观塘区,鲤鱼门市政大厦,油塘鲤鱼门径6号,0,6,0,0,0,0,0,0,0,-,https://ev-charger.epd.gov.hk/resource/ev_charger_avail/ev_charger_avail.json
12715450.8021042,2551068.83291648,223,Kwun Tong,Shun Lee Tsuen Park,Shun Lee Tsuen Park,觀塘區,順利邨公園,順利邨公園,观塘区,顺利邨公园,顺利邨公园,0,4,0,0,0,0,0,0,0,-,https://ev-charger.epd.gov.hk/resource/ev_charger_avail/ev_charger_avail.json
12714622.9190511,2550921.89464321,224,Kwun Tong,Choi Fook Estate Car Park,"58 Choi Wing Road, Ngau Tau Kok,Kowloon",觀塘區,彩福邨車場,"九龍,牛頭角,彩榮路58號",观塘区,彩福邨车场,"九龙,牛头角,彩荣路58号",6,0,0,0,0,0,0,0,0,-,-
12713483.0074654,2550858.95587452,225,Kwun Tong,Kowloon Bay Park,"11 Kai Lai Road, Kowloon Bay",觀塘區,九龍灣公園停車場,九龍灣啟禮道11號,观塘区,九龙湾公园停车场,九龙湾启礼道11号,0,11,0,0,0,0,0,0,0,-,https://ev-charger.epd.gov.hk/resource/ev_charger_avail/ev_charger_avail.json
12714120.8681477,2551437.20716527,226,Kwun Tong,Ping Shek Playground,"20 New Clear Water Bay Road, Kowloon",觀塘區,坪石遊樂場,九龍新清水灣道20號,观塘区,坪石游乐场,九龙新清水湾道20号,0,10,0,0,0,0,0,0,0,-,https://ev-charger.epd.gov.hk/resource/ev_charger_avail/ev_charger_avail.json
12715456.9246762,2549324.79104841,227,Kwun Tong,Yue Man Square,"33 Hip Wo Street, Kwun Tong, Kowloon",觀塘區,裕民坊,九龍觀塘協和街33號,观塘区,裕民坊,九龙观塘协和街33号,0,45,0,0,2,2,10,0,0,-,-
12714585.9609802,2549378.33824865,228,Kwun Tong,Manulife Place,International Trade Tower,觀塘區,宏利廣場,國際貿易中心,观塘区,宏利广场,国际贸易中心,0,6,0,0,0,2,0,0,0,-,-
12715219.0349243,2549127.32970214,229,Kwun Tong,Eastcore,"95 How Ming St, Kwun Tong",觀塘區,嘉域大廈,觀塘巧明街95號,观塘区,嘉域大厦,观塘巧明街95号,0,0,0,4,0,0,0,0,0,Tesla Wall Connector,-
12717198.7407486,2547065.37504601,230,Kwun Tong,Ko Cheung Court,"LEI YUE MUN ROAD, KWUN TONG",觀塘區,高翔苑,觀塘 鯉魚門道,观塘区,高翔苑,观塘 鲤鱼门道,1,0,0,0,0,0,0,0,0,-,-
12716659.9544132,2548575.99044219,231,Kwun Tong,Kai Tin (New Wing) Car Park,"Kai Tin Shopping Centre, 50 Kai Tin Road, Lam Tin, Kwun Tong, Kowloon",觀塘區,啟田新翼停車場,九龍觀塘藍田啟田道50號啟田商場,观塘区,启田新翼停车场,九龙观塘蓝田启田道50号启田商场,0,0,0,9,0,0,0,0,3,Tesla Wall Connector / Supercharger,-
12716515.2390751,2548655.40528313,232,Kwun Tong,Kai Tin (Old Wing) Car Park,"Kai Tin Shopping Centre, 50 Kai Tin Road, Lam Tin, Kwun Tong, Kowloon",觀塘區,啟田舊翼停車場,九龍觀塘藍田啟田道50號啟田商場,观塘区,启田旧翼停车场,九龙观塘蓝田启田道50号启田商场,0,45,0,0,2,2,0,0,0,-,-
12715547.4274222,2549327.91964418,233,Kwun Tong,Grand Central,"67 Hip Wo St, Kwun Tong",觀塘區,凱滙,觀塘協和街67號,观塘区,凯汇,观塘协和街67号,0,21,0,0,0,0,0,0,0,-,-
12714575.2743091,2550215.38139408,234,Kwun Tong,On Kay Court Car Park,"20 CHUN WAH ROAD, Ngau Tau Kok,Kowloon",觀塘區,安基苑車場,"九龍,牛頭角,振華道20號",观塘区,安基苑车场,"九龙,牛头角,振华道20号",0,5,0,0,0,0,0,0,0,-,-
12715815.8187145,2548433.28532276,235,Kwun Tong,LAGUNA COMMERCIAL PLAZA (PHASE 1),"CHA KWO LING ROAD, KWUN TONG",觀塘區,麗港城商場,觀塘 茶果嶺道,观塘区,丽港城商场,观塘 茶果岭道,0,4,0,0,0,4,0,0,0,-,-
12717350.1352561,2547348.71788817,236,Kwun Tong,Ko Chun Car Park,"Ko Chun Court Retail and Car Park, 23 Ko Chiu Road, Yau Tong, Kwun Tong, Kowloon",觀塘區,高俊停車場,九龍觀塘油塘高超道23號高俊苑商舖及停車場,观塘区,高俊停车场,九龙观塘油塘高超道23号高俊苑商铺及停车场,0,14,0,0,0,0,0,0,0,-,-
12715988.2526057,2550092.39745497,237,Kwun Tong,Hiu Lai Car Park,"Hiu Lai Shopping Centre, 21 Hiu Kwong Street, Kwun Tong, Kowloon",觀塘區,曉麗停車場,九龍觀塘曉光街21號曉麗商場,观塘区,晓丽停车场,九龙观塘晓光街21号晓丽商场,0,18,0,0,0,0,0,0,0,-,-
12716084.8779237,2550198.41388904,238,Kwun Tong,Sau Mau Ping Phase 3 Car Park,"Sau Mau Ping (III) Estate Retail and Car Park, Sau Ming Road, Sau Mau Ping, Kwun Tong, Kowloon",觀塘區,秀茂坪3期停車場,九龍觀塘秀茂坪秀明道秀茂坪邨第三期商舖及停車場,观塘区,秀茂坪3期停车场,九龙观塘秀茂坪秀明道秀茂坪邨第三期商铺及停车场,0,9,0,0,0,0,0,0,0,-,-
12716279.0191157,2549992.39845799,239,Kwun Tong,Sau Mau Ping SC Car Park,"Sau Mau Ping Shopping Centre, 101 Sau Ming Road, Sau Mau Ping, Kwun Tong, Kowloon",觀塘區,秀茂坪商場停車場,九龍觀塘秀茂坪秀明道101號秀茂坪商場,观塘区,秀茂坪商场停车场,九龙观塘秀茂坪秀明道101号秀茂坪商场,0,27,0,0,2,2,0,0,0,-,-
12714862.1446369,2549206.14550048,240,Kwun Tong,Fullerton Centre,"19 Hung To Road, Kwun Tong",觀塘區,富登中心,觀塘鴻圖道19號,观塘区,富登中心,观塘鸿图道19号,0,2,0,0,0,0,0,0,0,-,-
12714895.5404841,2549170.28727462,241,Kwun Tong,Remington Centre,"HUNG TO ROAD, KWUN TONG",觀塘區,利登中心,觀塘 鴻圖道,观塘区,利登中心,观塘 鸿图道,0,2,0,0,0,0,0,0,0,-,-
12716525.2578293,2548838.4218231,242,Kwun Tong,Hong Yat Car Park,"Hong Yat Court Retail and Car Park, 1 Tak Tin Street, Lam Tin, Kwun Tong, Kowloon",觀塘區,康逸停車場,九龍觀塘藍田德田街1號康逸苑商舖及停車場,观塘区,康逸停车场,九龙观塘蓝田德田街1号康逸苑商铺及停车场,0,13,0,0,0,0,0,0,0,-,-
12714857.6918572,2549308.66675638,243,Kwun Tong,Boton Technology Innovation Tower,"25 Chong Yip St, Kwun Tong",觀塘區,波頓科創中心,觀塘創業街25號,观塘区,波顿科创中心,观塘创业街25号,0,0,0,12,0,0,0,0,0,Tesla Wall Connector,-
12714034.8181813,2549804.67631719,244,Kwun Tong,Capital Tower ,38 Wai Yip Street,觀塘區,富臨中心,偉業街38號,观塘区,富临中心,伟业街38号,0,0,0,12,0,0,0,0,0,Tesla Wall Connector,-
12715540.6369332,2548637.47674835,245,Kwun Tong,Gravity,"20 Hing Yip St, Kwun Tong",觀塘區,萬有引力,觀塘興業街20號,观塘区,万有引力,观塘兴业街20号,0,0,0,2,0,0,0,0,0,Tesla Wall Connector,-
12714500.8015697,2549269.43906579,246,Kwun Tong,NEO,"Hoi Bun Road, Kwun Tong, KLN",觀塘區,綠景,九龍觀塘海濱道,观塘区,绿景,九龙观塘海滨道,0,0,0,0,0,0,0,0,7,Tesla Wall Connector,-
12714886.9688833,2549334.17683746,247,Kwun Tong,Millennium City 2 & 3 (Wilson Parking),KWUN TONG ROAD,觀塘區,創紀之城2及3期 (威信停車場),觀塘道,观塘区,创纪之城2及3期 (威信停车场),观塘道,0,0,0,0,0,0,0,0,1,Tesla Wall Connector,-
12715049.3840204,2548740.71649256,248,Kwun Tong,Two Harbour Square,WAI YIP STREET,觀塘區,二號海港廣場,偉業街,观塘区,二号海港广场,伟业街,0,0,0,10,0,0,0,0,0,Tesla Wall Connector,-
12716882.5933948,2548287.21236631,249,Kwun Tong,Ping Tin Phase 2 Car Park,"Ping Tin Shopping Centre, 23 On Tin Street, Lam Tin, Kwun Tong, Kowloon",觀塘區,平田2期停車場,九龍觀塘藍田安田街23號平田商場,观塘区,平田2期停车场,九龙观塘蓝田安田街23号平田商场,0,22,0,0,0,2,0,0,0,-,-
12716924.0042453,2549625.86089581,250,Kwun Tong,Po Tat Car Park B and C,"Po Tat Shopping Centre, 2 Po Lam Road, Sau Mau Ping, Kwun Tong, Kowloon",觀塘區,寶達 B & C停車場,九龍觀塘秀茂坪寶琳路2號寶達商場,观塘区,宝达 B & C停车场,九龙观塘秀茂坪宝琳路2号宝达商场,0,14,0,0,0,0,0,0,0,-,-
12713522.1919262,2550516.82822456,251,Kwun Tong,DCH Building,"20 Kai Cheung Rd, Kowloon Bay",觀塘區,大昌行集團大廈,九龍灣啓祥道20號,观塘区,大昌行集团大厦,九龙湾启祥道20号,0,0,0,0,2,16,0,0,0,-,-
12714667.7808059,2549053.92906217,252,Kwun Tong,Seaview Centre,"139 Hoi Bun Road, Kwun Tong, KLN",觀塘區,海濱中心,觀塘海濱道139號,观塘区,海滨中心,观塘海滨道139号,1,0,0,0,0,0,0,0,0,-,-
12713821.4187174,2550126.21193163,253,Kwun Tong,CTF Life Tower,"18 SHEUNG YUET ROAD, KWUN TONG",觀塘區,周大福保險中心,九龍灣常悅道18號,观塘区,周大福保险中心,九龙湾常悦道18号,0,0,0,42,0,0,0,0,18,Tesla Wall Connector / Supercharger,-
12714421.7647313,2549536.93522745,254,Kwun Tong,Kwun Tong Tai Yip Street,"21 Tai Yip Street, Kwun Tong",觀塘區,觀塘大業街,觀塘大業街 21號嘉合發展中心地下,观塘区,观塘大业街,观塘大业街 21号嘉合发展中心地下,0,0,0,0,0,2,0,0,0,-,-
12717044.6745734,2547881.36723342,255,Kwun Tong,Hong Pak Car Park,"Hong Pak Court Retail and Car Park, 139 Pik Wan Road, Lam Tin, Kwun Tong, Kowloon",觀塘區,康柏停車場,九龍觀塘藍田碧雲道139號康栢苑商舖及停車場,观塘区,康柏停车场,九龙观塘蓝田碧云道139号康栢苑商铺及停车场,0,11,0,0,0,0,0,0,0,-,-
12717177.5900454,2547772.1167936,256,Kwun Tong,Hong Shui Car Park,"Hong Shui Court Retail and Car Park, 133 Pik Wan Road, Lam Tin, Kwun Tong, Kowloon",觀塘區,康瑞停車場,九龍觀塘藍田碧雲道133號康瑞苑商舖及停車場,观塘区,康瑞停车场,九龙观塘蓝田碧云道133号康瑞苑商铺及停车场,0,9,0,0,0,0,0,0,0,-,-
12716070.8516679,2549059.10319514,257,Kwun Tong,Tsui Ping South Car Park,"Tsui Ping South Estate Car Park, 19 Tsui Ping Road, Kwun Tong,  Kowloon",觀塘區,翠屏南停車場,九龍觀塘翠屏道19號翠屏南邨停車場,观塘区,翠屏南停车场,九龙观塘翠屏道19号翠屏南邨停车场,0,21,0,0,0,0,0,0,0,-,-
12716531.9369988,2546888.8747213,258,Kwun Tong,Peninsula East,"9 Shung Yiu St, Yau Tong",觀塘區,Peninsula East,油塘崇耀街9號,观塘区,Peninsula East,油塘崇耀街9号,0,3,0,0,0,0,0,0,0,-,-
12716396.0159005,2548410.3034143,259,Kwun Tong,SCENEWAY GARDEN,"SCENEWAY ROAD, KWUN TONG",觀塘區,匯景花園,觀塘 匯景道,观塘区,汇景花园,观塘 汇景道,0,0,0,0,0,2,0,0,0,-,-
12715132.984958,2548915.91266168,260,Kwun Tong,One Sky Parc,"53 Hung To Rd, Kwun Tong",觀塘區,One Sky Parc,觀塘鴻圖道53號,观塘区,One Sky Parc,观塘鸿图道53号,0,0,0,0,0,0,1,0,0,-,-
12715000.6260834,2550171.81946528,261,Kwun Tong,Lok Wah (N) CPA,"Lok Wah Commercial Centre, 70 Chun Wah Road, Ngau Tau Kwok, Kwun Tong, Kowloon",觀塘區,樂華北A,九龍觀塘牛頭角振華道70號樂華商場,观塘区,乐华北A,九龙观塘牛头角振华道70号乐华商场,0,9,0,0,1,1,0,0,0,-,-
12714942.8512677,2550269.05177112,262,Kwun Tong,Lok Wah (N) B Car Park,"Lok Wah Commercial Centre, 70 Chun Wah Road, Ngau Tau Kwok, Kwun Tong, Kowloon",觀塘區,樂華北B停車場,九龍觀塘牛頭角振華道70號樂華商場,观塘区,乐华北B停车场,九龙观塘牛头角振华道70号乐华商场,0,16,0,0,0,0,0,0,0,-,-
12715799.9000273,2549637.29251114,263,Kwun Tong,Po Pui Car Park,"Po Pui Court Car Park, Po Pui Street, Kwun Tong,  Kowloon",觀塘區,寶珮停車場,九龍觀塘寶珮街寶珮苑停車場,观塘区,宝佩停车场,九龙观塘宝佩街宝佩苑停车场,0,18,0,0,0,0,0,0,0,-,-
12715966.322666,2549622.37124636,264,Kwun Tong,Tsui Ping North Phase 2 Car Park,"Tsui Ping Road, Kwun Tong",觀塘區,翠屏北2號停車場,觀塘 翠屏道,观塘区,翠屏北2号停车场,观塘 翠屏道,0,0,0,0,0,2,0,0,0,-,-
12716709.2689476,2549732.596386,265,Kwun Tong,Po Tat Car Park A,"Po Tat Shopping Centre, 2 Po Lam Road, Sau Mau Ping, Kwun Tong, Kowloon",觀塘區,寶達 A停車場,九龍觀塘秀茂坪寶琳路2號寶達商場,观塘区,宝达 A停车场,九龙观塘秀茂坪宝琳路2号宝达商场,0,51,0,0,0,2,0,0,0,-,-
12715424.5307044,2550032.9515294,266,Kwun Tong,Hong Ning Road Park,"Junction between Hong Ning Road and Wo Hong Path, Kwun Tong, KL",觀塘區,康寧道公園,九龍觀塘康寧道和康徑交界,观塘区,康宁道公园,九龙观塘康宁道和康径交界,0,6,0,0,0,0,0,0,0,-,-
12717016.1767837,2548326.91905747,267,Kwun Tong,Tak Tin Car Park B,"Tak Tin Plaza, 223 Pik Wan Road, Lam Tin, Kwun Tong, Kowloon",觀塘區,德田B停車場,九龍觀塘藍田碧雲道223號德田廣場,观塘区,德田B停车场,九龙观塘蓝田碧云道223号德田广场,0,13,0,0,0,0,0,0,0,-,-
12715985.8035769,2549180.51528426,268,Kwun Tong,Tsui Ping North Phase 1 Car Park,"Tsui Ping North Shopping Circuit, 18 Tsui Ping Road, Kwun Tong, Kowloon",觀塘區,翠屏北 1 號停車場,九龍觀塘翠屏道18號翠屏(北)商場,观塘区,翠屏北 1 号停车场,九龙观塘翠屏道18号翠屏(北)商场,0,9,0,0,0,0,0,0,0,-,-
12714615.1266868,2549858.46571614,269,Kwun Tong,Upper Ngau Tau Kok Ph1 Car Park,"Upper Ngau Tau Kok Estate Car Park, 15 On Tak Road, Ngau Tau Kwok,  Kwun Tong, Kowloon",觀塘區,牛頭角上1期停車場,九龍觀塘牛頭角安德道15號牛頭角上邨停車場,观塘区,牛头角上1期停车场,九龙观塘牛头角安德道15号牛头角上邨停车场,0,44,0,0,0,0,0,0,0,-,-
12716405.4780572,2549472.91866428,270,Kwun Tong,Sau Mau Ping Phase 1 Car Park,"Sau Mau Ping Shopping Centre, 101 Sau Ming Road, Sau Mau Ping,  Kwun Tong, Kowloon",觀塘區,秀茂坪1期停車場,九龍觀塘秀茂坪秀明道101號秀茂坪商場,观塘区,秀茂坪1期停车场,九龙观塘秀茂坪秀明道101号秀茂坪商场,0,12,0,0,0,0,0,0,0,-,-
12716553.4216605,2549668.45874405,271,Kwun Tong,Sau Mau Ping Phase 15 Car Park,"Sau Mau Ping Shopping Centre, 101 Sau Ming Road, Sau Mau Ping, Kwun Tong, Kowloon",觀塘區,秀茂坪15期停車場,九龍觀塘秀茂坪秀明道101號秀茂坪商場,观塘区,秀茂坪15期停车场,九龙观塘秀茂坪秀明道101号秀茂坪商场,0,27,0,0,0,0,0,0,0,-,-
12714997.2864987,2550063.63715297,272,Kwun Tong,Lok Wah (S) MS Car Park,"Lok Wah (South) Estate Retail and Car Park, 70 Chun Wah Road, Ngau Tau Kwok, Kwun Tong, Kowloon",觀塘區,樂華南-多層停車場,九龍觀塘牛頭角振華道70號樂華南邨商舖及停車場,观塘区,乐华南-多层停车场,九龙观塘牛头角振华道70号乐华南邨商铺及停车场,0,18,0,0,0,0,0,0,0,-,-
12717016.1767837,2548692.70632282,273,Kwun Tong,Tak Tin Car Park A,"Tak Tin Plaza, 223 Pik Wan Road, Lam Tin, Kwun Tong, Kowloon",觀塘區,德田A停車場,九龍觀塘藍田碧雲道223號德田廣場,观塘区,德田A停车场,九龙观塘蓝田碧云道223号德田广场,0,17,0,0,0,0,0,0,0,-,-
12709824.7150395,2552095.63158841,274,Sham Shui Po,FESTIVAL WALK,"TAT CHEE AVENUE, SHAM SHUI PO",深水埗區,又一城,深水埗達之路,深水埗区,又一城,深水埗达之路,0,30,0,0,0,0,0,0,4,Tesla Supercharger,-
12707037.942907,2552324.53971483,275,Sham Shui Po,CEO Tower,"77 Wing Hong St, Cheung Sha Wan",深水埗區,環薈中心,長沙灣永康街77號,深水埗区,环荟中心,长沙湾永康街77号,2,0,0,0,0,0,0,0,0,-,-
12707126.8871801,2552276.27859351,276,Sham Shui Po,Excel Centre,"483A Castle Peak Rd, Lai Chi Kok",深水埗區,卓匯中心,長沙灣青山道483A號,深水埗区,卓汇中心,长沙湾青山道483A号,1,0,0,0,0,0,0,0,0,-,-
12708273.5892548,2551403.75108465,277,Sham Shui Po,Cheung Sha Wan Government Offices Car Park,"303 Cheung Sha Wan Road, Kowloon",深水埗區,長沙灣政府合署停車場,九龍長沙灣道303號,深水埗区,长沙湾政府合署停车场,九龙长沙湾道303号,0,71,0,0,0,0,0,0,0,-,https://ev-charger.epd.gov.hk/resource/ev_charger_avail/ev_charger_avail.json
12707076.4594508,2552329.35379939,278,Sham Shui Po,Dragon Centre,"71-79 Wing Hong St, Cheung Sha Wan",深水埗區,恆龍工商中心,長沙灣永康街71-79號,深水埗区,恒龙工商中心,长沙湾永康街71-79号,1,0,0,0,0,0,0,0,0,-,-
12707047.2937442,2552222.84250139,279,Sham Shui Po,Kowloon Plaza,"485 Castle Peak Road, Lai Chi Kok",深水埗區,九龍廣場,荔枝角青山道485號,深水埗区,九龙广场,荔枝角青山道485号,1,0,0,0,0,0,0,0,0,-,-
12706252.9178579,2551709.19072692,280,Sham Shui Po,Manhattan Hill,"PO LUN STREET, SHAM SHUI PO",深水埗區,曼克頓山,深水埗寶輪街,深水埗区,曼克顿山,深水埗宝轮街,1,0,0,0,0,0,0,0,0,-,-
12707831.7621958,2551742.04567675,281,Sham Shui Po,CHEUNG SHA WAN ESTATE,"Cheung Sha Wan Estate, Sham Shui Po, Kowloon",深水埗區,長沙灣邨,"長沙灣邨, 深水埗區, 九龍",深水埗区,长沙湾邨,"长沙湾邨, 深水埗区, 九龙",4,7,0,0,0,0,0,0,0,-,-
12706838.4583795,2551896.09172046,282,Sham Shui Po,D2 Place Two,"17 Cheung Yee St, Cheung Sha Wan",深水埗區,D2 Place Two,17 長義街,深水埗区,D2 Place Two,17 长义街,0,0,0,8,0,18,0,0,0,Tesla Wall Connector,-
12709335.9111554,2552233.3130736,283,Sham Shui Po,Shek Kip Mei Park,"270 Nam Cheong Street, Sham Shui Po",深水埗區,石硤尾公園,深水埗南昌街270號,深水埗区,石硖尾公园,深水埗南昌街270号,0,1,0,0,0,0,0,0,0,-,https://ev-charger.epd.gov.hk/resource/ev_charger_avail/ev_charger_avail.json
12709383.667217,2552009.94228329,284,Sham Shui Po,Shek Kip Mei Park Sports Centre,"290 Nam Cheong Street, Sham Shui Po",深水埗區,石硤尾公園體體育館,深水埗南昌街290號,深水埗区,石硖尾公园体体育馆,深水埗南昌街290号,0,1,0,0,0,0,0,0,0,-,https://ev-charger.epd.gov.hk/resource/ev_charger_avail/ev_charger_avail.json
12708887.404927,2551496.41737066,285,Sham Shui Po,Shek Kip Mei Estate,"Nam Cheong Street, Shek Kip Mei, Kowloon",深水埗區,石硤尾邨,九龍石硤尾南昌街,深水埗区,石硖尾邨,九龙石硖尾南昌街,0,3,0,0,0,0,0,0,0,-,-
12709694.5825547,2552127.76519064,286,Kowloon City,"Bank of China (HK) Complex Carpark, The City University of Hong Kong","83 Tat Chee Ave, Kowloon Tong",九龍城區,香港城市大學中國銀行（香港）綜合樓停車場,九龍塘達之路83號,九龙城区,香港城市大学中国银行（香港）综合楼停车场,九龙塘达之路83号,0,2,0,0,0,0,0,0,0,-,-
12709694.5825547,2552127.76519064,287,Kowloon City,City University of Hong Kong-Lau Ming Wai Academic Building Carpark,"83 Tat Chee Ave, Kowloon Tong",九龍城區,香港城市大學劉鳴煒學術樓停車場,九龍塘達之路83號,九龙城区,香港城市大学刘鸣炜学术楼停车场,九龙塘达之路83号,0,2,0,0,0,0,0,0,0,-,-
12707850.9091482,2552525.7696269,288,Sham Shui Po,So Uk Estate Car Park (Phase 2),"Cheung Sha Wan Cheung Fat Street, Kowloon",深水埗區,蘇屋邨停車場 (第二期),九龍長沙灣長發街,深水埗区,苏屋邨停车场 (第二期),九龙长沙湾长发街,3,0,0,0,0,0,0,0,0,-,-
12707676.2488672,2550784.94596079,289,Sham Shui Po,V Walk,"28 Sham Mong Rd, Sham Shui Po",深水埗區,V Walk,大角咀深旺道28號,深水埗区,V Walk,大角咀深旺道28号,0,0,0,0,0,4,0,0,3,-,-
12707046.0692298,2550935.49329918,290,Sham Shui Po,Hoi Lok Court,LAI YING STREET,深水埗區,凱樂苑,荔盈街,深水埗区,凯乐苑,荔盈街,10,0,0,0,0,0,0,0,0,-,-
12707606.4515464,2552254.01353444,291,Sham Shui Po,HEYA AQUA,"FUK WING STREET, SHAM SHUI PO",深水埗區,喜漾,深水埗福榮街,深水埗区,喜漾,深水埗福荣街,0,2,0,0,0,0,0,0,0,-,-
12708342.7186586,2551948.44362753,292,Sham Shui Po,Cronin Garden,"2 Po On Rd, Cheung Sha Wan",深水埗區,樂年花園,李鄭屋保安道2號,深水埗区,乐年花园,李郑屋保安道2号,0,2,0,0,0,0,0,0,0,-,-
12707652.8717741,2552300.95072048,293,Sham Shui Po,Heya Crystal,"CASTLE PEAK ROAD, SHAM SHUI PO",深水埗區,喜薈,深水埗青山道,深水埗区,喜荟,深水埗青山道,0,3,0,0,0,0,0,0,0,-,-
12706814.7473279,2551956.26634032,294,Sham Shui Po,CRE Centre,"16 Cheung Shun St, Lai Chi Kok",深水埗區,華創中心,長沙灣長順街16號,深水埗区,华创中心,长沙湾长顺街16号,0,0,0,0,0,0,3,0,0,-,-
12707625.1532209,2551645.2862285,295,Sham Shui Po,Lai Tsui Court,LAI CHI KOK ROAD,深水埗區,麗翠苑,荔枝角道,深水埗区,丽翠苑,荔枝角道,3,0,0,0,0,0,0,0,0,-,-
12707294.2003748,2552081.06918969,296,Sham Shui Po,Sham Shui Po Sports Ground,"3 Hing Wah Street, Cheung Sha Wan, Kowloon",深水埗區,深水埗運動場,九龍長沙灣興華街3號,深水埗区,深水埗运动场,九龙长沙湾兴华街3号,0,2,0,0,0,0,0,0,0,-,https://ev-charger.epd.gov.hk/resource/ev_charger_avail/ev_charger_avail.json
12708253.5517464,2551586.79757879,297,Sham Shui Po,The Campton,"208 Fuk Wa St, Un Chau",深水埗區,The Campton,福華街208號,深水埗区,The Campton,福华街208号,0,0,0,14,0,0,0,0,3,Tesla Wall Connector,-
12709490.4226086,2552761.66422331,298,Sham Shui Po,Lung Cheung Road Lookout,Lung Cheung Road,深水埗區,龍翔道觀景台,龍翔道,深水埗区,龙翔道观景台,龙翔道,0,4,0,0,0,0,0,0,0,-,https://ev-charger.epd.gov.hk/resource/ev_charger_avail/ev_charger_avail.json
12706975.7153116,2552048.21357617,299,Sham Shui Po,Cheung Sha Wan Plaza,"833 Cheung Sha Wan Road, Kowloon",深水埗區,長沙灣廣場,九龍長沙灣道833號,深水埗区,长沙湾广场,九龙长沙湾道833号,0,0,0,23,0,0,0,0,3,Tesla Wall Connector,-
12707337.5036567,2552281.213016,300,Sham Shui Po,Lai Sun Commercial Centre,"680 Cheung Sha Wan Road, Kowloon",深水埗區,麗新商業中心,九龍長沙灣道680號,深水埗区,丽新商业中心,九龙长沙湾道680号,0,7,0,3,0,0,0,0,0,Tesla Wall Connector,-
12705808.7530896,2552364.97806801,301,Sham Shui Po,Lai Chi Kok Park,"1 Lai Wan Road, Lai Chi Kok, Kowloon",深水埗區,荔枝角公園,九龍荔枝角荔灣道1號,深水埗区,荔枝角公园,九龙荔枝角荔湾道1号,0,8,0,0,0,0,0,0,0,-,https://ev-charger.epd.gov.hk/resource/ev_charger_avail/ev_charger_avail.json
12709649.275522,2552297.58086686,302,Sham Shui Po,Cornwall Street Park,"17 Cornwall Street, Kowloon Tong",深水埗區,歌和老街公園,九龍塘歌和老街17號,深水埗区,歌和老街公园,九龙塘歌和老街17号,0,2,0,0,0,0,0,0,0,-,https://ev-charger.epd.gov.hk/resource/ev_charger_avail/ev_charger_avail.json
12707800.1474604,2551048.49494612,303,Sham Shui Po,Wing Cheong Estate Car Park,"No.20, Sai Chuen Road, Sham Shui Po",深水埗區,榮昌邨停車場,深水埗西邨路20號,深水埗区,荣昌邨停车场,深水埗西邨路20号,2,0,0,0,0,0,0,0,0,-,-
12707579.5122297,2552615.43325369,304,Sham Shui Po,Caritas Medical Centre,"WING HONG STREET, SHAM SHUI PO",深水埗區,明愛醫院,深水埗永康街,深水埗区,明爱医院,深水埗永康街,0,0,0,1,0,0,0,0,0,IEC60309,-
12706892.559652,2551051.744206,305,Sham Shui Po,Hoi Ying Estate,LAI YING STREET,深水埗區,海盈邨,荔盈街,深水埗区,海盈邨,荔盈街,0,4,0,0,0,0,0,0,0,-,-
12707268.5968919,2551278.95327149,306,Sham Shui Po,Hoi Tak Court,FAT TSEUNG STREET WEST,深水埗區,凱德苑,發祥街西,深水埗区,凯德苑,发祥街西,2,0,0,0,0,0,0,0,0,-,-
12709162.9206667,2551850.59985106,307,Sham Shui Po,Pak Tin Estate (Shui Tin House) Carpark,"Shui Tin House,Pak Tin Estate, Kowloon , HK",深水埗區,白田邨（瑞田樓）停車場,"九龍,白田邨,瑞田樓,",深水埗区,白田邨（瑞田楼）停车场,"九龙,白田邨,瑞田楼,",6,0,0,0,0,0,0,0,0,-,-
12709243.6272975,2552407.46251427,308,Kowloon City,"Run Run Shaw Creative Media Centre, The City University of Hong Kong","18 Tat Hong Ave, Kowloon Tong",九龍城區,香港城市大學邵逸夫創意媒體中心,九龍塘達康路18號,九龙城区,香港城市大学邵逸夫创意媒体中心,九龙塘达康路18号,0,1,0,0,0,0,0,0,0,-,-
12709452.6853012,2551869.37425841,309,Kowloon City,"Nam Shan Yuen, The City University of Hong Kong","23 Nam Shan Chuen Rd, Kowloon Tong",九龍城區,香港城市大學南山苑,九龍塘南山邨道23號,九龙城区,香港城市大学南山苑,九龙塘南山邨道23号,0,1,0,0,0,0,0,0,0,-,-
12709862.3410274,2551873.10507263,310,Kowloon City,"Academic Exchange Building, The City University of Hong Kong",33 To Yuen Street,九龍城區,香港城市大學學術交流大樓,33 桃源街,九龙城区,香港城市大学学术交流大楼,33 桃源街,0,1,0,0,0,0,0,0,0,-,-
12709728.6463189,2552184.57081025,311,Kowloon City,"Tak Chee Yuen, The City University of Hong Kong","88, Tat Chee Ave",九龍城區,香港城市大學德智苑,九龍塘達之路88號,九龙城区,香港城市大学德智苑,九龙塘达之路88号,0,2,0,0,0,0,0,0,0,-,-
12706780.5722442,2551626.99346019,312,Sham Shui Po,ONE WEST KOWLOON,"873 Lai Chi Kok Rd, Lai Chi Kok",深水埗區,一號．西九龍,荔枝角道873號,深水埗区,一号．西九龙,荔枝角道873号,0,1,0,0,0,0,0,0,0,-,-
12707100.5044608,2552181.20098,313,Sham Shui Po,LAW'S COMMERCIAL PLAZA,"CHEUNG SHA WAN ROAD, SHAM SHUI PO",深水埗區,羅氏商業廣場,深水埗長沙灣道,深水埗区,罗氏商业广场,深水埗长沙湾道,0,2,0,0,0,4,0,0,0,-,-
12707783.6721758,2550874.8409717,314,Sham Shui Po,Nam Cheong Place,"19 Sai Chuen Rd, Sham Shui Po",深水埗區,南昌薈,深水埗西邨路19號,深水埗区,南昌荟,深水埗西邨路19号,0,18,0,0,0,6,0,0,0,-,-
12706980.6133692,2551926.90109887,315,Sham Shui Po,D2 Place one,"CHEUNG YEE STREET, SHAM SHUI PO",深水埗區,D2 Place one,深水埗長義街,深水埗区,D2 Place one,深水埗长义街,0,0,0,0,0,2,0,0,0,-,-
12707976.8114923,2550753.77765572,316,Sham Shui Po,Nam Cheong Car Park,"Nam Cheong Estate Retail and Car Park, 3 Cheong San Lane, Sham Shui Po, Kowloon",深水埗區,南昌停車場,九龍深水埗昌新里3號南昌邨商舖及停車場,深水埗区,南昌停车场,九龙深水埗昌新里3号南昌邨商铺及停车场,0,16,0,0,0,0,0,0,0,-,-
12706719.3465243,2552296.73840356,317,Sham Shui Po,"83 King Lam Street, Cheung Sha Wan",83 King Lam Street,深水埗區,長沙灣瓊林街83號,瓊林街83號,深水埗区,长沙湾琼林街83号,琼林街83号,0,4,0,0,0,0,0,0,0,-,-
12711341.331782,2552076.85692795,318,Wong Tai Sin,Lok Fu Zone B Car Park,"Lok Fu Place, 198 Junction Road, Wang Tau Hom, Kowloon",黃大仙區,樂富B區停車場,九龍橫頭磡聯合道198號樂富廣場,黄大仙区,乐富B区停车场,九龙横头磡联合道198号乐富广场,0,6,0,0,0,6,3,0,0,-,-
12711651.2452444,2552693.78400978,319,Wong Tai Sin,Temple Mall North Car Park,"Temple Mall North, 136 Lung Cheung Road, Wong Tai Sin, Kowloon",黃大仙區,黃大仙中心 北館 停車場,九龍黃大仙龍翔道136號黃大仙中心 北館,黄大仙区,黄大仙中心 北馆 停车场,九龙黄大仙龙翔道136号黄大仙中心 北馆,0,0,0,14,1,1,4,0,7,-,-
12712987.0791339,2552456.08507201,320,Wong Tai Sin,Plaza Hollywood Carpark,"Plaza Hollywood, Diamond Hill, Kln",黃大仙區,荷里活廣場停車場,九龍鑽石山荷里活廣場,黄大仙区,荷里活广场停车场,九龙钻石山荷里活广场,8,0,0,0,0,0,3,0,0,-,-
12712358.4579694,2552872.03033404,321,Wong Tai Sin,Sheung Fung Street Car Park,"Sheung Fung Street, Wong Tai Sin, Kowloon",黃大仙區,雙鳳街停車場,九龍黃大仙雙鳳街,黄大仙区,双凤街停车场,九龙黄大仙双凤街,0,82,0,0,0,0,0,0,0,-,https://ev-charger.epd.gov.hk/resource/ev_charger_avail/ev_charger_avail.json
12712614.9380762,2551805.22845333,322,Wong Tai Sin,AIA Financial Centre,"103 King Fuk St, San Po Kong",黃大仙區,友邦九龍金融中心,新蒲崗景福街103號,黄大仙区,友邦九龙金融中心,新蒲岗景福街103号,0,1,0,0,0,0,0,0,0,-,-
12712292.8907894,2552503.86529694,323,Wong Tai Sin,Lions Rise,"7 Muk Lun St, Chuk Un",黃大仙區,現崇山,竹園睦鄰街7號,黄大仙区,现崇山,竹园睦邻街7号,2,2,0,0,0,0,0,0,0,-,-
12712355.1183847,2552385.07692861,324,Wong Tai Sin,Lions Rise Mall,"5 Chun Yan St, Chuk Un",黃大仙區,現崇山商場,竹園親仁街5號,黄大仙区,现崇山商场,竹园亲仁街5号,2,2,0,0,0,2,0,0,0,-,-
12712341.5374068,2551623.1423536,325,Wong Tai Sin,The Latitude Carpark,"PRINCE EDWARD ROAD EAST, WONG TAI SIN",黃大仙區,譽．港灣停車場,黃大仙太子道東,黄大仙区,誉．港湾停车场,黄大仙太子道东,3,0,0,0,0,0,2,0,4,-,-
12712034.0729733,2552086.96635789,326,Wong Tai Sin,Kai Tak Garden,"10 Tai Shing St, Chuk Un",黃大仙區,啟德花園,竹園大成街10號,黄大仙区,启德花园,竹园大成街10号,0,2,0,0,0,0,0,0,0,-,-
12711252.8327869,2552350.05437871,327,Wong Tai Sin,Lok Fu Market Car Park,"Lok Fu Place, 198 Junction Road, Wang Tau Hom, Kowloon",黃大仙區,樂富街市停車場,九龍橫頭磡聯合道198號樂富廣場,黄大仙区,乐富街市停车场,九龙横头磡联合道198号乐富广场,0,0,0,6,0,0,0,0,4,Tesla Wall Connector / Supercharger,-
12713506.8298365,2552104.53752444,328,Wong Tai Sin,Hammer Hill Road Swimming Pool and Sports Ground,"Wing Ting Road Wong Tai Sin, Kowloon, HongKong",黃大仙區,斧山道游泳池及運動場,牛池灣永定道,黄大仙区,斧山道游泳池及运动场,牛池湾永定道,0,3,0,0,0,0,0,0,0,-,https://ev-charger.epd.gov.hk/resource/ev_charger_avail/ev_charger_avail.json
12713381.4840898,2552963.62151809,329,Wong Tai Sin,Po Kong Village Road Park,"140 Po Kong Village Road, Diamond Hill, Kowloon",黃大仙區,蒲崗村道公園,九龍鑽石山蒲崗村道140號,黄大仙区,蒲岗村道公园,九龙钻石山蒲岗村道140号,0,3,0,0,0,0,0,0,0,-,https://ev-charger.epd.gov.hk/resource/ev_charger_avail/ev_charger_avail.json
12712155.2998987,2552538.04569247,330,Wong Tai Sin,Temple Mall South Car Park A,"Temple Mall South, 103 Ching Tak Street, Wong Tai Sin, Kowloon",黃大仙區,黃大仙中心 南館 A停車場,九龍黃大仙正德街103號黃大仙中心 南館,黄大仙区,黄大仙中心 南馆 A停车场,九龙黄大仙正德街103号黄大仙中心 南馆,0,10,0,0,0,2,0,0,0,-,-
12711117.690925,2552238.24748346,331,Wong Tai Sin,Lok Fu UNY,198 Junction Road Wang Tau Hom,黃大仙區,樂富生活創庫,橫頭磡聯合道198號,黄大仙区,乐富生活创库,横头磡联合道198号,0,12,0,0,0,8,0,0,0,-,-
12712844.2562272,2553274.8667818,332,Wong Tai Sin,Tsz Wan Shan Shopping Centre,"23 Yuk Wah St, Tsz Wan Shan",黃大仙區,慈雲山中心,慈雲山毓華街23號,黄大仙区,慈云山中心,慈云山毓华街23号,0,29,0,0,1,1,0,0,0,-,-
12712780.0248811,2553348.28587989,333,Wong Tai Sin,Tsz Wan Shan Centre Car Park,"Tsz Wan Shan Shopping Centre, 23 Yuk Wah Street, Tsz Wan Shan, Kowloon",黃大仙區,慈雲山中心停車場,九龍慈雲山毓華街23號慈雲山中心,黄大仙区,慈云山中心停车场,九龙慈云山毓华街23号慈云山中心,0,9,0,0,0,0,0,0,0,-,-
12711249.4932021,2551842.65683888,334,Wong Tai Sin,Lok Fu Estate,196 Junction Road Wang Tau Hom,黃大仙區,樂富邨,橫頭磡聯合道196號,黄大仙区,乐富邨,横头磡联合道196号,0,9,0,0,0,0,0,0,0,-,-
12711874.4408235,2551821.59583997,335,Wong Tai Sin,Tung Tau II Car Park A,"Tung Tau Estate Retail and Car Park, 183 Tung Tau Tsuen Road, Wong Tai Sin, Kowloon",黃大仙區,東頭二(A)停車場,九龍黃大仙東頭村道183號東頭邨商舖及停車場,黄大仙区,东头二(A)停车场,九龙黄大仙东头村道183号东头邨商铺及停车场,0,9,0,0,0,0,0,0,0,-,-
12711851.8429668,2551735.18584675,336,Wong Tai Sin,Tung Tau II Car Park B,"183 Tung Tau Tsuen Rd, Chuk Un",黃大仙區,東頭二(B)停車場,竹園東頭村道183號東頭邨商舖及停車場,黄大仙区,东头二(B)停车场,竹园东头村道183号东头邨商铺及停车场,0,9,0,0,0,0,0,0,0,-,-
12713872.2917247,2552593.52880667,337,Wong Tai Sin,King Lai Court,"36-38 Fung Shing St, Hammer Hill",黃大仙區,瓊麗苑,斧山豐盛街36-38號,黄大仙区,琼丽苑,斧山丰盛街36-38号,0,12,0,0,0,0,0,0,0,-,-
12712994.8714983,2553414.48370283,338,Wong Tai Sin,Tsz Man Estate,"55 Tsz Wan Shan Rd, Tsz Wan Shan",黃大仙區,慈民邨,慈雲山慈雲山道55號,黄大仙区,慈民邨,慈云山慈云山道55号,0,17,0,0,0,0,0,0,0,-,-
12712921.1779954,2552634.32887107,339,Wong Tai Sin,Bel Air Heights,"LUNG POON STREET, WONG TAI SIN",黃大仙區,悅庭軒,黃大仙 龍蟠街,黄大仙区,悦庭轩,黄大仙 龙蟠街,0,1,0,0,0,0,0,0,0,-,-
12711573.7668788,2552063.8590984,340,Wong Tai Sin,Hong Keung Car Park,"Hong Keung Court Car Park, 23 Heng Lam Street, Wang Tau Hom,  Kowloon",黃大仙區,康強停車場,九龍橫頭磡杏林街23號康強苑停車場,黄大仙区,康强停车场,九龙横头磡杏林街23号康强苑停车场,0,14,0,0,0,0,0,0,0,-,-
12712684.1787995,2552183.00624612,341,Wong Tai Sin,The Burrow,"212 Choi Hung Rd, San Po Kong",黃大仙區,The Burrow,新蒲崗彩虹道212號,黄大仙区,The Burrow,新蒲岗彩虹道212号,0,0,0,0,0,0,0,0,3,Supercharger,-
12712911.2705607,2552169.16587746,342,Wong Tai Sin,Kai Cheung Court,"Choi Hung Rd, Diamond Hill",黃大仙區,啟翔苑,鑽石山彩虹道,黄大仙区,启翔苑,钻石山彩虹道,0,6,0,0,0,0,0,0,0,-,-
12712770.2287659,2552275.19542779,343,Wong Tai Sin,Kai Chuen Court Carpark,"235 Choi Hung Road, San Po Kong, Kowloon",黃大仙區,啟鑽苑停車場,九龍新蒲崗彩虹道235號,黄大仙区,启钻苑停车场,九龙新蒲岗彩虹道235号,0,52,0,0,0,0,0,0,0,-,-
12712032.7371394,2551494.3714861,344,Wong Tai Sin,TUNG WUI ESTATE (II),LOK SIN ROAD,黃大仙區,東匯邨,九龍城樂善道,黄大仙区,东汇邨,九龙城乐善道,1,0,0,0,0,0,0,0,0,-,-
12712021.2712318,2552549.84035215,345,Wong Tai Sin,Temple Mall South Car Park B,"Temple Mall South, 103 Ching Tak Street, Wong Tai Sin, Kowloon",黃大仙區,黃大仙中心 南館 B停車場,九龍黃大仙正德街103號黃大仙中心 南館,黄大仙区,黄大仙中心 南馆 B停车场,九龙黄大仙正德街103号黄大仙中心 南馆,0,0,0,0,0,2,0,0,0,-,-
12712928.4137623,2552927.03312703,346,Wong Tai Sin,Fung Lai Car Park,"Fung Lai Court Car Park, 8 Fung Lai Road, Diamond Hill,  Kowloon",黃大仙區,鳳禮停車場,九龍鑽石山鳳禮道8號鳳禮苑停車場,黄大仙区,凤礼停车场,九龙钻石山凤礼道8号凤礼苑停车场,0,14,0,0,0,0,0,0,0,-,-
12712780.3588395,2552750.59154562,347,Wong Tai Sin,Fung Tak Car Park,"Fung Tak Shopping Centre, 111 Fung Tak Road, Diamond Hill, Kowloon",黃大仙區,鳳德停車場,九龍鑽石山鳳德道111號鳳德商場,黄大仙区,凤德停车场,九龙钻石山凤德道111号凤德商场,0,20,0,0,0,0,0,0,0,-,-
12711146.3000342,2552896.82369324,348,Wong Tai Sin,Tin Wang Court Car Park,"Kam Chuk Ln, Ma Chai Hang",黃大仙區,天宏苑停車場,馬仔坑金竹里,黄大仙区,天宏苑停车场,马仔坑金竹里,0,12,0,0,0,0,0,0,0,-,-
12710820.4678846,2550195.88681528,349,Kowloon City,King George V School,2 Tin Kwong Road,九龍城區,英皇佐治五世學校,天光道2號,九龙城区,英皇佐治五世学校,天光道2号,0,1,0,0,0,0,0,0,0,-,-
12711169.3431688,2548740.47583974,350,Kowloon City,Customs Staff Quarters,Tsing Chau Street,九龍城區,香港海關宿舍,青州街,九龙城区,香港海关宿舍,青州街,0,5,0,0,0,0,0,0,0,-,-
12712638.7604472,2553511.85515714,351,Wong Tai Sin,Tsz Oi Car Park,"Tsz Oi Court Retail and Car Park, 2 Wan Wah Street, Tsz Wan Shan, Kowloon",黃大仙區,慈愛停車場,九龍慈雲山雲華街2號慈愛苑商舖及停車場,黄大仙区,慈爱停车场,九龙慈云山云华街2号慈爱苑商铺及停车场,0,9,0,0,0,0,0,0,0,-,-
12712185.5788002,2553178.33921065,352,Wong Tai Sin,Ying Fuk Car Park,"Ying Fuk Court Retail and Car Park, 17 Wing Chuk Street, Wong Tai Sin, Kowloon",黃大仙區,盈福停車場,九龍黃大仙穎竹街17號盈福苑商舖及停車場,黄大仙区,盈福停车场,九龙黄大仙颖竹街17号盈福苑商铺及停车场,0,9,0,0,0,0,0,0,0,-,-
12709089.5611223,2547617.14602217,353,Yau Tsim Mong,China Hong Kong City,"33 Canton Road, Tsim Sha Tsui",油尖旺區,中港城,尖沙咀廣東道33號,油尖旺区,中港城,尖沙咀广东道33号,0,42,0,0,0,4,0,0,0,-,-
12709087.446052,2546996.79596762,354,Yau Tsim Mong,Ocean Terminal Car Park (P5),"4/F - 5/F, Ocean Terminal, Harbour City, Tsim Sha Tsui, Kowloon",油尖旺區,海運大廈停車場 (P5),九龍尖沙咀海港城海運大廈4樓-5樓,油尖旺区,海运大厦停车场 (P5),九龙尖沙咀海港城海运大厦4楼-5楼,24,0,0,0,2,2,5,0,0,-,-
12709204.1088783,2549672.4297354,355,Yau Tsim Mong,Langham Place,"31 Shantung St, Mong Kok",油尖旺區,朗豪坊,旺角山東街31號,油尖旺区,朗豪坊,旺角山东街31号,0,0,0,0,13,0,16,0,0,-,-
12708035.254225,2549951.36414417,356,Yau Tsim Mong,Olympian City 1,"11 Hoi Fai Road, West Kowloon",油尖旺區,奧海城1期,西九龍海輝道11號,油尖旺区,奥海城1期,西九龙海辉道11号,2,3,0,33,0,4,0,0,7,-,-
12708459.3814849,2549423.10143241,357,Yau Tsim Mong,Olympian City 2,"18 Hoi Ting Road, West Kowloon",油尖旺區,奧海城2期,西九龍海庭道18號,油尖旺区,奥海城2期,西九龙海庭道18号,0,0,0,0,0,4,2,0,0,-,-
12708813.1548266,2549686.99004508,358,Yau Tsim Mong,Olympian City 3,"1 Hoi Wang Road, South West Kowloon",油尖旺區,奧海城3期,西南九龍海泓道1號,油尖旺区,奥海城3期,西南九龙海泓道1号,2,0,0,0,0,0,0,0,0,-,-
12707778.2175207,2549974.82950197,359,Yau Tsim Mong,The Long Beach,"HOI FAI ROAD, YAU TSIM MONG",油尖旺區,浪澄灣,油尖旺 海輝道,油尖旺区,浪澄湾,油尖旺 海辉道,0,0,0,0,0,0,2,0,0,-,-
12709278.5816176,2547908.31899298,360,Yau Tsim Mong,HONG KONG SCOUT HEADQUARTERS,"AUSTIN ROAD, YAU TSIM MONG",油尖旺區,香港童軍中心,油尖旺 柯士甸道,油尖旺区,香港童军中心,油尖旺 柯士甸道,3,3,0,0,0,0,0,0,0,-,-
12710284.353217,2547373.74372755,361,Yau Tsim Mong,Empire Centre,"68 Mody Road, Tsim Sha Tsui East",油尖旺區,帝國中心,尖東麼地道68號,油尖旺区,帝国中心,尖东么地道68号,0,2,0,0,0,2,0,0,0,-,-
12709749.0177857,2547273.15932997,362,Yau Tsim Mong,K11 Art Mall,"18 Hanoi Road, Tsim Sha Tsui, Kowloon",油尖旺區,K11購物藝術館,尖沙咀河內道18號,油尖旺区,K11购物艺术馆,尖沙咀河内道18号,0,5,0,0,0,3,0,0,0,-,-
12708408.8424361,2548175.55284072,363,Yau Tsim Mong,ELEMENTS Carpark,"1 AUSTIN ROAD WEST, Yau Tsim Mong District, Kowloon",油尖旺區,圓方停車場,九龍 油尖旺區 柯士甸道西1號,油尖旺区,圆方停车场,九龙 油尖旺区 柯士甸道西1号,0,0,0,9,0,0,5,0,12,-,-
12708248.3197304,2548089.64289176,364,Yau Tsim Mong,Elements (South) Car Park,"1, Tsim Sha Tsui, Austin Rd W",油尖旺區,圓方南停車場,柯士甸道一號,油尖旺区,圆方南停车场,柯士甸道一号,0,0,0,0,0,0,3,0,0,-,-
12709468.3813494,2549417.56619355,365,Yau Tsim Mong,Gala Place,"56 Dundas Street, Mongkok, Kowloon",油尖旺區,家樂坊,九龍旺角登打士街56號,油尖旺区,家乐坊,九龙旺角登打士街56号,0,8,0,0,0,0,0,0,0,Tesla Wall Connector,-
12709754.4724408,2549600.10970662,366,Yau Tsim Mong,WEALTH COMMERCIAL CENTRE,"KWONG WA STREET, YAU TSIM MONG",油尖旺區,廣發商業中心,油尖旺 廣華街,油尖旺区,广发商业中心,油尖旺 广华街,1,0,0,0,0,0,0,0,0,-,-
12710135.2964188,2547221.66420146,367,Yau Tsim Mong,SHANGRI-LA HOTEL,"MODY ROAD, YAU TSIM MONG",油尖旺區,九龍香格里拉大酒店,油尖旺 麼地道,油尖旺区,九龙香格里拉大酒店,油尖旺 么地道,2,0,0,1,0,0,0,0,0,-,-
12709700.0372098,2550570.25888607,368,Yau Tsim Mong,Royal Plaza Hotel,"193 Prince Edward Rd W, Kadoorie Hill",油尖旺區,帝京酒店,加多利山太子道西193號,油尖旺区,帝京酒店,加多利山太子道西193号,0,0,0,0,0,0,0,0,2,Tesla Wall Connector,-
12708959.8739155,2550137.16254186,369,Yau Tsim Mong,Lodgewood,"1131 Canton Rd, Mong Kok",油尖旺區,薈賢居,旺角廣東道1131號,油尖旺区,荟贤居,旺角广东道1131号,0,0,0,1,0,0,0,0,0,Tesla Wall Connector,-
12708301.530447,2548234.0296118,370,Yau Tsim Mong,W Hong Kong,1 Austin Road West Kowloon Station,油尖旺區,香港W酒店,柯士甸道西1號,油尖旺区,香港W酒店,柯士甸道西1号,0,0,0,0,0,0,0,0,2,Tesla Wall Connector,-
12710396.2293052,2547636.03601645,371,Yau Tsim Mong,Hotel ICON,"17 Science Museum Rd, Tsim Sha Tsui",油尖旺區,唯港薈,尖沙咀科學館道17號,油尖旺区,唯港荟,尖沙咀科学馆道17号,0,0,0,0,0,0,0,0,6,Tesla Wall Connector,-
12708875.4937415,2548714.7260077,372,Yau Tsim Mong,Coronation Circle,"1 Yau Cheung Road, South West Kowloon",油尖旺區,中港薈,西南九龍友翔道1號,油尖旺区,中港荟,西南九龙友翔道1号,1,0,0,0,0,0,0,0,0,-,-
12710227.1349987,2547454.23574238,373,Yau Tsim Mong,REGAL KOWLOON HOTEL,"MODY ROAD, YAU TSIM MONG",油尖旺區,富豪九龍酒店,油尖旺 麼地道,油尖旺区,富豪九龙酒店,油尖旺 么地道,0,0,0,0,0,0,0,0,1,Tesla Wall Connector,-
12710163.6828889,2547421.75012947,374,Yau Tsim Mong,Royal Garden Hotel,"69 Mody Rd, Tsim Sha Tsui",油尖旺區,帝苑酒店,尖東麼地道69號,油尖旺区,帝苑酒店,尖东么地道69号,0,0,0,0,0,0,0,0,1,Tesla Wall Connector,-
12708394.8161802,2548028.15859008,375,Yau Tsim Mong,International Commerce Centre,"1 Austin Rd W, Tsim Sha Tsui",油尖旺區,環球貿易廣場,柯士甸道西1號,油尖旺区,环球贸易广场,柯士甸道西1号,0,1,0,0,0,0,0,0,0,-,-
12709240.7329908,2550258.82309859,376,Yau Tsim Mong,Pioneer Centre Car Park,NO.133 Sai Yeung Choi Street South,油尖旺區,始創中心停車場,西洋菜南街133號,油尖旺区,始创中心停车场,西洋菜南街133号,0,5,0,0,0,0,0,0,0,-,-
12709319.5471903,2547102.91318633,377,Yau Tsim Mong,ONE PEKING,"PEKING ROAD, YAU TSIM MONG",油尖旺區,北京道1號,油尖旺 北京道,油尖旺区,北京道1号,油尖旺 北京道,0,1,0,0,0,0,0,0,0,-,-
12709992.5848316,2547719.65758366,378,Yau Tsim Mong,8 OBSERVATORY ROAD,"OBSERVATORY ROAD, YAU TSIM MONG",油尖旺區,天文臺道８號,油尖旺 天文臺道,油尖旺区,天文台道８号,油尖旺 天文台道,0,0,0,3,0,0,0,0,0,Tesla Wall Connector,-
12708394.8161802,2548028.15859008,379,Yau Tsim Mong,The Ritz-Carlton Hong Kong,"1 Austin Rd W, Tsim Sha Tsui",油尖旺區,香港麗思卡爾頓酒店,柯士甸道西1號,油尖旺区,香港丽思卡尔顿酒店,柯士甸道西1号,0,0,0,0,0,0,0,0,2,Tesla Wall Connector,-
12708992.6018458,2550119.23242553,380,Yau Tsim Mong,Canton Road Carpark,"1112, 1120 Canton Rd, Mong Kok",油尖旺區,廣東道停車場,"廣東道1112, 1120號",油尖旺区,广东道停车场,"广东道1112, 1120号",0,0,0,0,0,4,0,0,0,Tesla Wall Connector,-
12709853.1015096,2547409.35748627,381,Yau Tsim Mong,GuangDong Hotel Hong Kong,"15 Prat Ave, Tsim Sha Tsui",油尖旺區,香港粵海酒店,尖沙咀寶勒巷15號,油尖旺区,香港粤海酒店,尖沙咀宝勒巷15号,0,0,0,2,0,0,0,0,0,Tesla Wall Connector,-
12710055.3690244,2547421.6298125,382,Yau Tsim Mong,AUTO PLAZA,"MODY ROAD, YAU TSIM MONG",油尖旺區,安達中心,油尖旺 麼地道,油尖旺区,安达中心,油尖旺 么地道,0,4,0,0,0,0,0,0,0,-,-
12709133.0870432,2549773.14883009,383,Yau Tsim Mong,LANGHAM PLACE HOTEL MONGKOK HK,"SHANGHAI STREET, YAU TSIM MONG",油尖旺區,朗豪酒店,油尖旺 上海街,油尖旺区,朗豪酒店,油尖旺 上海街,0,0,0,2,0,0,0,0,0,Tesla Wall Connector,-
12709604.7477257,2550367.48802059,384,Yau Tsim Mong,Grand Century Place,"PRINCE EDWARD ROAD WEST, YAU TSIM MONG",油尖旺區,新世紀廣場,油尖旺 太子道西,油尖旺区,新世纪广场,油尖旺 太子道西,2,0,0,0,0,0,2,0,0,-,-
12707983.8246202,2547741.9166321,385,Yau Tsim Mong,West Kowloon Cultural District Zone E Car Park,"Cultural District, West Kowloon, No.36 Museum Dr, Tsim Sha Tsui",油尖旺區,西九龍文化區E區停車場,西九龍博物館道36號,油尖旺区,西九龙文化区E区停车场,西九龙博物馆道36号,0,20,0,0,0,0,0,0,0,-,-
12709891.8406924,2546912.9373695,386,Yau Tsim Mong,K11 MUSEA,18 SALISBURY RD,油尖旺區,K11 人文購物藝術館,梳士巴利道18號,油尖旺区,K11 人文购物艺术馆,梳士巴利道18号,0,21,0,0,0,10,0,0,0,-,-
12709924.4573032,2548564.67987416,387,Yau Tsim Mong,Queen Elizabeth Hospital (Ambulatory Care Centre Extension),"Queen Elizabeth Hospital Rd, King's Park",油尖旺區,伊利沙伯醫院(日間醫療中心新翼),京士柏伊利沙伯醫院路,油尖旺区,伊利沙伯医院(日间医疗中心新翼),京士柏伊利沙伯医院路,12,2,0,0,0,0,0,0,0,-,-
12709165.035737,2548792.81790969,388,Yau Tsim Mong,Prosperous Garden,"PUBLIC SQUARE STREET, YAU TSIM MONG",油尖旺區,駿發花園,油尖旺 眾坊街,油尖旺区,骏发花园,油尖旺 众坊街,1,1,0,0,0,0,0,0,0,-,-
12708720.2030518,2548044.16133188,389,Yau Tsim Mong,Hong Kong West Kowloon Station Car Park,B2 Basement Floor of West Kowloon Station in the Hong Kong Section of the Exprss Rail Link,油尖旺區,高鐵香港段西九龍站停車場,高鐵香港段西九龍站的地下庫B2,油尖旺区,高铁香港段西九龙站停车场,高铁香港段西九龙站的地下库B2,0,0,10,0,0,0,0,0,0,-,-
12709407.1556295,2547814.22866316,390,Yau Tsim Mong,Kowloon Park,"22, Austin Road, Tsim Sha Tsui, Kowloon",油尖旺區,九龍公園,九龍尖沙咀柯士甸道22號,油尖旺区,九龙公园,九龙尖沙咀柯士甸道22号,0,9,0,0,0,0,0,0,0,-,https://ev-charger.epd.gov.hk/resource/ev_charger_avail/ev_charger_avail.json
12710267.0986959,2547846.47439461,391,Yau Tsim Mong,CONCORDIA PLAZA,"SCIENCE MUSEUM ROAD, YAU TSIM MONG",油尖旺區,康宏廣場,油尖旺 科學館道,油尖旺区,康宏广场,油尖旺 科学馆道,0,0,0,0,0,4,0,0,0,-,-
12709552.7615235,2548531.59049016,392,Yau Tsim Mong,Eaton Hotel,Pak Hoi Street,油尖旺區,逸東酒店,北海街,油尖旺区,逸东酒店,北海街,0,2,0,0,0,0,0,0,0,-,-
12709863.3429028,2548907.36939953,393,Yau Tsim Mong,Hong Kong Red Cross Blood Transfusion Service,"15 King's Park Rise, Yau Ma Tei",油尖旺區,香港紅十字會輸血服務中心,油麻地京士柏道15號,油尖旺区,香港红十字会输血服务中心,油麻地京士柏道15号,0,0,0,0,0,0,8,0,0,-,-
12708840.0941434,2549477.25060446,394,Yau Tsim Mong,Hoi Fu Car Park,"Hoi Fu Shopping Centre, 2 Hoi Ting Road, Mong Kok, Kowloon",油尖旺區,海富停車場,九龍旺角海庭路2號海富商場,油尖旺区,海富停车场,九龙旺角海庭路2号海富商场,0,12,0,0,0,2,0,0,0,-,-
12709638.3662119,2547680.19296485,395,Yau Tsim Mong,CHI WAN BUILDING (MIRAMAR SHOPPING CENTRE),"KIMBERLEY ROAD, YAU TSIM MONG",油尖旺區,美麗華商場,油尖旺 金巴利道,油尖旺区,美麗华商场,油尖旺 金巴利道,0,16,0,2,0,2,3,0,0,Tesla Wall Connector,-
12708548.6597165,2548480.33215486,396,Yau Tsim Mong,To Wah Road car park,"J/O Lin Cheung Road & Jordan Road, Kowloon",油尖旺區,渡華路停車場,連翔道及佐敦道交界,油尖旺区,渡华路停车场,连翔道及佐敦道交界,0,0,0,0,0,0,2,0,0,-,-
12708567.9179884,2550436.08085829,397,Yau Tsim Mong,One Bedford Place,"100 Bedford Rd, Tai Kok Tsui",油尖旺區,One Bedford Place,大角咀必發道100號,油尖旺区,One Bedford Place,大角咀必发道100号,0,0,0,0,0,0,0,0,3,Tesla Supercharger,-
12709696.6976251,2547036.98086733,398,Yau Tsim Mong,H Zentre,"15 Middle Road, Tsim Sha Tsui",油尖旺區,H Zentre,尖沙咀中間道15號,油尖旺区,H Zentre,尖沙咀中间道15号,0,6,0,0,0,2,0,0,0,-,-
12710372.5182537,2547507.89729975,399,Yau Tsim Mong,InterContinental Grand Stanford,70 Mody Rd,油尖旺區,海景嘉福洲際酒店,尖沙咀麼地道70號,油尖旺区,海景嘉福洲际酒店,尖沙咀么地道70号,0,0,0,1,0,0,0,0,0,Tesla Wall Connector,-
12705935.6573091,2555445.07841059,400,Kwai Tsing,Shek Lei Shopping Centre II,"8 Shek Lei St, Shek Lei",葵青區,石籬商場二期,石梨街8號,葵青区,石篱商场二期,石梨街8号,0,0,0,0,0,0,3,0,3,-,-
12702298.7382254,2554585.86730657,401,Kwai Tsing,MTR Maritime Square Car Park,"33 TSING KING ROAD, Kwai Tsing District, New Territories",葵青區,港鐵青衣城停車場,新界 葵青區 青敬路33號,葵青区,港铁青衣城停车场,新界 葵青区 青敬路33号,0,2,0,0,0,0,0,0,2,Tesla Supercharger,-
12704644.1285769,2555791.51977867,402,Kwai Tsing,Kwai Chung Shopping Centre,"11 Sheung Kok St, Kwai Chung",葵青區,葵涌商場,葵涌上角街11號,葵青区,葵涌商场,葵涌上角街11号,0,0,0,0,1,1,8,0,0,-,-
12701880.399579,2555120.19080528,403,Kwai Tsing,Cheung Fat Car Park,"Cheung Fat Plaza, 6 Tam Kon Shan Road, Tsing Yi, New Territories",葵青區,長發停車場,新界青衣擔桿山路6號長發廣場,葵青区,长发停车场,新界青衣担杆山路6号长发广场,0,10,0,12,0,0,3,0,4,-,-
12702045.4863839,2554861.0315502,404,Kwai Tsing,Cheung On Phase 2 Car Park,"Cheung On Estate Retail and Car Park, 1 Tam Kon Shan Road, Tsing Yi, New Territories",葵青區,長安2期停車場,新界青衣擔桿山路1號長安邨商舖及停車場,葵青区,长安2期停车场,新界青衣担杆山路1号长安邨商铺及停车场,0,0,0,0,1,1,1,0,0,-,-
12704525.1280413,2554508.59102146,405,Kwai Tsing,Metroplaza,"HING FONG ROAD, KWAI TSING",葵青區,新都會廣場,葵青 興芳路,葵青区,新都会广场,葵青 兴芳路,1,0,0,1,0,0,1,0,0,-,-
12701802.587255,2553767.62341253,406,Kwai Tsing,Tsing Yi Southwest Leisure Building,"70 Chung Mei Road, Tsing Yi",葵青區,青衣西南康體大樓,青衣涌美路70號,葵青区,青衣西南康体大楼,青衣涌美路70号,6,3,0,0,0,0,0,0,0,-,https://ev-charger.epd.gov.hk/resource/ev_charger_avail/ev_charger_avail.json
12704408.242576,2554267.73684756,407,Kwai Tsing,Magnet Place,"49 Kwai Fung Cres, Kwai Chung",葵青區,Magnet Place,葵涌葵豐街49號,葵青区,Magnet Place,葵涌葵丰街49号,0,0,0,4,0,0,0,0,0,Tesla Wall Connector,-
12705686.6356082,2556016.14472873,408,Kwai Tsing,Riley House,"79 Lei Muk Rd, Shek Yam",葵青區,達利中心,石蔭梨木道79號,葵青区,达利中心,石荫梨木道79号,0,0,0,0,0,0,5,0,0,-,-
12704911.0727159,2553548.32446292,409,Kwai Tsing,Highland Park,"LAI KONG STREET, KWAI TSING",葵青區,浩景臺,葵青 荔崗街,葵青区,浩景台,葵青 荔岗街,0,3,0,0,0,0,0,0,0,-,-
12704594.5914035,2554259.31122694,410,Kwai Tsing,Kwai Fong Car Park,"19 Kwai Yi Road, Kwai Chung, New Territories",葵青區,葵芳停車場,新界葵涌葵義路19號,葵青区,葵芳停车场,新界葵涌葵义路19号,0,94,0,0,0,0,0,0,0,-,https://ev-charger.epd.gov.hk/resource/ev_charger_avail/ev_charger_avail.json
12704627.2080143,2554861.99451261,411,Kwai Tsing,Hang King Garden,"WING FONG ROAD, KWAI TSING",葵青區,恒景花園,葵青 榮芳路,葵青区,恒景花园,葵青 荣芳路,0,0,0,0,0,0,0,0,2,Tesla Wall Connector,-
12701411.1879253,2554967.31886041,412,Kwai Tsing,Tsing Yi Northeast Park,"10 Tam Kon Shan Road, Tsing Yi",葵青區,青衣東北公園,青衣担杆山路10號,葵青区,青衣东北公园,青衣担杆山路10号,0,6,0,0,0,0,0,0,0,-,https://ev-charger.epd.gov.hk/resource/ev_charger_avail/ev_charger_avail.json
12704367.4996423,2554580.33036464,413,Kwai Tsing,Kwai Chung Sports Ground,"93 Hing Shing Road, Kwai Chung",葵青區,葵涌運動場,葵涌興盛路93號,葵青区,葵涌运动场,葵涌兴盛路93号,0,3,0,0,0,0,0,0,0,-,https://ev-charger.epd.gov.hk/resource/ev_charger_avail/ev_charger_avail.json
12704700.4562393,2554899.67046044,414,Kwai Tsing,Hing Fong Road Playground,"Hing Fong Road, Kwai Chung",葵青區,興芳路遊樂場,葵涌興芳路,葵青区,兴芳路游乐场,葵涌兴芳路,0,3,0,0,0,0,0,0,0,-,https://ev-charger.epd.gov.hk/resource/ev_charger_avail/ev_charger_avail.json
12702386.0127062,2554340.31772619,415,Kwai Tsing,Tsing Yi Sports Ground and Swimming Pool,"38 Tsing Luk Street, Tsing Yi",葵青區,青衣運動場及游泳池,青衣青綠街38號,葵青区,青衣运动场及游泳池,青衣青绿街38号,0,3,0,0,0,0,0,0,0,-,https://ev-charger.epd.gov.hk/resource/ev_charger_avail/ev_charger_avail.json
12701811.3814947,2554391.11249146,416,Kwai Tsing,TSING YI ESTATE,"FUNG SHUE WO ROAD, KWAI TSING",葵青區,青衣邨,葵青 楓樹窩路,葵青区,青衣邨,葵青 枫树窝路,0,0,0,0,0,2,0,0,0,-,-
12706183.6771346,2556154.82144219,417,Kwai Tsing,ON YAM ESTATE,"ON CHIT STREET, KWAI TSING",葵青區,安蔭邨,葵青 安捷街,葵青区,安荫邨,葵青 安捷街,0,6,0,0,0,4,0,0,0,-,-
12704178.479147,2555079.50506492,418,Kwai Tsing,Kwai Shing West Shopping Centre Car Park,"Kwai Luen Road, Kwai Chung, N.T.",葵青區,葵盛西商場停車場,新界葵涌葵聯路,葵青区,葵盛西商场停车场,新界葵涌葵联路,0,2,0,0,0,0,0,0,0,-,-
12702476.4041327,2553042.33497197,419,Kwai Tsing,Cheung Ching Estate Car Park,"CHING HONG ROAD, TSING YI",葵青區,長青邨停車場,青衣青康路,葵青区,长青邨停车场,青衣青康路,0,19,0,0,0,0,0,0,0,-,-
12702431.0971,2552647.68820575,420,Kwai Tsing,Ching Fu Court,18 Tsing Yi Road,葵青區,青富苑,青衣路18號,葵青区,青富苑,青衣路18号,0,12,0,0,0,0,0,0,0,-,-
12704738.6388246,2555754.32333312,421,Kwai Tsing,Kwai Chung Shopping Centre,"Sheung Kok Street, Kwai Chung, N.T.",葵青區,葵涌商場停車場,新界葵涌上角街,葵青区,葵涌商场停车场,新界葵涌上角街,0,8,0,0,0,0,1,0,0,-,-
12704484.3851077,2553470.09007599,422,Kwai Tsing,Yin Lai Car Park,"Yin Lai Court Shopping Centre, 180 Lai King Hill Road, Kwai Chung, New Territories",葵青區,賢麗停車場,新界葵涌荔景山路180號賢麗苑購物中心,葵青区,贤丽停车场,新界葵涌荔景山路180号贤丽苑购物中心,0,18,0,0,0,0,0,0,0,-,-
12704720.7163866,2554274.95881146,423,Kwai Tsing,KWAI FONG TERRACE,"KWAI YI ROAD, KWAI TSING",葵青區,葵芳閣,葵青 葵義路,葵青区,葵芳阁,葵青 葵义路,0,0,0,0,0,2,0,0,0,-,-
12705795.9513482,2555901.06318851,424,Kwai Tsing,Fung King Industrial Building,"Fung King Industrial Building, 24-28 Lam Tin Street, Kwai Chung",葵青區,馮敬工業大廈,葵涌藍田街 24-28號,葵青区,冯敬工业大厦,葵涌蓝田街 24-28号,0,0,0,0,0,6,0,0,0,-,-
12705180.1319251,2555004.99504494,425,Kwai Tsing,Kowloon Commerce Centre,"KWAI CHEONG ROAD, KWAI TSING",葵青區,九龍貿易中心,葵青 葵昌路,葵青区,九龙贸易中心,葵青 葵昌路,0,0,0,4,0,0,0,0,0,Tesla Wall Connector,-
12702453.4723176,2551443.70583615,426,Kwai Tsing,Goodman Interlink,39 Tsing Yi Rd,葵青區,嘉民領達中心,青衣青衣路39號,葵青区,嘉民领达中心,青衣青衣路39号,0,0,0,6,0,0,0,0,6,Tesla Wall Connector / Supercharger,-
12701086.9142486,2554440.22226863,427,Kwai Tsing,Cheung Wang Car Park,"Cheung Wang Estate Retail and Car Park, 9 Liu To Road, Tsing Yi, New Territories",葵青區,長宏停車場,新界青衣寮肚路9號長宏邨商舖及停車場,葵青区,长宏停车场,新界青衣寮肚路9号长宏邨商铺及停车场,0,14,0,0,0,0,0,0,0,-,-
12705793.7249584,2556251.48653145,428,Kwai Tsing,Ning Fung Court,"99, Lei Muk Rd, Kwai Chung",葵青區,寧峰苑,葵涌梨木道99號,葵青区,宁峰苑,葵涌梨木道99号,0,13,0,0,0,0,0,0,0,-,-
12702088.0104293,2553965.13935549,429,Kwai Tsing,Greenview Villa,"18 Tsing Luk St, Tsing Yi",葵青區,綠悠雅苑,青衣青綠街18號,葵青区,绿悠雅苑,青衣青绿街18号,51,0,0,0,0,0,0,0,0,-,-
12702402.5993103,2554142.43626903,430,Kwai Tsing,TIVOLI GARDEN,"TSING KING ROAD, KWAI TSING",葵青區,宏福花園,葵青 青敬路,葵青区,宏福花园,葵青 青敬路,0,2,0,0,0,0,0,0,0,-,-
12702845.7622032,2551667.43013261,431,Kwai Tsing,China Merchants Logistics Centre,"38 Tsing Yi Hong Wan Rd, Tsing Yi",葵青區,中國招商局物流中心,青衣青衣航運路38 號,葵青区,中国招商局物流中心,青衣青衣航运路38 号,0,1,0,6,0,2,2,0,0,Tesla Wall Connector,-
12701489.4455273,2553488.50521423,432,Kwai Tsing,Ching Wah Court Car Park,"Ching Wah Court Retail and Car Park, 22 Tsing Chin Street, Tsing Yi, New Territories",葵青區,青華停車場,新界青衣青芊街22號青華苑商舖及停車場,葵青区,青华停车场,新界青衣青芊街22号青华苑商铺及停车场,0,9,0,0,0,0,0,0,0,-,-
12705752.6480663,2552697.39465253,433,Kwai Tsing,Wah Lai Car Park,"Wah Lai Estate Car Park, 282 Lai King Hill Road, Lai Chi Kok,  Kowloon",葵青區,華荔停車場,新界葵涌梨木道99九龍荔枝角荔景山路282號華荔邨停車場號寧峰苑停車場,葵青区,华荔停车场,新界葵涌梨木道99九龙荔枝角荔景山路282号华荔邨停车场号宁峰苑停车场,0,24,0,0,0,0,0,0,0,-,-
12705361.2487366,2555641.53073267,434,Kwai Tsing,EDGE,"30-34 KWAI WING ROAD, KWAI CHUNG, N.T.",葵青區,EDGE,葵涌葵榮路30-34號,葵青区,EDGE,葵涌葵荣路30-34号,0,2,0,0,0,0,0,0,0,-,-
12702267.0121705,2553519.07679556,435,Kwai Tsing,Cheung Hong Car Park No. 2,"12 CHING HONG ROAD, TSING YI",葵青區,長康一期2號停車場,青衣青康路12號,葵青区,长康一期2号停车场,青衣青康路12号,0,6,0,0,0,6,0,0,0,-,-
12705832.5754607,2556209.59424498,436,Kwai Tsing,Shek Yam Shopping Centre,"UG4, Shek Yam Car Park, Shek Yam Estate, Kwai Chung",葵青區,石蔭商場,葵涌梨木道120號石蔭邨石蔭停車場,葵青区,石荫商场,葵涌梨木道120号石荫邨石荫停车场,0,1,0,0,0,2,0,0,0,-,-
12702795.0005154,2556623.22497194,437,Tsuen Wan,CHINACHEM TSUEN WAN PLAZA,"CASTLE PEAK ROAD, TSUEN WAN",荃灣區,華懋荃灣廣場,荃灣 青山道,荃湾区,华懋荃湾广场,荃湾 青山道,0,0,0,0,0,0,2,0,0,-,-
12702931.4782111,2556722.18005293,438,Tsuen Wan,DISCOVERY PARK,"398 Castle Peak Road, Tsuen Wan, New Territories",荃灣區,愉景新城,荃灣青山公路荃灣段398號,荃湾区,愉景新城,荃湾青山公路荃湾段398号,1,14,0,0,0,6,3,0,0,-,-
12703827.822751,2555876.26538688,439,Tsuen Wan,Panda Place,"3 Tsuen Wah Street, Tsuen Wan, Hong Kong",荃灣區,悅來坊商場,新界荃灣荃華街3號,荃湾区,悦来坊商场,新界荃湾荃华街3号,0,6,0,10,0,4,0,0,12,Tesla Supercharger,-
12703101.351754,2555327.59331817,440,Tsuen Wan,Waterside Plaza,"38 Wing Shun Street, Tsuen Wan",荃灣區,海灣花園,荃灣永順街38號,荃湾区,海湾花园,荃湾永顺街38号,2,0,0,0,0,0,0,0,0,-,-
12703053.5956925,2555827.87366608,441,Tsuen Wan,Nina Tower,"No. 8 Yeung Uk Road,Tsuen Wan, N.T.",荃灣區,如心廣場,新界荃灣楊屋道8號,荃湾区,如心广场,新界荃湾杨屋道8号,0,0,0,0,1,1,1,0,0,-,-
12703624.7759997,2556349.23560718,442,Tsuen Wan,Tsuen Wan Car Park,"174-208 Castle Peak Road, Tsuen Wan, New Territories",荃灣區,荃灣停車場,新界荃灣青山公路-荃灣段174-208號,荃湾区,荃湾停车场,新界荃湾青山公路-荃湾段174-208号,0,162,0,0,0,0,0,0,0,-,https://ev-charger.epd.gov.hk/resource/ev_charger_avail/ev_charger_avail.json
12703545.1825638,2556071.15783625,443,Tsuen Wan,City Landmark,Tak Hoi Street,荃灣區,荃灣城市中心,荃灣德海街,荃湾区,荃湾城市中心,荃湾德海街,1,0,0,0,0,0,0,0,0,-,-
12703613.3100922,2556173.84142814,444,Tsuen Wan,KOLOUR • Tsuen Wan II (Tsuen Wan Town Square),"CASTLE PEAK ROAD, TSUEN WAN",荃灣區,荃灣千色匯 II (荃灣城市廣場),荃灣 青山道,荃湾区,荃湾千色汇 II (荃湾城市广场),荃湾 青山道,1,0,0,0,0,0,0,0,0,-,-
12699063.0145865,2555879.51558209,445,Tsuen Wan,Royal View Hotel,"353 Castle Peak Rd - Ting Kau, Ting Kau",荃灣區,帝景酒店,汀九青山公路－汀九段353號,荃湾区,帝景酒店,汀九青山公路－汀九段353号,0,0,0,0,0,0,0,0,2,Tesla Wall Connector,-
12702443.8988414,2556393.17472477,446,Tsuen Wan,One Midtown,47 Chai Wan Kok Street Tsuen Wan NT,荃灣區,One Midtown,荃灣柴灣角街47號,荃湾区,One Midtown,荃湾柴湾角街47号,2,0,0,0,0,4,0,0,0,-,-
12703832.6094891,2555669.45796538,447,Tsuen Wan,Sheung Chui Court,"SHA TSUI ROAD, TSUEN WAN",荃灣區,尚翠苑,荃灣 沙咀道,荃湾区,尚翠苑,荃湾 沙咀道,2,0,0,0,0,0,0,0,0,-,-
12704057.4748605,2556285.55418646,448,Tsuen Wan,Wai Tsuen Sports Centre,"6 Miu Kong Street, Tsuen Wan",荃灣區,蕙荃體育館,荃灣廟崗街6號,荃湾区,蕙荃体育馆,荃湾庙岗街6号,0,3,0,0,0,0,0,0,0,-,https://ev-charger.epd.gov.hk/resource/ev_charger_avail/ev_charger_avail.json
12705859.5147774,2555917.91608434,449,Tsuen Wan,Silka Tsuen Wan Hotel,Lam Tin Street,荃灣區,荃灣絲麗酒店,葵涌藍田街,荃湾区,荃湾丝丽酒店,葵涌蓝田街,0,2,0,0,0,0,0,0,0,-,-
12703014.7451902,2555997.24530021,450,Tsuen Wan,Citywalk,"1 Yeung Uk Road, Tsuen Wan",荃灣區,荃新天地,荃灣楊屋道1號,荃湾区,荃新天地,荃湾杨屋道1号,0,2,0,0,0,2,0,0,0,-,-
12703215.7881906,2555750.71203212,451,Tsuen Wan,Citywalk 2,"18 Yeung Uk Road, Tsuen Wan",荃灣區,荃新天地2,荃灣楊屋道18號,荃湾区,荃新天地2,荃湾杨屋道18号,0,2,0,0,0,2,0,0,0,-,-
12703008.6226182,2555485.40391389,452,Tsuen Wan,Tsuen Wan Sports Centre,"53 Wing Shun Street, Tsuen Wan",荃灣區,荃灣體育館,新界荃灣永順街53號,荃湾区,荃湾体育馆,新界荃湾永顺街53号,0,3,0,0,0,0,0,0,0,-,-
12703551.8617333,2555835.45743399,453,Tsuen Wan,BO SHEK MANSION,"SHA TSUI ROAD, TSUEN WAN",荃灣區,寶石大廈,荃灣 沙咀道,荃湾区,宝石大厦,荃湾 沙咀道,1,2,0,0,0,0,0,0,0,-,-
12703535.1638097,2555436.4114494,454,Tsuen Wan,Goodman Tsuen Wan Centre,"68 Wang Lung St, Tsuen Wan",荃灣區,嘉民荃灣中心,荃灣橫龍街68號,荃湾区,嘉民荃湾中心,荃湾横龙街68号,0,0,0,0,0,0,2,0,0,-,-
12703723.5163881,2555989.6614591,455,Tsuen Wan,Yan Chai Hospital Visitor Carpark,"7-11 Yan Chai Street, Tsuen Wan, N.T.",荃灣區,仁濟醫院訪客停車場,新界荃灣仁濟街7-11號,荃湾区,仁济医院访客停车场,新界荃湾仁济街7-11号,4,0,0,0,0,0,0,0,0,-,-
12704677.4131047,2556822.82109973,456,Tsuen Wan,Shing Mun Valley Sports Ground,"21 Shing Mun Road, Tsuen Wan",荃灣區,城門谷運動場,荃灣城門道21號,荃湾区,城门谷运动场,荃湾城门道21号,0,6,0,0,0,0,0,0,0,-,https://ev-charger.epd.gov.hk/resource/ev_charger_avail/ev_charger_avail.json
12702541.7486738,2555909.61001213,457,Tsuen Wan,MTR Tsuen Wan West Station Car Park,"MTR Tsuen Wan West Station, Tai Ho Road, Tsuen Wan",荃灣區,港鐵荃灣西站停車場,荃灣大河道港鐵荃灣西站,荃湾区,港铁荃湾西站停车场,荃湾大河道港铁荃湾西站,0,0,0,0,0,0,2,0,0,-,-
12703804.5569774,2556434.5859438,458,Tsuen Wan,LUK YEUNG SUN CHUEN,"WAI TSUEN ROAD, TSUEN WAN",荃灣區,綠楊新邨,荃灣 蕙荃路,荃湾区,绿杨新邨,荃湾 蕙荃路,0,1,0,0,0,0,3,0,0,-,-
12704172.133936,2556388.96137973,459,Tsuen Wan,Shing Mun Valley Swimming Pool,"21 Shing Mun Road, Tsuen Wan",荃灣區,城門谷游泳池,荃灣城門道21號,荃湾区,城门谷游泳池,荃湾城门道21号,0,2,0,0,0,0,0,0,0,-,https://ev-charger.epd.gov.hk/resource/ev_charger_avail/ev_charger_avail.json
12705581.104731,2557010.01987022,460,Tsuen Wan,Lei Muk Shue Shopping Centre,"NGONG HOM ROAD, TSUEN WAN",荃灣區,梨木樹商場,荃灣 昂磡路,荃湾区,梨木树商场,荃湾 昂磡路,0,14,0,0,0,0,0,0,0,-,-
12702829.9548355,2555863.02385735,461,Tsuen Wan,Nina Mall 2,"No. 98 Tai Ho Road,Tsuen Wan, N.T.",荃灣區,如心廣場二期,新界荃灣大河道98號,荃湾区,如心广场二期,新界荃湾大河道98号,0,4,0,0,0,0,0,0,0,-,-
12704954.5986368,2557044.81138348,462,Tsuen Wan,Cheung Shan Estate Carpark,"Cheung Shan Estate Road West, Tsuen Wan, N.T.",荃灣區,象山邨停車場,新界荃灣象山邨西路,荃湾区,象山邨停车场,新界荃湾象山邨西路,0,22,0,0,0,0,0,0,0,-,-
12703039.6807561,2556587.59165523,463,Tsuen Wan,Sime Darby House,"380 Castle Peak Rd - Tsuen Wan, Tsuen Wan",荃灣區,森那美集團大廈,荃灣青山公路 - 荃灣段380號,荃湾区,森那美集团大厦,荃湾青山公路 - 荃湾段380号,0,0,0,0,0,8,0,0,0,-,-
12703514.7923429,2556076.81564967,464,Tsuen Wan,KOLOUR • Tsuen Wan I,"68 Chung On Street, Tseun Wan",荃灣區,荃灣千色匯I,荃灣眾安街68號,荃湾区,荃湾千色汇I,荃湾众安街68号,0,5,0,0,0,4,0,0,0,-,-
12703243.5067438,2555625.0392421,465,Tsuen Wan,Plaza 88,Ma Tau Pa Road,荃灣區,Plaza 88,荃灣馬頭壩道,荃湾区,Plaza 88,荃湾马头坝道,0,0,0,28,0,0,4,0,8,Tesla Wall Connector / Supercharger,-
12702397.8125722,2556591.08275386,466,Tsuen Wan,Global Plaza (1 Sha Tsui Road),1 Sha Tsui Road,荃灣區,荃灣環貿廣場 (沙咀道 1 號),沙咀道 1 號,荃湾区,荃湾环贸广场 (沙咀道 1 号),沙咀道 1 号,0,0,0,32,0,0,0,0,3,Tesla Supercharger,-
12704229.2408348,2556548.34694143,467,Tsuen Wan,Shek Wai Kok Square,"Shek Wai Kok Rd, Kwai Chung",荃灣區,石圍角新城,葵涌石圍角路,荃湾区,石围角新城,葵涌石围角路,0,0,0,0,0,6,6,0,0,-,-
12703206.1033949,2555686.43100456,468,Tsuen Wan,Aurora,YEUNG UK ROAD,荃灣區,映日灣,楊屋道,荃湾区,映日湾,杨屋道,0,0,0,0,0,0,2,0,0,-,-
12702624.125097,2556628.64220578,469,Tsuen Wan,The Mills,PAK TIN PAR STREET,荃灣區,南豐紗廠,白田壩街,荃湾区,南丰纱厂,白田坝街,0,3,0,0,0,0,3,0,0,-,-
12697261.4199475,2555581.46326481,470,Tsuen Wan,BELLAHIO,"CASTLE PEAK ROAD - SHAM TSENG, TSUEN WAN",荃灣區,碧堤半島,荃灣 青山公路　–　深井段,荃湾区,碧堤半岛,荃湾 青山公路　–　深井段,0,3,0,0,0,0,0,0,0,-,-
12702803.0155187,2556098.24313058,471,Tsuen Wan,Tsuen Wan Plaza,"TAI PA STREET, TSUEN WAN",荃灣區,荃灣廣場,荃灣 大壩街,荃湾区,荃湾广场,荃湾 大坝街,0,0,0,0,0,4,0,0,0,-,-
12702362.9695716,2556634.66135654,472,Tsuen Wan,Sha Tsui Road,2-6 Sha Tsui Road,荃灣區,沙咀道,沙咀道2-6號,荃湾区,沙咀道,沙咀道2-6号,0,13,0,0,0,0,0,0,0,-,-
12700683.492414,2555724.22918191,473,Tsuen Wan,Grand Bay View Hotel and Resort,123 Castle Peak Road,荃灣區,華麗海灣酒店,青山道123號,荃湾区,华丽海湾酒店,青山道123号,0,2,0,0,0,0,0,0,0,-,-
12703389.7805547,2555568.7034697,474,Tsuen Wan,First Asia Tower,"First Asia Tower, Fui Yiu Kok St, Tsuen Wan",荃灣區,第一亞洲中心,荃灣灰窰角街,荃湾区,第一亚洲中心,荃湾灰窑角街,0,0,0,0,5,5,0,0,0,-,-
12720750.1664634,2557454.24911869,475,Sai Kung,Sai Kung Government Offices Carpark,"Man Nin Street No 24 ,Sai Kung",西貢區,西貢政府合署停車場,西貢萬年街24號,西贡区,西贡政府合署停车场,西贡万年街24号,0,27,0,0,0,0,0,0,0,-,https://ev-charger.epd.gov.hk/resource/ev_charger_avail/ev_charger_avail.json
12720732.8006228,2547201.33088809,476,Sai Kung,"The Capitol, LOHAS Park 1 (comprising 5 towers)","WAN PO ROAD, SAI KUNG",西貢區,"首都, 日出康城1期",西貢 環保大道,西贡区,"首都, 日出康城1期",西贡 环保大道,0,0,0,0,1,1,4,0,0,-,-
12719961.9131491,2549584.34614766,477,Sai Kung,EAST POINT CITY,"CHUNG WA ROAD, SAI KUNG",西貢區,東港城,西貢 重華路,西贡区,东港城,西贡 重华路,2,0,0,0,0,0,2,0,6,Tesla Supercharger,-
12719278.5227951,2548546.99208624,478,Sai Kung,Popcorn I Carpark,"9 TONG YIN STREET, Sai Kung District, New Territories",西貢區,Popcorn 一期停車場,新界 西貢區 唐賢街9號,西贡区,Popcorn 一期停车场,新界 西贡区 唐贤街9号,0,0,0,0,0,0,1,0,2,Tesla Supercharger,-
12719540.5688764,2548542.05876096,479,Sai Kung,The Edge,"TONG CHUN STREET, SAI KUNG",西貢區,君薈坊,西貢 唐俊街,西贡区,君荟坊,西贡 唐俊街,0,0,0,0,0,0,1,0,0,-,-
12719630.8489835,2548677.66557104,480,Sai Kung,TSEUNG KWAN O PLAZA,"TONG TAK STREET, SAI KUNG",西貢區,將軍澳廣場,西貢 唐德街,西贡区,将军澳广场,西贡 唐德街,0,3,0,0,0,0,5,0,0,-,-
12719365.0180395,2548994.72746817,481,Sai Kung,Sheung Tak Car Park A,"Sheung Tak Plaza, 2 Tong Ming Street, Tseung Kwan O, New Territories",西貢區,尚德A停車場,新界將軍澳唐明街2號尚德廣場,西贡区,尚德A停车场,新界将军澳唐明街2号尚德广场,0,18,0,9,1,5,1,0,4,-,-
12719478.4526006,2548356.27800459,482,Sai Kung,The Wings II,"TONG CHUN STREET, SAI KUNG",西貢區,天晉II,西貢 唐俊街,西贡区,天晋II,西贡 唐俊街,0,0,0,0,0,0,2,0,0,-,-
12719127.1282876,2548491.52234147,483,Sai Kung,Park Central Shopping Arcade,"TONG TAK STREET, SAI KUNG",西貢區,將軍澳中心(商業中心)(第一及第二期),西貢 唐德街,西贡区,将军澳中心(商业中心)(第一及第二期),西贡 唐德街,11,0,0,12,0,0,2,0,6,-,-
12721232.4024975,2557695.87143698,484,Sai Kung,Kau Sai Chau Public Golf Course Car Park,WAI MAN ROAD,西貢區,滘西洲公眾高爾夫球場停車場,惠民路,西贡区,滘西洲公众高尔夫球场停车场,惠民路,0,0,0,0,1,1,1,0,0,-,-
12719657.4543418,2547975.33761817,485,Sai Kung,Papillons Square Car Park,"The Papillons, 21 Tong Chun Street, Tseung Kwan O, N.T.",西貢區,翩滙坊停車場,將軍澳唐俊街21號海翩滙,西贡区,翩汇坊停车场,将军澳唐俊街21号海翩汇,0,3,0,0,0,0,0,0,0,-,-
12719287.0943959,2555204.93301937,486,Sai Kung,The Pier Hotel,"9 Pak Shan Wan Street, Sai Kung",西貢區,The Pier Hotel,西貢白少灣街9號,西贡区,The Pier Hotel,西贡白少湾街9号,0,3,0,0,0,0,0,0,0,-,-
12718965.3810675,2550223.08296231,487,Sai Kung,Verbena Heights,8 Mau Tai Road,西貢區,茵怡花園,將軍澳貿泰路8號,西贡区,茵怡花园,将军澳贸泰路8号,0,3,0,0,0,0,0,0,0,-,-
12720490.9033693,2546858.43552066,488,Sai Kung,The LOHAS,"1 LOHAS PARK ROAD, TSEUNG KWAN O, N.T. HONG KONG",西貢區,The LOHAS康城,香港新界將軍澳康城路1號,西贡区,The LOHAS康城,香港新界将军澳康城路1号,0,0,0,0,0,0,4,0,6,Tesla Wall Connector,-
12719310.24885,2548018.53288807,489,Sai Kung,Corinthia by the Sea,"23 Tong Yin Street, Tseung Kwan O",西貢區,帝景灣,將軍澳唐賢街23號,西贡区,帝景湾,将军澳唐贤街23号,84,0,0,0,0,0,0,0,0,-,-
12719516.9691444,2548340.15464204,490,Sai Kung,PopWalk,"12 Tong Chun St, Tseung Kwan O",西貢區,天晉滙,將軍澳唐俊街12號,西贡区,天晋汇,将军澳唐俊街12号,2,0,0,0,0,0,2,0,0,-,-
12719167.4259433,2547906.99546806,491,Sai Kung,Alto Public Car Park,"No.29 Tong Yin Street, Tseung Kwan O",西貢區,藍塘傲公衆停車場,將軍澳唐賢街29號,西贡区,蓝塘傲公众停车场,将军澳唐贤街29号,0,0,0,3,0,0,0,0,0,Tesla Wall Connector,-
12718524.110606,2548383.47117351,492,Sai Kung,Choi Ming Car Park 1,"Choi Ming Shopping Centre, 1 Choi Ming Street, Tiu Keng Leng, Tseung Kwan O, New Territories",西貢區,彩明1號停車場,新界將軍澳調景嶺彩明街1號彩明商場,西贡区,彩明1号停车场,新界将军澳调景岭彩明街1号彩明商场,0,21,0,10,0,2,0,0,0,Tesla Wall Connector / Supercharger,-
12719378.8216563,2549737.53006091,493,Sai Kung,Tseung Kwan O Swimming Pool,"9 Wan Lung Road, Tseung Kwan O",西貢區,將軍澳游泳池,將軍澳運隆路9號,西贡区,将军澳游泳池,将军澳运隆路9号,0,4,0,0,0,0,0,0,0,-,https://ev-charger.epd.gov.hk/resource/ev_charger_avail/ev_charger_avail.json
12719716.8989498,2548981.25071169,494,Sai Kung,Tseung Kwan O Sports Ground,"109 Po Hong Road, Tseung Kwan O",西貢區,將軍澳運動場,將軍澳寶康路109號,西贡区,将军澳运动场,将军澳宝康路109号,0,2,0,0,0,0,0,0,0,-,https://ev-charger.epd.gov.hk/resource/ev_charger_avail/ev_charger_avail.json
12718776.6945306,2548290.94238481,495,Sai Kung,Tiu Keng Leng Sports Centre,"2 Chui Ling Road, Tseung Kwan O",西貢區,調景嶺體育館,將軍澳翠嶺路2號,西贡区,调景岭体育馆,将军澳翠岭路2号,0,2,0,0,0,0,0,0,0,-,https://ev-charger.epd.gov.hk/resource/ev_charger_avail/ev_charger_avail.json
12720810.1676689,2547932.50342116,496,Sai Kung,"Shaw Studios, Shaw House",Pak Shing Kok,西貢區,邵氏影城 邵氏大樓,百勝角,西贡区,邵氏影城 邵氏大楼,百胜角,0,7,0,0,0,0,0,0,0,-,-
12720846.3465034,2547592.72141137,497,Sai Kung,"Shaw Studios, Production Building","201 Wan Po Rd, Tseung Kwan O",西貢區,邵氏影城 製作大樓,"Shaw Studios, Production Building 邵氏影城 製作大樓",西贡区,邵氏影城 制作大楼,"Shaw Studios, Production Building 邵氏影城 制作大楼",0,3,0,0,0,0,0,0,0,-,-
12723629.8903707,2543303.44362662,498,Sai Kung,Clear Water Bay Golf & Country Club,"139 Tai Au Mun Rd, Clear Water Bay",西貢區,清水灣鄉村俱樂部,清水灣大坳門路139號,西贡区,清水湾乡村俱乐部,清水湾大坳门路139号,0,2,0,0,0,0,3,0,0,-,-
12719441.8284881,2548054.99026354,499,Sai Kung,Ocean PopWalk,"28 Tong Chun St, Tseung Kwan O",西貢區,海天晉滙,將軍澳唐俊街28號,西贡区,海天晋汇,将军澳唐俊街28号,0,0,0,0,0,0,0,0,6,Tesla Wall Connector,-
12719805.2866255,2548126.82235358,500,Sai Kung,Yung Ming Court Car Park,"5 Chi Shin Street, Tseung Kwan O,  New Territories",西貢區,雍明苑停車場,將軍澳至善街5號,西贡区,雍明苑停车场,将军澳至善街5号,9,1,0,0,0,0,0,0,0,-,-
12721137.4469719,2557925.8191823,501,Sai Kung,WM Hotel,WAI MAN ROAD,西貢區,WM Hotel,惠民路,西贡区,WM Hotel,惠民路,0,9,0,10,0,0,0,0,3,-,-
12718375.1651273,2548307.42667008,502,Sai Kung,Kin Ming Car Park A,"Kin Ming Estate Car Park, 1 Choi Ming Street, Tiu Keng Leng, Tseung Kwan O, New Territories",西貢區,健明A停車場,新界將軍澳調景嶺彩明街1號健明邨停車場,西贡区,健明A停车场,新界将军澳调景岭彩明街1号健明邨停车场,0,12,0,10,0,8,0,0,4,Tesla Wall Connector / Supercharger,-
12719040.0764458,2550214.53903527,503,Sai Kung,MCP Discovery,"8 Mau Yip Rd, Metro City",西貢區,新都城中心3期,貿泰路8號,西贡区,新都城中心3期,贸泰路8号,0,5,0,0,0,4,0,0,0,-,-
12720790.1301606,2546133.44539186,504,Sai Kung,Advanced Manufacturing Centre ,"18 Chun Cheong St, Tseung Kwan O Industrial Estate",西貢區,‎先進製造業中心,將軍澳工業邨駿昌街18號,西贡区,‎先进制造业中心,将军澳工业邨骏昌街18号,0,0,0,10,0,0,0,0,6,Tesla Wall Connector / Supercharger,-
12720778.9982115,2546137.65616363,505,Sai Kung,Data Technology Hub,"7 Chun Cheong St, Tseung Kwan O Industrial Estate",西貢區,數據技術中心,將軍澳工業邨駿昌街7,西贡区,数据技术中心,将军澳工业邨骏昌街7,0,30,0,0,0,0,6,0,0,-,-
12719460.5301626,2548158.94836256,506,Sai Kung,Twin Peak,"9 Chi Shin St, Tseung Kwan O",西貢區,嘉悅,將軍澳至善街9號,西贡区,嘉悦,将军澳至善街9号,0,2,0,0,0,0,0,0,0,-,-
12720137.7979445,2549678.44639077,507,Sai Kung,TKO Gateway East,"TKO Gateway, 2 Sheung Ning Rd, Tseung Kwan O",西貢區,TKO Gateway 東翼,將軍澳常寧路2號重華路近厚德邨,西贡区,TKO Gateway 东翼,将军澳常宁路2号重华路近厚德邨,0,7,0,0,0,8,0,0,0,-,-
12719840.4635846,2549711.29736705,508,Sai Kung,TKO Gateway West,"TKO Gateway, 2 Sheung Ning Rd, Tseung Kwan O",西貢區,TKO Gateway 西翼,將軍澳常寧路2號,西贡区,TKO Gateway 西翼,将军澳常宁路2号,0,9,0,0,0,0,0,0,0,-,-
12718771.6851535,2550737.29096949,509,Sai Kung,Po Lam Car Park,"Po Lam Shopping Centre, 18 Po Lam Road North, Tseung Kwan O, New Territories",西貢區,寶林停車場,新界將軍澳寶琳北路18號寶林商場,西贡区,宝林停车场,新界将军澳宝琳北路18号宝林商场,0,19,0,0,0,0,0,0,0,-,-
12718453.9793268,2548112.74468361,510,Sai Kung,Metro Town Car Park,"8 King Ling Road, Tseung Kwan O, NT",西貢區,都會駅停車場,新界將軍澳景嶺路8號,西贡区,都会駅停车场,新界将军澳景岭路8号,0,2,0,0,0,2,0,0,0,-,-
12720116.0906438,2549329.60427291,511,Sai Kung,Wo Ming Court,"8 Ngan O Rd, Tseung Kwan O",西貢區,和明苑,將軍澳銀澳路8號,西贡区,和明苑,将军澳银澳路8号,0,14,0,0,0,0,0,0,0,-,-
12719662.0184409,2547893.63990429,512,Sai Kung,Monterey,"TONG CHUN STREET, SAI KUNG",西貢區,Monterey,西貢 唐俊街,西贡区,Monterey,西贡 唐俊街,0,0,0,0,0,4,2,0,0,-,-
12718387.5215908,2548502.83286026,513,Sai Kung,Mount Verdant,"48 Chui Ling Road, Tseung Kwan O",西貢區,翠嶺峰,將軍澳翠嶺路48號,西贡区,翠岭峰,将军澳翠岭路48号,39,0,0,0,0,0,0,0,0,-,-
12718777.919045,2550440.89440129,514,Sai Kung,Radiant Towers,"1 Yuk Nga Ln, Tseung Kwan O",西貢區,旭輝臺,將軍澳毓雅里1號,西贡区,旭辉台,将军澳毓雅里1号,0,2,0,0,0,0,0,0,0,-,-
12718660.3656627,2550283.73293553,515,Sai Kung,SERENITY PLACE,"PO HONG ROAD, SAI KUNG",西貢區,怡心園,西貢 寶康路,西贡区,怡心园,西贡 宝康路,0,2,0,0,0,0,0,0,0,-,-
12719160.5241349,2550047.63248741,516,Sai Kung,THE PINNACLE,"WAN HANG ROAD, SAI KUNG",西貢區,疊翠軒,西貢 運亨路,西贡区,迭翠轩,西贡 运亨路,0,6,0,0,0,0,0,0,0,-,-
12720323.0335772,2549570.02659166,517,Sai Kung,Ming Tak Car Park,"Ming Tak Shopping Centre, 10 Pui Shing Lane, Tseung Kwan O, New Territories",西貢區,明德停車場,新界將軍澳培成里10號明德商場,西贡区,明德停车场,新界将军澳培成里10号明德商场,0,0,0,0,2,2,0,0,0,-,-
12719855.7143549,2548250.63416414,518,Sai Kung,Savannah,"CHI SHIN STREET, SAI KUNG",西貢區,Savannah,西貢 至善街,西贡区,Savannah,西贡 至善街,0,0,0,0,0,0,3,0,0,-,-
12719057.7762449,2547904.70937982,519,Sai Kung,Capri,"TONG YIN STREET, SAI KUNG",西貢區,Capri,西貢 唐賢街,西贡区,Capri,西贡 唐贤街,0,0,0,0,0,0,3,0,0,-,-
12717331.2109427,2554301.80047121,520,Sai Kung,Ho Chung Road,Ho Chung Rd DD247/Lot84,西貢區,蠔涌路,西貢蠔涌路DD247/Lot84,西贡区,蚝涌路,西贡蚝涌路DD247/Lot84,0,0,0,0,0,0,2,0,0,-,-
12719755.9720911,2563185.26143568,521,Sai Kung,Che Ha Village,"No. 63 Che Ha Village, Sai Kung",西貢區,輋下村,西貢輋下村63號,西贡区,輋下村,西贡輋下村63号,0,0,0,0,0,0,4,0,0,-,-
12718139.3904458,2550373.14391064,522,Sai Kung,Tsui Lam Square,"11 Tsui Lam Rd, Tseung Kwan O",西貢區,翠林新城,將軍澳翠琳路11號,西贡区,翠林新城,将军澳翠琳路11号,0,6,0,0,0,0,6,0,0,-,-
12718930.8720254,2548569.97418165,523,Sai Kung,Tong Ming Car Park,"Tong Ming Court Retail and Car Park, 15 Tong Ming Street, Tseung Kwan O, New Territories",西貢區,唐明停車場,新界將軍澳唐明街15號唐明苑商舖及停車場,西贡区,唐明停车场,新界将军澳唐明街15号唐明苑商铺及停车场,0,36,0,0,0,0,0,0,0,-,-
12719260.0437596,2550523.9282351,524,Sai Kung,Yan Ming Court Car Park,"Yan Ming Court Retail and Car Park, 100 Po Lam Road North, Tseung Kwan O, New Territories",西貢區,欣明停車場,新界將軍澳寶琳北路100號欣明苑商舖及停車場,西贡区,欣明停车场,新界将军澳宝琳北路100号欣明苑商铺及停车场,0,12,0,0,0,0,0,0,0,-,-
12705916.6216762,2570789.02584627,525,North,Fanling Town Centre,"FANLING STATION ROAD, NORTH",北區,粉嶺名都,北區 粉嶺車站路,北区,粉岭名都,北区 粉岭车站路,0,0,0,0,0,0,3,0,0,-,-
12704641.9021871,2571975.12268825,526,North,LANDMARK NORTH,"LUNG SUM AVENUE, NORTH",北區,上水廣場,北區 龍琛路,北区,上水广场,北区 龙琛路,2,0,0,0,0,0,2,0,4,Tesla Supercharger,-
12706388.3936782,2570085.89003124,527,North,Avon Park,"15 Yat Ming Road, Fanling",北區,碧湖花園,粉嶺一鳴路15號,北区,碧湖花园,粉岭一鸣路15号,0,2,0,0,0,4,0,0,0,-,-
12704034.4317259,2572463.49042476,528,North,Cambridge Plaza,"188 San Wan Road, Sheung Shui",北區,劍橋廣場,上水新運路188號,北区,剑桥广场,上水新运路188号,1,0,0,0,0,0,0,0,0,-,-
12706550.5861763,2571648.34723561,529,North,Grand Regentville,"9 Wo Mun Street, Luen Wo Hui, Fanling",北區,御庭軒,粉嶺聯和墟和滿街9號,北区,御庭轩,粉岭联和墟和满街9号,2,0,0,0,0,0,0,0,0,-,-
12706408.987784,2571685.9405456,530,North,Regentville,"8 Wo Mun Street, Luen Wo Hui, Fanling",北區,帝庭軒,粉嶺聯和墟和滿街8號,北区,帝庭轩,粉岭联和墟和满街8号,2,0,0,8,0,0,0,0,3,-,-
12704873.446728,2571782.21354341,531,North,SHEUNG SHUI CENTRE,"CHI CHEONG ROAD, NORTH",北區,上水中心,北區 智昌路,北区,上水中心,北区 智昌路,1,0,0,0,0,0,0,0,0,-,-
12704533.3656836,2571680.7594113,532,North,Choi Yuen Car Park C,"Choi Yuen Plaza, 8 Choi Yuen Road, Sheung Shui, New Territories",北區,彩園C停車場,新界上水彩園路8號彩園廣場,北区,彩园C停车场,新界上水彩园路8号彩园广场,0,0,0,0,1,5,5,0,0,-,-
12705813.8737862,2571017.46703026,533,North,Car Park of North District Government Offices,"No. 3 Pik Fung Road, Fanling, New Territories, Hong Kong",北區,北區政府合署停車場,香港新界粉嶺璧峰路3號,北区,北区政府合署停车场,香港新界粉岭璧峰路3号,0,26,0,0,0,0,0,0,0,-,https://ev-charger.epd.gov.hk/resource/ev_charger_avail/ev_charger_avail.json
12706247.7971613,2570073.60108083,534,North,Wah Sum Estate Car Park,"18 Yat Ming Rd, Fanling",北區,華心邨停車場,粉嶺一鳴路18號,北区,华心邨停车场,粉岭一鸣路18号,0,0,0,0,1,1,1,0,0,-,-
12704816.4511487,2571964.76024145,535,North,Metropolis Plaza,"8 Lung Wan Street, Sheung Shui",北區,新都廣場,上水龍運街8號,北区,新都广场,上水龙运街8号,2,0,0,0,0,0,2,0,0,-,-
12704303.4909351,2572064.28819437,536,North,Po Shek Wu Estate,"Choi Yuen Road, Sheung Shui, N.T.",北區,寶石湖邨,新界上水寶石湖路與彩園路路口,北区,宝石湖邨,新界上水宝石湖路与彩园路路口,47,10,0,0,0,0,0,0,0,-,-
12704709.695757,2571293.26332688,537,North,Po Wing Road Sports Centre,"19 Pak Wo Road, Sheung Shui",北區,保榮路體育館,上水百和路19號,北区,保荣路体育馆,上水百和路19号,0,3,0,0,0,0,0,0,0,-,https://ev-charger.epd.gov.hk/resource/ev_charger_avail/ev_charger_avail.json
12705589.8989707,2569392.9037545,538,North,Fai Ming Estate,FAI MING ROAD,北區,暉明邨,暉明路,北区,晖明邨,晖明路,1,0,0,0,0,0,0,0,0,-,-
12706316.7039261,2571486.6487728,539,North,Commune Modern,"28 Wo Fung St, Fanling",北區,囍逸,粉嶺聯和墟和豐街28號,北区,囍逸,粉岭联和墟和丰街28号,30,87,0,0,0,0,3,0,0,-,-
12704945.804397,2572411.55623998,540,North,North District Sports Ground,"26 Tin Ping Road, Sheung Shui",北區,北區運動場,新界上水天平路26號北區運動場,北区,北区运动场,新界上水天平路26号北区运动场,0,8,0,0,0,0,0,0,0,-,https://ev-charger.epd.gov.hk/resource/ev_charger_avail/ev_charger_avail.json
12706354.775192,2569825.05297856,541,North,Wo Hing Sports Centre,"No.8 Wo Ming Lane, Fanling",北區,和興體育館,粉嶺和鳴里8號地下,北区,和兴体育馆,粉岭和鸣里8号地下,0,4,0,0,0,0,0,0,0,-,https://ev-charger.epd.gov.hk/resource/ev_charger_avail/ev_charger_avail.json
12705069.8143097,2572382.15505632,542,North,Sheung Shui Swimming Pool,"38 Tin Ping Road, Sheung Shui",北區,上水游泳池,上水天平路38號,北区,上水游泳池,上水天平路38号,0,3,0,0,0,0,0,0,0,-,https://ev-charger.epd.gov.hk/resource/ev_charger_avail/ev_charger_avail.json
12706676.0432424,2571781.97255899,543,North,Green Code,"MA SIK ROAD, NORTH",北區,逸峯,北區 馬適路,北区,逸峯,北区 马适路,0,0,0,0,0,4,0,0,0,-,-
12705608.2666867,2571034.21468748,544,North,Fanling Swimming Pool,"73 San Wan Road, Fanling",北區,粉嶺游泳池,粉嶺新運路73號,北区,粉岭游泳池,粉岭新运路73号,0,5,0,0,0,0,0,0,0,-,https://ev-charger.epd.gov.hk/resource/ev_charger_avail/ev_charger_avail.json
12707865.4920015,2572095.25524527,545,North,Queens Hill Shopping Centre,LUNG MA ROAD,北區,皇后山商場停車場,龍馬路,北区,皇后山商场停车场,龙马路,56,34,0,0,0,0,0,0,0,-,-
12708209.5805476,2572145.9834958,546,North,Shan Lai Court,"88 Lung Ma Rd, Kwan Tei",北區,山麗苑,軍地龍馬路88號,北区,山丽苑,军地龙马路88号,18,0,0,0,0,0,0,0,0,-,-
12707523.6298453,2578011.50024527,547,North,Heung Yuen Wai BCP Public Car Park-Private Car & Motorcycle,"Mezzanine Floor of Passenger Terminal Building, Heung Yuen Wai Boundary Control Point, New Territories, Hong Kong",北區,香園圍口岸公眾停車場-私家車及電單車,香港新界香園圍邊境管制站旅檢大樓閣樓,北区,香园围口岸公众停车场-私家车及电单车,香港新界香园围边境管制站旅检大楼阁楼,0,126,0,0,0,0,0,0,0,-,-
12704162.7830988,2571076.14414768,548,North,Cheung Lung Wai Estate,"Cheung Lung Wai Estate, North, New Territories",北區,祥龍圍邨,"祥龍圍邨, 北區, 新界",北区,祥龙围邨,"祥龙围邨, 北区, 新界",0,1,0,0,0,0,0,0,0,-,-
12702485.1983725,2573094.54587811,549,North,Ho Sheung Heung,"D95 Lot HSHL1, 1080RP, Ho Sheung Heung Village",北區,河上鄉,"河上鄉 DD95 Lot HSHL1, 1080RP (近美味棧對出)",北区,河上乡,"河上乡 DD95 Lot HSHL1, 1080RP (近美味栈对出)",0,0,0,0,0,0,1,0,0,-,-
12706527.2090832,2570824.44848303,550,North,Fanling Lung Fung,"No.23 Yip Cheong Street, Fanling",北區,粉嶺龍豐,粉嶺業暢街23號,北区,粉岭龙丰,粉岭业畅街23号,0,0,0,0,0,4,0,0,0,-,-
12704573.6633393,2571693.89298743,551,North,Choi Yuen Car Park B,"Choi Yuen Plaza, 8 Choi Yuen Road, Sheung Shui, New Territories",北區,彩園B停車場,新界上水彩園路8號彩園廣場,北区,彩园B停车场,新界上水彩园路8号彩园广场,0,39,0,0,0,0,0,0,0,-,-
12704519.6733862,2571766.18808717,552,North,Choi Yuen Car Park A,"Choi Yuen Plaza, 8 Choi Yuen Road, Sheung Shui, New Territories",北區,彩園A停車場,新界上水彩園路8號彩園廣場,北区,彩园A停车场,新界上水彩园路8号彩园广场,0,9,0,0,0,0,0,0,0,-,-
12705726.1540275,2569562.17191033,553,North,YUNG SHING COURT,"FAI MING ROAD, NORTH",北區,雍盛苑,北區 暉明路,北区,雍盛苑,北区 晖明路,0,0,0,0,2,2,0,0,0,-,-
12708317.6717731,2565699.67115541,554,Tai Po,Tai Wo Car Park B,"Tai Wo Plaza, 12 Tai Wo Road, Tai Po, New Territories",大埔區,太和B停車場,新界大埔太和路12號太和廣場,大埔区,太和B停车场,新界大埔太和路12号太和广场,0,13,0,0,0,2,3,0,0,-,-
12708474.7435746,2565809.27945867,555,Tai Po,Tai Wo Car Park A,"Tai Wo Plaza, 12 Tai Wo Road, Tai Po, New Territories",大埔區,太和A停車場,新界大埔太和路12號太和廣場,大埔区,太和A停车场,新界大埔太和路12号太和广场,0,18,0,6,0,2,0,0,8,Tesla Wall Connector / Supercharger,-
12709215.0181884,2564909.66950589,556,Tai Po,UPTOWN PLAZA BLOCK 1,"NAM WAN ROAD, TAI PO",大埔區,新達廣場,大埔 南運路,大埔区,新达广场,大埔 南运路,0,0,0,0,0,2,0,0,0,-,-
12708819.8339961,2565261.72691574,557,Tai Po,Po Heung Estate Car Park,"No.1 Po Heung Street, Tai Po, N.T",大埔區,寶鄉邨停車場,新界大埔寶鄉街1號,大埔区,宝乡邨停车场,新界大埔宝乡街1号,8,7,0,0,0,0,0,0,0,-,-
12709432.9817514,2565884.68075305,558,Tai Po,Tai Po Mega Mall,8 On Pong Rd,大埔區,大埔超級城,大埔安邦路8號,大埔区,大埔超级城,大埔安邦路8号,2,0,0,0,0,0,2,0,0,-,-
12708475.8567695,2566287.95096311,559,Tai Po,Tai Po Sports Ground,"21 Tai Po Tau Road, Tai Po",大埔區,大埔運動場停車場,大埔頭路21 號,大埔区,大埔运动场停车场,大埔头路21 号,0,3,0,0,0,0,0,0,0,-,https://ev-charger.epd.gov.hk/resource/ev_charger_avail/ev_charger_avail.json
12708980.9132993,2565199.69778813,560,Tai Po,Tai Po Complex Car Park,"No. 8 Heung Sze Wui Street, Tai Po",大埔區,大埔綜合大樓停車場,大埔鄉事會街8號,大埔区,大埔综合大楼停车场,大埔乡事会街8号,0,5,0,0,0,0,0,0,0,-,https://ev-charger.epd.gov.hk/resource/ev_charger_avail/ev_charger_avail.json
12709807.4605184,2566066.92202844,561,Tai Po,Fu Shin Car Park,"Fu Shin Shopping Centre, 12 On Po Road, Tai Po, New Territories",大埔區,富善停車場,新界大埔安埔路12號富善商場,大埔区,富善停车场,新界大埔安埔路12号富善商场,0,18,0,7,1,1,0,0,4,Tesla Wall Connector / Supercharger,-
12709877.7031171,2565102.49921064,562,Tai Po,Kwong Fuk Park,"Kwong Chun Street, Tai Po",大埔區,廣福公園停車場,大埔廣進街,大埔区,广福公园停车场,大埔广进街,0,5,0,0,0,0,0,0,0,-,https://ev-charger.epd.gov.hk/resource/ev_charger_avail/ev_charger_avail.json
12710099.1175843,2567191.48985806,563,Tai Po,Fu Tip Estate (Phase 2),"Choi Tip St, Tai Po",大埔區,富蝶邨 第二期,彩蝶街,大埔区,富蝶邨 第二期,彩蝶街,0,19,0,0,0,0,0,0,0,-,-
12709380.8842297,2565583.92075015,564,Tai Po,Tai Po Tung Cheong Street Leisure Building,"Tung Cheung Street, Tai Po Market, Tai Po, New Territories",大埔區,大埔東昌街康體大樓,新界大埔大埔墟東昌街,大埔区,大埔东昌街康体大楼,新界大埔大埔墟东昌街,0,60,0,0,0,0,0,0,0,-,-
12709904.5311144,2565942.73757271,565,Tai Po,Ming Nga Court,"7 On Po Ln, Tai Po",大埔區,明雅苑,安保里7號,大埔区,明雅苑,安保里7号,0,12,0,0,0,0,0,0,0,-,-
12712168.7695571,2567326.16362095,566,Tai Po,Richwood Park,"33, Lo Fai Rd, Tai Po",大埔區,嘉豐花園,大埔露輝路33號,大埔区,嘉丰花园,大埔露辉路33号,0,16,0,0,0,2,0,0,0,-,-
12714922.3684814,2568055.2036043,567,Tai Po,Ting Kok Village,"No.138, Ting Kok Village",大埔區,汀角村,汀角路138號,大埔区,汀角村,汀角路138号,0,0,0,0,0,2,0,0,0,-,-
12709091.3422341,2566162.07854086,568,Tai Po,Tai Yuen Car Park B,"Tai Yuen Commercial Centre, 10 Ting Kok Road, Tai Po, New Territories",大埔區,大元B停車場,新界大埔汀角路10號大元商場,大埔区,大元B停车场,新界大埔汀角路10号大元商场,0,21,0,0,0,0,0,0,0,-,-
12709448.3438411,2566596.31229408,569,Tai Po,Fu Heng Car Park A,"Fu Heng Shopping Centre, 6 Chung Nga Road, Tai Po, New Territories",大埔區,富亨停車場A,新界大埔頌雅路6號富亨商場,大埔区,富亨停车场A,新界大埔颂雅路6号富亨商场,0,11,0,0,0,0,0,0,0,-,-
12709777.6268949,2565462.87149659,570,Tai Po,Kwong Fuk Car Park,"Kwong Fuk Commercial Centre, 28 Plover Cove Road, Tai Po, New Territories",大埔區,廣褔停車場,新界大埔寶湖道28號廣福商場,大埔区,广褔停车场,新界大埔宝湖道28号广福商场,0,18,0,0,0,0,0,0,0,-,-
12712697.3144994,2563037.97599178,571,Tai Po,University Hill,"63 Yau King Ln, Tai Po Kau",大埔區,大學山,大埔滘優景里63號,大埔区,大学山,大埔滘优景里63号,0,3,0,0,0,2,0,0,0,-,-
12713328.3846927,2563194.17327032,572,Tai Po,Solaria,FO CHUN ROAD,大埔區,嘉熙,科進路,大埔区,嘉熙,科进路,0,4,0,0,0,0,0,0,0,-,-
12709324.7792063,2566247.71986565,573,Tai Po,Tai Yuen Car Park A,"Tai Yuen Commercial Centre, 10 Ting Kok Road, Tai Po, New Territories",大埔區,大元A停車場,新界大埔汀角路10號大元商場,大埔区,大元A停车场,新界大埔汀角路10号大元商场,0,10,0,0,0,2,0,0,0,-,-
12713519.0749804,2563256.91753789,574,Tai Po,The Horizon,18 Fo Chun Road,大埔區,海日灣,科進路18號,大埔区,海日湾,科进路18号,0,4,0,0,0,0,0,0,0,-,-
12712921.8459123,2562918.99245974,575,Tai Po,Silicon Hill,No. 63 Yau King Lane,大埔區,Silicon Hill,優景里63號,大埔区,Silicon Hill,优景里63号,0,3,0,0,0,2,0,0,0,-,-
12713332.7261528,2563065.91556742,576,Tai Po,Centra Horizon,18 Chong San Road,大埔區,海日灣II,創新路18號,大埔区,海日湾II,创新路18号,0,6,0,0,0,0,0,0,0,-,-
12709952.5098149,2565384.22006372,577,Tai Po,Wang Fuk Car Park,"Kwong Wang St, Tai Po",大埔區,宏褔停車場,大埔廣宏街,大埔区,宏褔停车场,大埔广宏街,0,12,0,0,0,0,0,0,0,-,-
12713932.0702913,2562807.59670183,578,ShaTin,Science Park Car Park P2,"10 Science and Technology East Ave, Tai Po",沙田區,科學園停車場 P2,科技大道東10號,沙田区,科学园停车场 P2,科技大道东10号,0,4,0,0,2,4,20,0,0,-,-
12711581.4479237,2557516.36991998,579,ShaTin,Shatin Centre,"2-16 Wang Pok Street, Shatin",沙田區,沙田中心,沙田橫壆街2-16號,沙田区,沙田中心,沙田横壆街2-16号,0,3,0,0,0,0,0,0,0,-,-
12711959.0436365,2559279.68550856,580,ShaTin,Shatin Galleria,"18 – 24 Shan Mei Street, Fo Tan",沙田區,沙田商業中心,火炭山尾街18-24號,沙田区,沙田商业中心,火炭山尾街18-24号,2,0,0,10,0,0,0,0,0,Tesla Wall Connector,-
12711237.1367387,2557900.53681499,581,ShaTin,Shatin Government Offices,"1 sheung wo che road, shatin",沙田區,沙田政府合署,沙田上禾輋路1號,沙田区,沙田政府合署,沙田上禾輋路1号,0,74,0,0,0,0,0,0,0,-,https://ev-charger.epd.gov.hk/resource/ev_charger_avail/ev_charger_avail.json
12716216.9028398,2562368.52400202,582,ShaTin,MOS Town (Phase 3),"On Shing Street, Ma On Shan",沙田區,新港城3期,馬鞍山鞍誠街,沙田区,新港城3期,马鞍山鞍诚街,1,0,0,0,0,0,0,0,0,-,-
12716226.253677,2562529.77289412,583,ShaTin,MOSTown Phase 4,"18 On Luk Street, Ma On Shan",沙田區,新港城中心4期,馬鞍山鞍祿街18號,沙田区,新港城中心4期,马鞍山鞍禄街18号,0,16,0,0,0,8,0,0,0,-,-
12711521.2240792,2557672.03410263,584,ShaTin,Shatin Plaza,"20 Sha Tin Centre St, Sha Tin",沙田區,沙田廣場,沙田沙田正街20號,沙田区,沙田广场,沙田沙田正街20号,1,0,0,0,0,0,0,0,0,-,-
12712788.8191208,2559624.64094043,585,ShaTin,Plaza Ascot,Lok Shun Path,沙田區,駿景廣場,火炭樂信徑,沙田区,骏景广场,火炭乐信径,0,0,0,0,0,0,3,0,0,-,-
12710472.1491979,2556435.54899662,586,ShaTin,The Wai Car Park,"18 Che Kung Miu Road，New Territories, Hong Kong. ",沙田區,圍方停車場,香港新界大圍車公廟路18號 ,沙田区,围方停车场,香港新界大围车公庙路18号,0,0,0,0,0,0,18,0,0,-,-
12711504.4148361,2557463.27829061,587,ShaTin,NEW TOWN PLAZA PHASE I,"SHATIN CENTRE STREET, SHATIN",沙田區,新城市廣場(第一期),沙田 沙田正街,沙田区,新城市广场(第一期),沙田 沙田正街,0,0,0,0,0,0,1,0,6,-,-
12711333.0941397,2557151.59409162,588,ShaTin,New Town Plaza Phase III,"SHATIN CENTRE STREET, SHATIN",沙田區,新城市廣場(第三期),沙田 沙田正街,沙田区,新城市广场(第三期),沙田 沙田正街,2,0,0,0,0,0,2,0,0,-,-
12716378.3161015,2562746.41967161,589,ShaTin,MA ON SHAN CENTRE,"ON CHUN STREET, SHATIN",沙田區,馬鞍山中心,沙田 鞍駿街,沙田区,马鞍山中心,沙田 鞍骏街,2,4,0,0,0,0,0,0,0,-,-
12711386.9727733,2557214.07493211,590,ShaTin,ROYAL PARK HOTEL & NEW TOWN TOWER,"PAK HOK TING STREET, SHATIN",沙田區,帝都酒店,沙田 白鶴汀街,沙田区,帝都酒店,沙田 白鹤汀街,0,0,0,0,0,0,0,0,3,Tesla Wall Connector,-
12712312.3717002,2557451.48017361,591,ShaTin,Regal Riverside Hotel,"34-36, Tai Chung Kiu Rd, Sha Tin",沙田區,麗豪酒店,沙田大涌橋路34-36號,沙田区,丽豪酒店,沙田大涌桥路34-36号,0,3,0,0,0,0,1,0,3,Tesla Wall Connector,-
12711325.4130949,2557891.38701526,592,ShaTin,GRAND CENTRAL PLAZA,"SHATIN RURAL COMMITTEE ROAD, SHATIN",沙田區,新城市中央廣場,沙田 沙田鄉事會路,沙田区,新城市中央广场,沙田 沙田乡事会路,1,0,0,0,0,0,0,0,0,-,-
12713359.5541501,2558442.55097551,593,ShaTin,Heung Yee Kuk N.T.,6 On Lai Street,沙田區,新界鄉議局大樓,沙田安麗街6號,沙田区,新界乡议局大楼,沙田安丽街6号,0,0,0,0,1,1,1,0,0,-,-
12712378.2728388,2556409.06506415,594,ShaTin,Shui Chuen O Capark,"Shui Chuen O Plaza, 1 Pok Chuen Street, Shatin",沙田區,水泉澳停車場,沙田博泉街1號水泉澳廣場,沙田区,水泉澳停车场,沙田博泉街1号水泉澳广场,15,5,0,0,0,0,0,0,0,-,-
12717428.2815386,2563367.9549955,595,ShaTin,Double Cove,"SAI SHA ROAD, SHATIN",沙田區,迎海,沙田 西沙路,沙田区,迎海,沙田 西沙路,0,3,0,0,0,0,0,0,0,-,-
12713192.5749139,2557175.31029843,596,ShaTin,Yuen Chau Kok Complex,"35 Ngan Shing Street, Sha Tin",沙田區,圓州角綜合大樓,沙田銀城街35號,沙田区,圆州角综合大楼,沙田银城街35号,1,10,0,0,0,0,0,0,0,-,https://ev-charger.epd.gov.hk/resource/ev_charger_avail/ev_charger_avail.json
12715348.1655337,2561313.03847268,597,ShaTin,We Go Mall,"PO TAI STREET, SHATIN",沙田區,We Go Mall,沙田 保泰街,沙田区,We Go Mall,沙田 保泰街,0,0,0,0,0,0,0,0,4,Tesla Wall Connector,-
12713415.547854,2558461.09197457,598,ShaTin,Courtyard by Marriott Hong Kong ShaTin,1 On Ping Street,沙田區,香港沙田萬怡酒店,沙田安平街1號,沙田区,香港沙田万怡酒店,沙田安平街1号,0,3,0,0,0,0,0,0,0,Tesla Wall Connector,-
12713643.8641296,2557971.56832494,599,ShaTin,Shek Mun Estate Phase 2 Car park,"Shek Mun Estate, 18 On Muk St, Shatin",沙田區,碩門邨二期停車場,沙田石門安睦街18號,沙田区,硕门邨二期停车场,沙田石门安睦街18号,7,0,0,0,0,0,0,0,0,-,-
12715900.087569,2562882.62316852,600,ShaTin,Ma On Shan Swimming Pool,"33 On Chun Street, Ma On Shan, Sha Tin",沙田區,馬鞍山游泳池,馬鞍山鞍駿街33號,沙田区,马鞍山游泳池,马鞍山鞍骏街33号,0,6,0,0,0,0,0,0,0,-,https://ev-charger.epd.gov.hk/resource/ev_charger_avail/ev_charger_avail.json
12713357.3277603,2558056.44535479,601,ShaTin,Siu Lek Yuen Road Playground,"No. 1 Siu Lek Yuen Road, Sha Tin",沙田區,小瀝源路遊樂場,沙田小瀝源路1號,沙田区,小沥源路游乐场,沙田小沥源路1号,0,3,0,0,0,0,0,0,0,-,https://ev-charger.epd.gov.hk/resource/ev_charger_avail/ev_charger_avail.json
12712271.8514056,2558050.18490669,602,ShaTin,Sha Tin Sports Ground & Yuen Wo Playground Car Park,"18 Yuen Wo Road, Sha Tin, N.T.",沙田區,沙田運動場 & 源禾遊樂場停車場,沙田源禾路18號,沙田区,沙田运动场 & 源禾游乐场停车场,沙田源禾路18号,0,6,0,0,0,0,0,0,0,-,https://ev-charger.epd.gov.hk/resource/ev_charger_avail/ev_charger_avail.json
12710100.6760572,2556138.69058494,603,ShaTin,FESTIVAL CITY PHASE I-III,"MEI TIN ROAD, SHATIN",沙田區,名城,沙田 美田路,沙田区,名城,沙田 美田路,0,2,0,0,0,0,0,0,0,-,-
12713944.3154353,2561308.94430596,604,ShaTin,CUHK Medical Centre,"9 Chak Cheung St, Ma Liu Shui",沙田區,香港中文大學醫院,馬料水澤祥街9號,沙田区,香港中文大学医院,马料水泽祥街9号,113,30,0,0,0,0,0,0,0,-,-
12715812.5904493,2562141.88703774,605,ShaTin,Ma On Shan Sports Ground,"No. 1 Hang Hong Street, Ma On Shan, Sha Tin",沙田區,馬鞍山運動場,馬鞍山恆康街1號,沙田区,马鞍山运动场,马鞍山恒康街1号,0,15,0,0,0,0,0,0,0,-,https://ev-charger.epd.gov.hk/resource/ev_charger_avail/ev_charger_avail.json
12711567.3103484,2559539.51515221,606,ShaTin,Chun Yeung Shopping Centre Car Park,"Chun Yeung Shopping Centre, 20 Kwei Tei Street, Fo Tan, N.T.",沙田區,駿洋商場停車場,火炭桂地街20號駿洋商場,沙田区,骏洋商场停车场,火炭桂地街20号骏洋商场,55,0,0,0,0,0,0,0,0,-,-
12715473.1773218,2561640.33421898,607,ShaTin,Kam Fai Court,"13 Hang Kin Street, Ma on Shan",沙田區,錦暉苑,馬鞍山恆健街13號,沙田区,锦晖苑,马鞍山恒健街13号,2,0,0,0,0,0,0,0,0,-,-
12715343.935393,2560640.88605209,608,ShaTin,Kam Chun Court,"150 Ma On Shan Rd, Ma On Shan",沙田區,錦駿苑,馬鞍山馬鞍山路150號,沙田区,锦骏苑,马鞍山马鞍山路150号,5,5,0,0,0,0,0,0,0,-,-
12715450.0228677,2561214.17666813,609,ShaTin,YAN ON ESTATE,"Yan On Estate, Shatin, New Territories",沙田區,欣安邨,"欣安邨, 沙田區, 新界",沙田区,欣安邨,"欣安邨, 沙田区, 新界",5,10,0,0,0,0,0,0,0,-,-
12713347.1976866,2558304.81848225,610,ShaTin,Yu Tak Court,"29 On Muk St, Sha Tin",沙田區,愉德苑,沙田安睦街29號,沙田区,愉德苑,沙田安睦街29号,0,3,0,0,0,0,0,0,0,-,-
12713927.2835532,2561055.34875603,611,ShaTin,"Hyatt Regency Hong Kong , Sha Tin","CHAK CHEUNG STREET, SHATIN",沙田區,香港凱悅酒店-沙田,沙田 澤祥街,沙田区,香港凯悦酒店-沙田,沙田 泽祥街,0,6,0,0,0,4,0,0,45,Tesla Supercharger,-
12713621.3775925,2557640.97338452,612,ShaTin,Alva Hotel by Royal,YUEN HONG STREET,沙田區,帝逸酒店,源康街,沙田区,帝逸酒店,源康街,0,0,0,1,0,0,0,0,0,-,-
12711165.8922646,2556017.22813611,613,ShaTin,SUN TIN WAI ESTATE,"SHA TIN TAU ROAD, SHATIN",沙田區,新田圍邨,沙田 沙田頭路,沙田区,新田围邨,沙田 沙田头路,0,0,0,5,0,0,0,0,0,Tesla Wall Connector,-
12709625.3418315,2555293.40723693,614,ShaTin,Hin Keng Car Park,"Hin Keng Shopping Centre, 69 Che Kung Miu Road, Tai Wai, Sha Tin, New Territories",沙田區,顯徑停車場,新界沙田大圍車公廟道69號顯徑商場,沙田区,显径停车场,新界沙田大围车公庙道69号显径商场,0,9,0,6,0,4,0,0,4,Tesla Wall Connector / Supercharger,-
12711536.3635299,2557336.99071468,615,ShaTin,Sha Tin Town Hall Carpark,"Yuen Wo Road No1 ,Sha Tin",沙田區,沙田大會堂停車場, 沙田源禾路1號 ,沙田区,沙田大会堂停车场, 沙田源禾路1号,0,5,0,0,0,0,0,0,0,-,https://ev-charger.epd.gov.hk/resource/ev_charger_avail/ev_charger_avail.json
12713183.6693547,2557485.06871223,616,ShaTin,Yu Chui Shopping Centre,"Chui Yan St, Sha Tin",沙田區,愉翠商場,沙田翠欣街,沙田区,愉翠商场,沙田翠欣街,0,12,0,6,0,6,0,0,8,Tesla Wall Connector / Supercharger,-
12711991.7715668,2557653.6143675,617,ShaTin,Sha Tin Jockey Club Swimming Pool and Yuen Wo Road Sports Centre,"10 Yuen Wo Road, Sha Tin, N.T.",沙田區,沙田賽馬會游泳池及源禾路體育館,沙田源禾路10號,沙田区,沙田赛马会游泳池及源禾路体育馆,沙田源禾路10号,0,6,0,0,0,0,0,0,0,-,https://ev-charger.epd.gov.hk/resource/ev_charger_avail/ev_charger_avail.json
12711057.801039,2556893.36650011,618,ShaTin,Hong Kong Heritage Museum Carpark,"Hong Kong Heritage Museum Carpark,  Sha Tin, NT",沙田區,香港文化博物館停車場,沙田香港文化博物館停車場,沙田区,香港文化博物馆停车场,沙田香港文化博物馆停车场,0,11,0,0,0,0,0,0,0,-,https://ev-charger.epd.gov.hk/resource/ev_charger_avail/ev_charger_avail.json
12713216.7312434,2563321.46850809,619,Tai Po,St. Martin,"12 Fo Chun Rd, Pak Shek Kok",大埔區,雲滙,天賦海灣科進路12號,大埔区,云汇,天赋海湾科进路12号,0,4,0,0,0,1,0,0,0,-,-
12716027.4370665,2562026.28169275,620,ShaTin,Yiu On Shopping Centre,"2 Hang Hong St, Ma On Shan",沙田區,耀安商場,馬鞍山恆康街2號,沙田区,耀安商场,马鞍山恒康街2号,0,9,0,0,0,6,0,0,0,-,-
12714056.4141625,2562561.20396457,621,ShaTin,Hong Kong Science Park (Car Park 1),"3 Science Park W Ave, Science Park",沙田區,香港科學園 (1號車場),科學園科技大道西3號 停車場,沙田区,香港科学园 (1号车场),科学园科技大道西3号 停车场,18,35,0,0,0,0,57,0,0,-,-
12713736.8159044,2562896.71324878,622,ShaTin,Hong Kong Science Park (Car Park 3),"12 Science Park W Ave, Science Park",沙田區,香港科學園 (3號車場),科學園科技大道西12號,沙田区,香港科学园 (3号车场),科学园科技大道西12号,340,6,0,0,0,0,4,0,0,-,-
12713625.2737747,2562968.97025719,623,ShaTin,Hong Kong Science Park (Car Park 4),"16 Science Park W Ave, Science Park",沙田區,香港科學園 (4號車場),科學園科技大道西16號,沙田区,香港科学园 (4号车场),科学园科技大道西16号,182,59,0,0,0,0,6,0,0,-,-
12712141.1623234,2558108.21453456,624,ShaTin,Wo Che Car Park S,"3 Tak Hau St, Sha Tin",沙田區,禾輋S停車場,沙田德厚街3號,沙田区,禾輋S停车场,沙田德厚街3号,0,17,0,0,0,0,0,0,0,-,-
12712085.502578,2558879.59427269,625,ShaTin,SUI WO COURT,"SUI WO ROAD, SHATIN",沙田區,穗禾苑,沙田 穗禾路,沙田区,穗禾苑,沙田 穗禾路,0,0,0,0,0,0,0,0,6,Tesla Supercharger,-
12715636.3716953,2562134.42083507,626,ShaTin,Chung On Car Park,"632, Sai Sha Road, Ma On Shan",沙田區,頌安停車場,馬鞍山西沙路632號,沙田区,颂安停车场,马鞍山西沙路632号,0,54,0,0,0,0,0,0,22,-,-
12716282.5813394,2562814.09978514,627,ShaTin,Ma On Shan Plaza,"On Chun St, Ma On Shan",沙田區,馬鞍山廣場,馬鞍山鞍駿街,沙田区,马鞍山广场,马鞍山鞍骏街,0,4,0,0,0,4,0,0,0,-,-
12714249.8874375,2557696.59378098,628,ShaTin,Greenhill Villa,"63 Siu Lek Yuen Road, Siu Lek Yuen",沙田區,綠怡雅苑,小瀝源小瀝源路63號,沙田区,绿怡雅苑,小沥源小沥源路63号,93,0,0,0,0,0,0,0,0,-,-
12715179.7391441,2560982.25711512,629,ShaTin,Mountain Shore,"8 Yuk Tai St, Ma On Shan",沙田區,曉峰灣畔,馬鞍山沃泰街8號,沙田区,晓峰湾畔,马鞍山沃泰街8号,0,10,0,0,0,0,0,0,0,-,-
12716364.4011651,2562202.5801638,630,ShaTin,Park Belvedere,"MA ON SHAN ROAD, SHATIN",沙田區,雅景臺,沙田 馬鞍山路,沙田区,雅景台,沙田 马鞍山路,1,7,0,0,0,0,0,0,0,-,-
12713053.8708284,2557759.55821892,631,ShaTin,Sunshine Grove,"TAK YI STREET, SHATIN",沙田區,晴碧花園,沙田 得怡街,沙田区,晴碧花园,沙田 得怡街,0,1,0,0,0,0,0,0,0,-,-
12715219.5915218,2560757.44512401,632,ShaTin,MOS Café,"MOS Café, 23 Hang Tai Road, Ma On Shan",沙田區,鞍山茶座,新界馬鞍山恆泰路23號,沙田区,鞍山茶座,新界马鞍山恒泰路23号,0,0,0,0,0,6,0,0,0,-,-
12715818.0451043,2561619.62215706,633,ShaTin,Heng On Car Park,"Heng On Commercial Centre, 1 Hang Kam Street, Ma On Shan, Sha Tin, New Territories",沙田區,恆安停車場,新界沙田馬鞍山恆錦街1號恆安商場,沙田区,恒安停车场,新界沙田马鞍山恒锦街1号恒安商场,0,22,0,0,0,0,0,0,0,-,-
12712013.8128259,2556982.33117428,634,ShaTin,Sha Kok Car Park 2,"Sha Kok Commercial Centre, 5 Sha Kok Street, Sha Tin,  New Territories",沙田區,沙角2號停車場,新界沙田沙角街5號沙角商場,沙田区,沙角2号停车场,新界沙田沙角街5号沙角商场,0,10,0,0,0,0,0,0,0,-,-
12709721.410552,2554833.10566428,635,ShaTin,Ka Tin Car Park,"Ka Tin Court Car Park, 2-8 Hin Tin Street, Tai Wai,  Sha Tin, New Territories",沙田區,嘉田停車場,新界沙田大圍顯田街2-8號嘉田苑停車場,沙田区,嘉田停车场,新界沙田大围显田街2-8号嘉田苑停车场,0,3,0,0,0,0,0,0,0,-,-
12716648.4885056,2562282.42086153,636,ShaTin,KAM YING COURT,"MA ON SHAN ROAD, SHATIN",沙田區,錦英苑,沙田 馬鞍山路,沙田区,锦英苑,沙田 马鞍山路,0,0,0,0,0,2,0,0,0,-,-
12714429.5570956,2557364.07805543,637,ShaTin,Kwong Yuen Shopping Centre,"Kwong Yuen Shopping Centre 68 Siu Lek Yuen Road Sha Tin, New Territories",沙田區,廣源商場,新界沙田小瀝源路68號,沙田区,广源商场,新界沙田小沥源路68号,0,57,0,0,0,0,0,0,0,-,-
12711999.6752506,2559433.07842495,638,ShaTin,Harry Industrial Building,49 Au Pui Wan Street Fo Tan,沙田區,火炭協力工業大廈,火炭坳背灣街49號協力工業大廈,沙田区,火炭协力工业大厦,火炭坳背湾街49号协力工业大厦,0,0,0,3,0,0,0,0,0,Tesla Wall Connector,-
12712986.9678144,2558079.32008892,639,ShaTin,Fortune City One Plus Car Park,"1-2 Ngan Shing Street, Shatin, NT",沙田區,置富第一城-樂薈停車場,新界沙田銀城街1-2號,沙田区,置富第一城-乐荟停车场,新界沙田银城街1-2号,0,2,0,0,0,2,0,0,0,-,-
12710349.4751191,2555777.31530105,640,ShaTin,Lung Hang A Car Park,"Lung Hang Commercial Centre, 1 Tin Sam Street, Tai Wai, Sha Tin, New Territories",沙田區,隆亨A停車場,新界沙田大圍田心街1號隆亨商場,沙田区,隆亨A停车场,新界沙田大围田心街1号隆亨商场,0,3,0,0,0,0,0,0,0,-,-
12713275.0626566,2557202.87892621,641,ShaTin,Yu Chui Car Park B,"Yu Chui Shopping Centre, 2 Ngau Pei Sha Street, Siu Lek Yuen, Sha Tin, New Territories",沙田區,愉翠B停車場,新界沙田小瀝源牛皮沙街2號愉翠商場,沙田区,愉翠B停车场,新界沙田小沥源牛皮沙街2号愉翠商场,0,22,0,0,0,12,0,0,0,-,-
12715661.0846223,2561633.47033516,642,ShaTin,Kam On Carpark,"20 Hang Kam St, Ma On Shan",沙田區,錦鞍停車場,馬鞍山恆錦街20號,沙田区,锦鞍停车场,马鞍山恒锦街20号,0,24,0,0,0,0,0,0,0,-,-
12709955.4041217,2556975.58958567,643,ShaTin,Mei Lam Car Park,"Mei Lam Commercial Centre, 30 Mei Tin Road, Tai Wai, Sha Tin, New Territories",沙田區,美林停車場,新界沙田大圍美田路30號美林商場,沙田区,美林停车场,新界沙田大围美田路30号美林商场,0,18,0,0,0,0,0,0,0,-,-
12712742.1762542,2556783.93698726,644,ShaTin,St. Michel,33 To Shek Street,沙田區,瓏珀山,多石街33號,沙田区,珑珀山,多石街33号,0,1,0,0,0,2,0,0,0,-,-
12712371.5936693,2559230.20033856,645,ShaTin,"G/F, Hopeful Factory Centre",7-11 Au Pui Wan Street,沙田區,海輝工業中心地下,坳背灣街7-11號,沙田区,海辉工业中心地下,坳背湾街7-11号,0,0,0,0,0,6,0,0,0,-,-
12710765.6986952,2556104.38247004,646,ShaTin,Sun Chui Car Park,"Sun Chui Shopping Centre, 2 Chui Tin Street, Tai Wai, Sha Tin, New Territories",沙田區,新翠停車場,新界沙田大圍翠田街2號新翠商場,沙田区,新翠停车场,新界沙田大围翠田街2号新翠商场,0,18,0,0,0,0,0,0,0,-,-
12693487.3552512,2564698.05320967,647,Yuen Long,Fu Shing Building,"9 Sai Ching Street, Yuen Long",元朗區,富盛大廈,元朗西菁街9號,元朗区,富盛大厦,元朗西菁街9号,0,0,0,0,0,0,3,0,0,-,-
12690771.0483563,2565425.65354422,648,Yuen Long,Tin Shing Car Park A,"Tin Shing Shopping Centre, 3 Tin Ching Street, Tin Shui Wai, Yuen Long, New Territories",元朗區,天盛A停車場,新界元朗天水圍天靖街3號天盛商場,元朗区,天盛A停车场,新界元朗天水围天靖街3号天盛商场,0,47,0,6,1,1,1,0,4,-,-
12693922.5031407,2565048.66083675,649,Yuen Long,Golden Plaza,"28 Shui Che Kwun Street, Yuen Long",元朗區,萬金中心,元朗水車館街28號,元朗区,万金中心,元朗水车馆街28号,0,2,0,0,0,2,0,0,0,-,-
12692866.74909,2565229.20676187,650,Yuen Long,Ping Wui Centre,"13 – 17 Ping Wui Street,",元朗區,屏會中心,元朗屏會街13 – 17號,元朗区,屏会中心,元朗屏会街13 – 17号,2,0,0,0,0,0,0,0,0,-,-
12692837.9173419,2564516.79038597,651,Yuen Long,Springdale Villas,"80 Ma Tin Road, Yuen Long",元朗區,御庭居,元朗馬田路80號,元朗区,御庭居,元朗马田路80号,2,0,0,0,0,0,0,0,3,Tesla Supercharger,-
12692648.785527,2565103.9445385,652,Yuen Long,Shui Pin Wai Estate,"Shui Pin Wai Road, Yuen Long, N. T.",元朗區,水邊圍邨,新界元朗水邊圍邨,元朗区,水边围邨,新界元朗水边围邨,0,1,0,0,1,1,1,0,0,-,-
12690932.3502985,2567955.33818156,653,Yuen Long,Hong Kong Wetland Park Car Park,"Wetland Park Road, Tin Shui Wai, NT",元朗區,香港濕地公園停車場,新界 天水圍 濕地公園路,元朗区,香港湿地公园停车场,新界 天水围 湿地公园路,0,2,0,0,0,0,0,0,0,-,https://ev-charger.epd.gov.hk/resource/ev_charger_avail/ev_charger_avail.json
12694608.1198845,2564945.44099439,654,Yuen Long,"Yoho Mall I Zone A, B  I A, B ","9 Yuen Lung St, Yuen Long",元朗區,"形點 I (A, B區)",元朗元龍街9號,元朗区,"形点 I (A, B区)",元朗元龙街9号,2,0,0,0,0,0,2,0,4,-,-
12694527.1906147,2564978.92414058,655,Yuen Long,"Yoho Mall I Zone C, D  I C, D ","9 Long Yat Road, Yuen Long",元朗區,"形點 I (C, D區)",元朗朗日路9號,元朗区,"形点 I (C, D区)",元朗朗日路9号,0,0,0,3,0,0,0,0,3,Tesla Wall Connector / Supercharger,-
12694350.6379023,2565212.46492956,656,Yuen Long,Yoho Mall II,"8 Long Yat Rd, Yuen Long",元朗區,形點 II,元朗朗日路8號,元朗区,形点 II,元朗朗日路8号,2,0,0,0,0,0,2,0,0,-,-
12690276.9011367,2564115.85123148,657,Yuen Long,Hung Fuk Estate Carpark ,"Hung Fuk Shopping Centre Management Office, G/F, Ancillary Facilities Block, Hung Fuk Estate, Hung Shui Kiu, Yuen Long",元朗區,洪福邨停車場,元朗洪水橋洪福邨服務設施大樓地下洪福商場管理處,元朗区,洪福邨停车场,元朗洪水桥洪福邨服务设施大楼地下洪福商场管理处,3,0,0,0,0,0,0,0,0,-,-
12693008.3474823,2564097.3039636,658,Yuen Long,Park Signature,"KUNG UM ROAD, YUEN LONG",元朗區,溱柏,元朗 公庵路,元朗区,溱柏,元朗 公庵路,0,3,0,0,0,0,0,0,2,Tesla Wall Connector,-
12693620.3820427,2565277.86657118,659,Yuen Long,Long Ching Estate,"Long Ching Estate, Yuen Long, New Territories",元朗區,朗晴邨,"朗晴邨, 元朗區, 新界",元朗区,朗晴邨,"朗晴邨, 元朗区, 新界",1,0,0,0,0,0,0,0,0,-,-
12695473.6289254,2564720.69614575,660,Yuen Long,Long Shin Estate,"Long Shin Estate, Yuen Long, New Territories",元朗區,朗善邨,"朗善邨, 元朗區, 新界",元朗区,朗善邨,"朗善邨, 元朗区, 新界",4,0,0,0,0,0,0,0,0,-,-
12693081.7070267,2565058.53721449,661,Yuen Long,Yuen Long Plaza,"251 Castle Peak Road, Yuen Long",元朗區,元朗廣場,元朗青山公路251號,元朗区,元朗广场,元朗青山公路251号,2,0,0,0,0,0,2,0,0,-,-
12690903.1845919,2565142.84799385,662,Yuen Long,Ping Yan Carpark,"Ping Yan Court, 65 Ping Ha Street, Tin Shui Wai, N.T.",元朗區,屏欣停車場,新界天水圍屏夏路65號屏欣苑,元朗区,屏欣停车场,新界天水围屏夏路65号屏欣苑,4,0,0,0,0,0,0,0,0,-,-
12690685.2210289,2567204.4994407,663,Yuen Long,Tin Ching Estate (Amenity & Community Building),"Tin Ching Estate (Amenity & Community Building), Yuen Long, New Territories",元朗區,天晴邨（服務設施大樓）,"天晴邨（服務設施大樓）, 元朗區, 新界",元朗区,天晴邨（服务设施大楼）,"天晴邨（服务设施大楼）, 元朗区, 新界",5,0,0,0,0,0,0,0,0,-,-
12689923.4617534,2566643.16926037,664,Yuen Long,Tin Shui Wai Hospital,"TIN TAN STREET, YUEN LONG",元朗區,天水圍醫院,元朗 天壇街,元朗区,天水围医院,元朗 天坛街,2,0,0,0,0,0,0,0,0,-,-
12692769.455855,2564598.3283032,665,Yuen Long,Yuen Long Swimming Pool,"10 Tai Yuk Road, Yuen Long, N.T.",元朗區,元朗游泳池,元朗體育路10號,元朗区,元朗游泳池,元朗体育路10号,0,17,0,0,0,0,0,0,0,-,https://ev-charger.epd.gov.hk/resource/ev_charger_avail/ev_charger_avail.json
12691196.5114501,2566246.39489104,666,Yuen Long,Tin Shui Wai Swimming Pool,"1 Tin Pak Road, Tin Shui Wai, N.T.",元朗區,天水圍泳池,天水圍天柏路1號,元朗区,天水围泳池,天水围天柏路1号,0,11,0,0,0,0,0,0,0,-,https://ev-charger.epd.gov.hk/resource/ev_charger_avail/ev_charger_avail.json
12690876.8018726,2566099.08245995,667,Yuen Long,Tin Shui Wai Sports Ground,"2 Tin Shui Rd, Tin Shui Wai, N.T.",元朗區,天水圍運動場,天水圍天瑞路2號,元朗区,天水围运动场,天水围天瑞路2号,0,18,0,0,0,0,0,0,0,-,https://ev-charger.epd.gov.hk/resource/ev_charger_avail/ev_charger_avail.json
12691166.7891461,2567310.14244553,668,Yuen Long,Tin Yip Road Park,"Tin Yip Road, Tin Shui Wai, N.T.",元朗區,天業路公園,新界天水圍天業路,元朗区,天业路公园,新界天水围天业路,0,12,0,0,0,0,0,0,0,-,https://ev-charger.epd.gov.hk/resource/ev_charger_avail/ev_charger_avail.json
12694101.9501598,2564802.71682537,669,Yuen Long,Fung Kam Street Sports Centre,"20 Fung Yau Street North, Yuen Long",元朗區,鳳琴街體育館,元朗鳳攸北街20號,元朗区,凤琴街体育馆,元朗凤攸北街20号,0,17,0,0,0,0,0,0,0,-,https://ev-charger.epd.gov.hk/resource/ev_charger_avail/ev_charger_avail.json
12696278.8028023,2565782.53978429,670,Yuen Long,Park Yoho Car Park Phase 1B,"18 Castle Peak Rd - Tam Mei, Kam Tin",元朗區,Park Yoho Car Park Phase 1B,錦田青山公路 - 潭尾段18號,元朗区,Park Yoho Car Park Phase 1B,锦田青山公路 - 潭尾段18号,0,2,0,0,0,0,0,0,0,-,-
12696361.290545,2565704.85043267,671,Yuen Long,Park Yoho Car Park Phase 2A,"18 Castle Peak Rd - Tam Mei, Kam Tin",元朗區,Park Yoho Car Park Phase 2A,錦田青山公路 - 潭尾段18號,元朗区,Park Yoho Car Park Phase 2A,锦田青山公路 - 潭尾段18号,0,2,0,0,0,0,0,0,0,-,-
12696669.4228955,2565862.75893588,672,Yuen Long,Park Yoho Car Park Phase 2C,"18 Castle Peak Rd - Tam Mei, Kam Tin",元朗區,Park Yoho Car Park Phase 2C,錦田青山公路 - 潭尾段18號,元朗区,Park Yoho Car Park Phase 2C,锦田青山公路 - 潭尾段18号,0,1,0,0,0,0,0,0,0,-,-
12691102.3351609,2567663.81648171,673,Yuen Long,Wetland Season Park,WETLAND PARK ROAD,元朗區,Wetland Seasons Park,濕地公園路,元朗区,Wetland Seasons Park,湿地公园路,0,5,0,0,1,1,0,0,0,-,-
12690774.387941,2567953.29028409,674,Yuen Long,Wetland Seasons Bay Public Vehicle Park,WETLAND PARK ROAD,元朗區,Wetland Seasons Bay 公眾停車場,濕地公園路,元朗区,Wetland Seasons Bay 公众停车场,湿地公园路,0,4,0,0,1,1,0,0,0,-,-
12690114.7086386,2566972.49673879,675,Yuen Long,T Town South Car Park,"T Town, 30 & 33 Tin Wah Road, Tin Shui Wai, Yuen Long, New Territories",元朗區,T Town South 停車場,新界元朗天水圍天華路30及33號T Town,元朗区,T Town South 停车场,新界元朗天水围天华路30及33号T Town,0,21,0,14,0,2,0,0,6,Tesla Wall Connector / Supercharger,-
12693756.3031409,2565754.47521712,676,Yuen Long,One North ,8 Hong Yip Street,元朗區,朗壹廣場,元朗康業街8號,元朗区,朗壹广场,元朗康业街8号,0,74,0,0,2,2,0,0,3,-,-
12690403.8053562,2567798.01220194,677,Yuen Long,Tin Yat Estate,"76 Tin Shui Rd, Tin Shui Wai",元朗區,天逸邨,天水圍天瑞路76號,元朗区,天逸邨,天水围天瑞路76号,0,13,0,0,0,0,0,0,0,-,-
12693298.4460753,2560835.23189857,678,Yuen Long,Tai Tong Organic EcoPark,"Tai Tong Organic Eco Park, 11 Tai Tong Shan Road, Yuen Long",元朗區,大棠有機生態園,元朗大棠山道11號大棠有機生態園停車場,元朗区,大棠有机生态园,元朗大棠山道11号大棠有机生态园停车场,0,0,0,0,0,4,12,0,0,-,-
12690297.7178815,2567092.59326969,679,Yuen Long,T Town North,"33 Tin Wah Rd, Tin Shui Wai",元朗區,T Town North,天水圍天華路33號,元朗区,T Town North,天水围天华路33号,0,27,0,0,0,6,0,0,0,-,-
12699703.880895,2563376.62606446,680,Yuen Long,Shui Lau Tin Village Office,"27B Shui Lau Tin, Yuen Long",元朗區,水流田村公所,元朗八鄉水流田村村公所水流田27B號,元朗区,水流田村公所,元朗八乡水流田村村公所水流田27B号,0,0,0,0,0,0,2,0,0,-,-
12700557.7013894,2564512.3341154,681,Yuen Long,Wang Toi Shan Yau Uk Tsuen,"DD111 LOT 1545SBRP, 1546SBRP (part of),Wang Toi Shan Yau Uk Tsuen, Pat Heung, Yuen Long, NT",元朗區,橫台山邱屋村,"橫台山邱屋村 DD111 LOT 1545SBRP (部份), 1546SBRP (部份)",元朗区,横台山邱屋村,"横台山邱屋村 DD111 LOT 1545SBRP (部份), 1546SBRP (部份)",0,0,0,0,0,4,2,2,0,-,-
12702135.4325324,2562814.46106761,682,Yuen Long,Lui Kung Tin,"No. 49, Lui Kung Tin Village",元朗區,雷公田村,雷公田村49號,元朗区,雷公田村,雷公田村49号,0,0,0,0,0,0,4,0,0,-,-
12700088.9350137,2564464.03785388,683,Yuen Long,Wang Toi Leung Uk Tsuen,"DD111 LOT 1689SA (部份), 1689SB, 1689SBSS1, 1689SC, 1689SD, 1695, 1696(part of), Leung Uk Tsuen",元朗區,橫台山梁屋村,"梁屋村DD111 LOT 1689SA (部份), 1689SB, 1689SBSS1, 1689SC, 1689SD, 1695, 1696(部分)",元朗区,横台山梁屋村,"梁屋村DD111 LOT 1689SA (部份), 1689SB, 1689SBSS1, 1689SC, 1689SD, 1695, 1696(部分)",0,0,0,0,0,4,0,0,0,-,-
12692140.1667736,2564006.85621841,684,Yuen Long,Shan Ha Road,69 Shan Ha Road,元朗區,山下路,元朗山下路69號,元朗区,山下路,元朗山下路69号,0,0,0,0,0,4,0,0,0,-,-
12692884.5602085,2562689.21694232,685,Yuen Long,Kung Um Road,300 Kung Um Road,元朗區,公庵路,公庵路300號,元朗区,公庵路,公庵路300号,0,0,0,0,0,4,0,0,0,-,-
12690741.1034133,2565815.90415939,686,Yuen Long,Tin Yiu Car Park,"2 Tin Wu Rd, Tin Shui Wai",元朗區,天耀停車場,天水圍天湖路2號,元朗区,天耀停车场,天水围天湖路2号,0,18,0,0,0,0,0,0,0,-,-
12690018.0833206,2566996.10641986,687,Yuen Long,Tin Wah Estate,"21 Tin Tan St, Tin Shui Wai",元朗區,天華邨,天水圍天壇街21號,元朗区,天华邨,天水围天坛街21号,0,12,0,0,0,0,0,0,0,-,-
12690247.7354301,2566402.38126125,688,Yuen Long,Tin Shui Car Park ,"Tin Shui Shopping Centre, 9 Tin Shui Road, Tin Shui Wai, Yuen Long, New Territories",元朗區,天瑞停車場,新界元朗天水圍天瑞路9號天瑞商場,元朗区,天瑞停车场,新界元朗天水围天瑞路9号天瑞商场,0,24,0,0,0,0,0,0,0,-,-
12695539.1961055,2568809.45380211,689,Yuen Long,FAIRVIEW PARK - TOWN CENTRE,"GRINKGO ROAD, YUEN LONG",元朗區,錦綉花園市中心,元朗 銀杏路,元朗区,锦绣花园市中心,元朗 银杏路,0,0,0,0,0,2,0,0,0,-,-
12691133.9498963,2565837.34411792,690,Yuen Long,Tin Yau Car Park,"Tin Yau Court Car Park, 1 Tin Shing Road, Tin Shui Wai, Yuen Long, New Territories",元朗區,天祐停車場,新界元朗天水圍天城路1號天祐苑停車場,元朗区,天佑停车场,新界元朗天水围天城路1号天佑苑停车场,0,9,0,0,0,0,0,0,0,-,-
12690137.9744122,2567668.03266836,691,Yuen Long,Tin Chak Car Park A,"Tin Chak Shopping Centre, 71, 73, 75 & 77 Tin Shui Road, Tin Shui Wai, Yuen Long, New Territories",元朗區,天澤A停車場,"新界元朗天水圍天瑞路71, 73, 75及77號天澤商場",元朗区,天泽A停车场,"新界元朗天水围天瑞路71, 73, 75及77号天泽商场",0,11,0,0,0,0,0,0,0,-,-
12692989.0892104,2565684.61512599,692,Yuen Long,Long Ping Car Park B,"Long Ping Commercial Centre, 1 Long Ping Road, Yuen Long, New Territories",元朗區,朗屏B停車場,新界元朗朗屏路1號朗屏商場,元朗区,朗屏B停车场,新界元朗朗屏路1号朗屏商场,0,20,0,0,0,0,0,0,0,-,-
12692995.9910188,2565406.74348368,693,Yuen Long,Long Ping Car Park D,"Long Ping Commercial Centre, 1 Long Ping Road, Yuen Long, New Territories",元朗區,朗屏D停車場,新界元朗朗屏路1號朗屏商場,元朗区,朗屏D停车场,新界元朗朗屏路1号朗屏商场,0,27,0,0,0,0,0,0,0,-,-
12693588.9899463,2564756.82855412,694,Yuen Long,KOLOUR • Yuen Long,"1 Kau Yuk Road, Yuen Long",元朗區,元朗千色匯,元朗教育路1號,元朗区,元朗千色汇,元朗教育路1号,0,8,0,0,0,4,0,0,0,-,-
12691322.3024747,2566104.14140987,695,Yuen Long,Tin Tsz Car Park,"Tin Tsz Shopping Centre, 9 Tin Hei Street, Tin Shui Wai, Yuen Long, New Territories",元朗區,天慈停車場,新界元朗天水圍天喜街9號天慈商場,元朗区,天慈停车场,新界元朗天水围天喜街9号天慈商场,0,18,0,0,0,0,0,0,0,-,-
12689607.4257191,2556305.65774682,696,Tuen Mun,Hong Kong Gold Coast Piazza,"1 Castle Peak Road, Castle Peak Bay, Tuen Mun",屯門區,黃金海岸商場,屯門青山灣青山公路1號,屯门区,黄金海岸商场,屯门青山湾青山公路1号,0,0,0,30,0,6,2,0,0,Tesla Wall Connector,-
12689252.7618214,2556295.78653453,697,Tuen Mun,Hong Kong Gold Coast Hotel,Golden Beach Path,屯門區,香港黃金海岸酒店,屯門黃金泳灘徑,屯门区,香港黄金海岸酒店,屯门黄金泳滩径,0,2,0,0,0,0,0,0,0,-,-
12687270.6069683,2557666.13496956,698,Tuen Mun,Oceania Height,"2 Hoi Chu Road, Tuen Mun",屯門區,海典軒,屯門海珠路2號,屯门区,海典轩,屯门海珠路2号,0,0,0,0,0,0,0,0,3,Tesla Wall Connector / Supercharger,-
12687042.8472902,2559172.52802575,699,Tuen Mun,Parklane Centre,"25 Kin Wing Street, Tuen Mun",屯門區,百利中心,屯門建榮街25號,屯门区,百利中心,屯门建荣街25号,0,0,0,0,0,2,0,0,0,-,-
12687909.5808455,2558825.05353573,700,Tuen Mun,Tuen Mun Town Plaza Phase 1,"1 Tuen Shun Street, Tuen Mun",屯門區,屯門市廣場第一期,屯門屯順街1號,屯门区,屯门市广场第一期,屯门屯顺街1号,0,3,0,14,1,3,1,0,3,-,-
12687800.599064,2558881.15946202,701,Tuen Mun,Tuen Mun Town Plaza Phase 2,"3 Tuen Lung Street, Tuen Mun, New Territories",屯門區,屯門市廣場第二期,新界屯門屯隆街3號,屯门区,屯门市广场第二期,新界屯门屯隆街3号,2,0,0,0,0,0,0,0,0,-,-
12687900.3413277,2558959.41911532,702,Tuen Mun,Tuen Mun Town Plaza Phase 3,"2 Tuen Yan Street, Tuen Mun",屯門區,屯門市廣場第三期,屯門屯仁街2號,屯门区,屯门市广场第三期,屯门屯仁街2号,2,0,0,0,0,0,0,0,0,-,-
12686501.6119259,2557362.03145482,703,Tuen Mun,Sun Tuen Mun Centre,"LUNG MUN ROAD, TUEN MUN",屯門區,新屯門中心,屯門 龍門路,屯门区,新屯门中心,屯门 龙门路,0,3,0,0,0,0,3,0,0,-,-
12687837.7797739,2557427.40240959,704,Tuen Mun,Hanford Plaza,"Sam Shing St, Tuen Mun",屯門區,恆福商場,屯門三聖街,屯门区,恒福商场,屯门三圣街,0,1,0,0,0,0,0,0,0,-,-
12688620.2444747,2561327.00681373,705,Tuen Mun,Fu Tai Car Park,"Fu Tai Shopping Centre, 9 Tuen Kwai Road, Tuen Mun, New Territories",屯門區,富泰停車場,新界屯門屯貴路9號富泰商場,屯门区,富泰停车场,新界屯门屯贵路9号富泰商场,0,12,0,0,1,5,1,0,0,-,-
12687568.6092452,2559124.2471818,706,Tuen Mun,V City,"9 Tuen Mun Heung Sze Wui Rd, Tuen Mun",屯門區,V City,9 屯門鄉事會路,屯门区,V City,9 屯门乡事会路,5,0,0,0,0,0,5,0,4,-,-
12687729.4659094,2561340.97516645,707,Tuen Mun,Yan Tin Estate Carpark,"39, Tsing Lun Road, Tuen Mun, New Territories",屯門區,欣田邨停車場,新界屯門青麟路39號,屯门区,欣田邨停车场,新界屯门青麟路39号,0,2,0,0,0,0,0,0,0,-,-
12686891.6754217,2558996.38187877,708,Tuen Mun,99 Commons,"99 Pui To Rd, Tuen Mun",屯門區,99 Commons,屯門杯渡路99號,屯门区,99 Commons,屯门杯渡路99号,0,0,0,3,0,0,0,0,0,Tesla Wall Connector,-
12686933.6428697,2559219.36418947,709,Tuen Mun,No.4 Kin Fat Lane,"33 Kin Wing Street, Tuen Mun",屯門區,發里4 號,屯門建榮街33號,屯门区,发里4 号,屯门建荣街33号,0,0,0,0,0,0,0,0,12,Tesla Wall Connector,-
12687062.1055621,2557738.61017696,710,Tuen Mun,Tuen Mun Swimming Pool,"8 Hoi Wong RD, Tuen Mun, New Territories",屯門區,屯門游泳池,新界屯門海皇路8號,屯门区,屯门游泳池,新界屯门海皇路8号,0,3,0,0,0,0,0,0,0,-,https://ev-charger.epd.gov.hk/resource/ev_charger_avail/ev_charger_avail.json
12686805.6254553,2558033.20947266,711,Tuen Mun,LUNG YAT ESTATE,"Lung Yat Estate, Tuen Mun, New Territories",屯門區,龍逸邨,"龍逸邨, 屯門區, 新界",屯门区,龙逸邨,"龙逸邨, 屯门区, 新界",1,0,0,0,0,0,0,0,0,-,-
12687787.4633641,2558410.76645343,712,Tuen Mun,Tuen Mun Government Offices,"No.1 Tuen Hi Road, Tuen Mun, New Territories",屯門區,屯門政府合署,新界屯門屯喜路1號,屯门区,屯门政府合署,新界屯门屯喜路1号,0,22,0,0,0,0,0,0,0,-,https://ev-charger.epd.gov.hk/resource/ev_charger_avail/ev_charger_avail.json
12686589.1090457,2560661.59690224,713,Tuen Mun,Tuen Mun North West Swimming Pool,"95 Ming Kum Road, Tuen Mun, N.T.",屯門區,屯門西北游泳池,屯門鳴琴路95號,屯门区,屯门西北游泳池,屯门鸣琴路95号,0,9,0,0,0,0,0,0,0,-,https://ev-charger.epd.gov.hk/resource/ev_charger_avail/ev_charger_avail.json
12687228.5282008,2557825.41229159,714,Tuen Mun,Yau Oi Sports Centre,"No. 3 Hing On Lane, Tuen Mun, New Territories",屯門區,友愛體育館,新界屯門興安里3號,屯门区,友爱体育馆,新界屯门兴安里3号,0,3,0,0,0,0,0,0,0,-,https://ev-charger.epd.gov.hk/resource/ev_charger_avail/ev_charger_avail.json
12686730.26216,2556410.75040407,715,Tuen Mun,Siu Hei Car Park,"Siu Hei Commercial Centre, 201 Wu Chui Road, Tuen Mun, New Territories",屯門區,兆禧停車場,新界屯門湖翠路201號兆禧苑商場,屯门区,兆禧停车场,新界屯门湖翠路201号兆禧苑商场,0,0,0,0,0,2,0,0,0,-,-
12687171.7552605,2561054.74668191,716,Tuen Mun,Ching Tin Estate,Yan Po Road,屯門區,菁田邨,屯門欣寶路,屯门区,菁田邨,屯门欣宝路,0,4,0,0,0,0,0,0,0,-,-
12686975.0537203,2561325.68222916,717,Tuen Mun,Wo Tin Estate,"35 Hing Kwai St, Tuen Mun",屯門區,和田邨,屯門興貴街35號,屯门区,和田邨,屯门兴贵街35号,0,4,0,0,0,0,0,0,0,-,-
12686535.5643706,2560413.55003325,718,Tuen Mun,Tin King Car Park,"Tin King Estate Car Park, 10 Tin King Road, Tuen Mun,  New Territories",屯門區,田景停車場,新界屯門田景路10號田景邨停車場,屯门区,田景停车场,新界屯门田景路10号田景邨停车场,0,11,0,0,0,0,0,0,0,-,-
12686264.61273,2560342.74898018,719,Tuen Mun,Leung King Car Park,"Leung King Plaza, 31 Tin King Road, Tuen Mun, New Territories",屯門區,良景停車場,新界屯門田景路31號良景廣場,屯门区,良景停车场,新界屯门田景路31号良景广场,0,12,0,0,0,6,0,0,0,-,-
12686930.4146045,2560541.30575265,720,Tuen Mun,Blossom Garden,"11 Leung Tak Street, Tuen Mun",屯門區,寶怡花園,屯門良德街11號,屯门区,宝怡花园,屯门良德街11号,0,0,0,0,0,2,0,0,0,-,-
12687570.9469545,2559671.5987741,721,Tuen Mun,Chelsea Heights Phase II,"1 Shek Pai Tau Path, Tuen Mun",屯門區,卓爾居2期,屯門石排頭徑1號,屯门区,卓尔居2期,屯门石排头径1号,0,0,0,3,0,0,0,0,6,Tesla Wall Connector / Supercharger,-
12686290.8841299,2556688.11151017,722,Tuen Mun,Butterfly Car Park,"1 Wu Chui Rd, Tuen Mun",屯門區,蝴蝶停車場,屯門湖翠路1號,屯门区,蝴蝶停车场,屯门湖翠路1号,0,27,0,0,0,0,0,0,0,-,-
12688278.6049575,2559905.90829244,723,Tuen Mun,Kingston Terrace,KING SAN PATH,屯門區,景新臺,景新徑,屯门区,景新台,景新径,0,6,0,0,0,0,0,0,0,-,-
12687598.9994662,2558185.8686043,724,Tuen Mun,YAU OI ESTATE,"YAU OI ROAD, TUEN MUN",屯門區,友愛邨,屯門 友愛路,屯门区,友爱邨,屯门 友爱路,0,0,0,0,2,2,0,0,0,-,-
12687180.7721393,2556365.84819152,725,Tuen Mun,Marina Garden,"Marina Garden Block 4, 280 Wu Chui Rd, Tuen Mun",屯門區,慧豐園,屯門碼頭湖翠路280號,屯门区,慧丰园,屯门码头湖翠路280号,0,2,0,0,0,0,0,0,0,-,-
12687324.1516434,2559116.42112295,726,Tuen Mun,Hotel COZI Resort,4 Kin Fung Circuit,屯門區,悦品度假酒店,屯門建豐街4號,屯门区,悦品度假酒店,屯门建丰街4号,0,0,0,0,0,0,0,0,2,Tesla Wall Connector,-
12686987.4101837,2559612.72089593,727,Tuen Mun,HUNG CHEUNG INDUSTRIAL CENTRE,"TSING YEUNG CIRCUIT, TUEN MUN",屯門區,鴻昌工業中心,屯門 青楊街,屯门区,鸿昌工业中心,屯门 青杨街,0,0,0,0,0,0,1,0,0,-,-
12688031.5870074,2557289.43748909,728,Tuen Mun,Sam Shing Car Park,"Sam Shing Commercial Centre, 6 Sam Shing Street, Tuen Mun,  New Territories",屯門區,三聖停車場,新界屯門三聖街6號三聖商場,屯门区,三圣停车场,新界屯门三圣街6号三圣商场,0,12,0,0,0,0,0,0,0,-,-
12687119.3237803,2559637.64463502,729,Tuen Mun,Tai Hing Industrial Building,3 Tsing Yeung Circuit,屯門區,大興工業大廈,青楊街3號,屯门区,大兴工业大厦,青杨街3号,0,3,0,0,0,1,0,0,0,-,-
12686314.5951814,2560171.76808048,730,Tuen Mun,San Wai Car Park,"23 Tin King Rd, Tuen Mun",屯門區,新圍停車場,新界屯門田景路23號新圍苑停車場,屯门区,新围停车场,新界屯门田景路23号新围苑停车场,0,3,0,0,0,0,0,0,0,-,-
12684110.4692637,2546497.0193421,731,Islands,Citygate P3 Carpark,"39 Man Tung Road, Tung Chung",離島區,東薈城P3停車場,東涌文東路39號,离岛区,东荟城P3停车场,东涌文东路39号,0,6,0,0,0,2,2,0,4,-,-
12683802.0029547,2546410.99766117,732,Islands,Citygate P1 Carpark,"18 Tat Tung Road, Tung Chung",離島區,東薈城P1停車場,東涌達東路18號,离岛区,东荟城P1停车场,东涌达东路18号,0,6,0,0,1,1,0,0,4,Tesla Supercharger,-
12683993.6951178,2545966.4590641,733,Islands,Fu Tung Car Park A,"Fu Tung Plaza, 6 Fu Tung Street, Tung Chung, New Territories",離島區,富東A停車場,新界東涌富東街6號富東廣場,离岛区,富东A停车场,新界东涌富东街6号富东广场,0,12,0,0,0,2,3,0,0,-,-
12684147.4273346,2549970.97877434,734,Islands,Hong Kong SkyCity Marriott Hotel,"1 Sky City Rd E, Chek Lap Kok",離島區,香港天際萬豪酒店,赤鱲角航天城東路1號,离岛区,香港天际万豪酒店,赤鱲角航天城东路1号,0,0,0,0,0,0,0,0,4,Tesla Wall Connector,-
12683130.3011473,2549689.39670906,735,Islands,AIRPORT CAR PARK 4,"GF-L5, 11 CHEONG TAT ROAD, Hong Kong International Airport, Islands District, New Territories",離島區,機場四號停車埸,大嶼山香港國際機場暢達路11號地下至五樓,离岛区,机场四号停车埸,大屿山香港国际机场畅达路11号地下至五楼,0,78,0,0,5,3,0,0,0,-,-
12695746.6956363,2549599.1470461,736,Islands,Hong Kong Disneyland,Fantasy Road,離島區,香港迪士尼樂園,幻想道,离岛区,香港迪斯尼乐园,幻想道,2,26,0,8,0,0,0,0,0,-,-
12695262.4558514,2548631.34014017,737,Islands,Hong Kong Disneyland Hotel,"MAGIC ROAD, ISLANDS",離島區,香港迪士尼樂園酒店,離島 神奇道,离岛区,香港迪斯尼乐园酒店,离岛 神奇道,1,0,0,1,0,0,0,0,0,Tesla Wall Connector,-
12694815.8420543,2548575.02784036,738,Islands,HK Disneyland Theme Park Hollywood Hotel (Building 645),"MAGIC ROAD, ISLANDS",離島區,香港迪士尼主題樂園好萊塢酒店,離島 神奇道,离岛区,香港迪斯尼主题乐园好莱坞酒店,离岛 神奇道,1,14,0,0,0,0,0,0,0,-,-
12694776.3236351,2548706.66415251,739,Islands,Disney Explorers Lodge,Magic Rd,離島區,迪士尼探索家度假酒店,神奇道,离岛区,迪斯尼探索家度假酒店,神奇道,1,4,0,0,0,0,0,0,0,-,-
12683272.5674565,2545315.49289075,740,Islands,Yat Tung Car Park 2 & 3 (Sin Yat),"Yat Tung Shopping Centre, 8 Yat Tung Street, Tung Chung, New Territories",離島區,逸東2號及3號(善逸)停車場,新界東涌逸東街8號逸東商場,离岛区,逸东2号及3号(善逸)停车场,新界东涌逸东街8号逸东商场,0,0,0,0,2,2,2,0,0,-,-
12683131.7483006,2549921.64140468,741,Islands,Regal Airport Hotel,"9 Cheong Tat Rd, Chek Lap Kok",離島區,富豪機場酒店,赤鱲角暢達路9號,离岛区,富豪机场酒店,赤鱲角畅达路9号,0,0,0,0,0,0,0,0,1,Tesla Wall Connector,-
12683158.3536589,2547363.03555133,742,Islands,Cathay Pacific City,"International Airport, East Coast Rd, Lantau Island",離島區,國泰城,機場東岸路,离岛区,国泰城,机场东岸路,0,4,0,0,0,0,0,0,0,-,-
12683059.3906316,2544872.6674275,743,Islands,Mun Tung Estate,CHUNG MUN ROAD,離島區,滿東邨,松滿路,离岛区,满东邨,松满路,8,0,0,0,0,0,0,0,0,-,-
12685162.4384517,2549493.73605373,744,Islands,Hong Kong-Zhuhai-Macao Bridge Hong Kong Port car park 2,"Hong Kong-Zhuhai-Macao Bridge Hong Kong Port, Lantau Island, Hong Kong",離島區,港珠澳大橋香港口岸2號停車場,香港大嶼山港珠澳大橋香港口岸,离岛区,港珠澳大桥香港口岸2号停车场,香港大屿山港珠澳大桥香港口岸,0,89,0,0,0,0,0,0,0,-,-
12685129.1539239,2549570.38758873,745,Islands,Hong Kong-Zhuhai-Macao Bridge Hong Kong Port car park 1,"Hong Kong-Zhuhai-Macao Bridge Hong Kong Port, Lantau Island, Hong Kong",離島區,港珠澳大橋香港口岸1號停車場,香港大嶼山港珠澳大橋香港口岸,离岛区,港珠澳大桥香港口岸1号停车场,香港大屿山港珠澳大桥香港口岸,0,0,0,0,1,1,1,1,0,-,-
12689910.3260535,2543394.02037009,746,Islands,Ngan Ho Court,NGAN KWONG WAN ROAD,離島區,銀河苑,銀鑛灣路,离岛区,银河苑,银矿湾路,1,0,0,0,0,0,0,0,0,-,-
12690197.5303398,2543449.83417051,747,Islands,Ngan Wai Court,NGAN KWONG WAN ROAD,離島區,銀蔚苑,銀鑛灣路,离岛区,银蔚苑,银矿湾路,1,0,0,0,0,0,0,0,0,-,-
12685242.0318876,2547103.75538916,748,Islands,Ying Tung Estate,"Ying Tung Estate, Islands, New Territories",離島區,迎東,"迎東邨, 離島區, 新界",离岛区,迎东,"迎东邨, 离岛区, 新界",5,0,0,0,0,0,0,0,0,-,-
12690493.5288658,2543174.13504319,749,Islands,Mui Wo Ferry Pier Road Car Park,"14 Mui Wo Ferry Pier Road, Mui Wo",離島區,梅窩碼頭路停車場,梅窩梅窩碼頭路14號,离岛区,梅窝码头路停车场,梅窝梅窝码头路14号,0,9,0,0,0,0,0,0,0,-,https://ev-charger.epd.gov.hk/resource/ev_charger_avail/ev_charger_avail.json
12684177.9288751,2546448.89527057,750,Islands,Tung Chung Municipal Services Building,"39 Man Tung Road, Tung Chung, Lantau Island",離島區,東涌市政大樓,新界大嶼山東涌文東路39 號,离岛区,东涌市政大楼,新界大屿山东涌文东路39 号,0,10,0,0,0,0,0,0,0,-,https://ev-charger.epd.gov.hk/resource/ev_charger_avail/ev_charger_avail.json
12682749.8111277,2546595.19287509,751,Islands,Shell Airport Cargo Terminal,"12 Chek Lap Kok S Rd, Chek Lap Kok",離島區,蜆殼機場貨運大樓,赤鱲角赤鱲角南路12號,离岛区,蚬壳机场货运大楼,赤鱲角赤鱲角南路12号,0,2,0,0,0,2,0,0,0,-,-
12684725.7320893,2546582.19928635,752,Islands,Caribbean Coast Phase 2 & 3,"KIN TUNG ROAD, ISLANDS",離島區,映灣園二期及三期,離島 健東路,离岛区,映湾园二期及三期,离岛 健东路,0,2,0,0,0,2,0,0,0,-,-
12675213.036323,2541876.05217729,753,Islands,Tai O Carpark,"Tai O Road, Tai O, Lantau",離島區,大澳停車場,大嶼山大澳大澳道,离岛区,大澳停车场,大屿山大澳大澳道,0,9,0,0,0,0,0,0,0,-,https://ev-charger.epd.gov.hk/resource/ev_charger_avail/ev_charger_avail.json
12684599.0505088,2547012.55709947,754,Islands,Yu Nga Court,"8 Yi Tung Rd, Tung Chung",離島區,裕雅苑,東涌怡東路8號,离岛区,裕雅苑,东涌怡东路8号,10,10,0,0,0,0,0,0,0,-,-
12683757.6977974,2545277.8384384,755,Islands,Yu Tai Court,TUNG CHUNG ROAD,離島區,裕泰苑,東涌道,离岛区,裕泰苑,东涌道,4,0,0,0,0,0,0,0,0,-,-
12683307.8557351,2545413.65952704,756,Islands,Yat Tung Estate Carpark 3,"8 Yat Tung St, Yat Tung Estate",離島區,逸東邨3號停車場,逸東邨逸東街8號,离岛区,逸东邨3号停车场,逸东邨逸东街8号,0,13,0,0,0,0,0,0,0,-,-
12683590.0506442,2545307.79357095,757,Islands,Yat Tung Car Park 1 (Mei Yat),"Yat Tung Shopping Centre, 8 Yat Tung Street, Tung Chung, New Territories",離島區,逸東1號(美逸)停車場,新界東涌逸東街8號逸東商場,离岛区,逸东1号(美逸)停车场,新界东涌逸东街8号逸东商场,0,29,0,0,4,4,0,0,0,-,-
12688439.4616217,2539927.31147771,758,Islands,Ham Tin Villas,Pui O,離島區,鹹田舊村,貝澳芝麻灣道,离岛区,咸田旧村,贝澳芝麻湾道,0,2,0,0,0,0,0,0,0,-,-
